{"type": "Feature","bbox": [-91.6274,14.8811,-91.5731,14.9135],"geometry": {"type": "MultiPolygon","coordinates": [[[[-91.6214,14.9108,2458.8872],[-91.6213,14.9075,2487.6035],[-91.6274,14.8975,2456.1375],[-91.6273,14.8909,2498.7527],[-91.6242,14.8882,2510.9614],[-91.6151,14.885,2499.4231],[-91.5985,14.8811,2428.5327],[-91.591,14.8869,2484.5015],[-91.5794,14.8916,2539.6187],[-91.5776,14.8975,2894.5798],[-91.5798,14.9039,3031.3638],[-91.5743,14.9099,3030.0359],[-91.5731,14.9135,2982.8926],[-91.5989,14.9108,2708.9622],[-91.612,14.9124,2475.4734],[-91.6214,14.9108,2458.8872]]]]}
,"properties": {"GID_2": "GTM.13.22_1","GID_0": "GTM","country": "Guatemala","GID_1": "GTM.13_1","province": "Quezaltenango","NL_NAME_1": "NA","county": "SanMiguelSigüilá","VARNAME_2": "NA","NL_NAME_2": "NA","TYPE_2": "Municipio","ENGTYPE_2": "Municipality","CC_2": "NA","HASC_2": "NA","name": "San_Miguel_Sigüilá.county","area_km2": 14.83436,"hist_schema_id": "Elevation0-9000","hist_area_km2": {"2400": 0.02049,"2425": 0.71716,"2450": 2.0285,"2475": 1.86457,"2500": 3.56518,"2525": 1.2908,"2550": 0.2049,"2575": 0.26636,"2600": 0.22538,"2625": 0.2049,"2650": 0.22539,"2675": 0.30734,"2700": 0.14343,"2725": 0.08196,"2750": 0.16391,"2775": 0.22538,"2800": 0.14343,"2825": 0.24587,"2850": 0.3688,"2875": 0.49172,"2900": 0.53271,"2925": 0.3688,"2950": 0.26635,"2975": 0.32782,"3000": 0.1844,"3025": 0.20489,"3050": 0.06147,"3075": 0.10245}}}