{"type": "Feature","bbox": [-91.4433,14.4449,-91.3757,14.5709],"geometry": {"type": "MultiPolygon","coordinates": [[[[-91.3818,14.4656,239.398],[-91.3844,14.4704,245.848],[-91.3815,14.4813,243.6628],[-91.3769,14.4872,252.8594],[-91.3757,14.5102,298.628],[-91.3815,14.5254,334.4634],[-91.3862,14.5283,348.0791],[-91.3881,14.5389,392.6708],[-91.3973,14.5488,418.1997],[-91.3958,14.5655,488.2249],[-91.4013,14.5707,516.4841],[-91.4096,14.5709,524.3011],[-91.4208,14.5684,529.625],[-91.4351,14.5616,513.3111],[-91.4433,14.561,516.7444],[-91.4424,14.5472,453.0111],[-91.4311,14.5264,358.5451],[-91.4294,14.5163,326.053],[-91.4202,14.4918,255.2126],[-91.4255,14.4749,220.9031],[-91.4158,14.4687,208.436],[-91.4134,14.4648,206.2713],[-91.4154,14.4536,216.1852],[-91.414,14.4494,173.4062],[-91.4024,14.4449,196.2026],[-91.3955,14.453,223.9877],[-91.3912,14.453,217.8456],[-91.3865,14.4525,184.5163],[-91.3819,14.4485,169.8206],[-91.3792,14.4538,172.8832],[-91.3818,14.4656,239.398]]]]}
,"properties": {"GID_2": "GTM.20.8_1","GID_0": "GTM","country": "Guatemala","GID_1": "GTM.20_1","province": "Suchitepéquez","NL_NAME_1": "NA","county": "SanAntonioSuchitepéquez","VARNAME_2": "NA","NL_NAME_2": "NA","TYPE_2": "Municipio","ENGTYPE_2": "Municipality","CC_2": "NA","HASC_2": "NA","name": "San_Antonio_Suchitepéquez.county","area_km2": 62.29577,"hist_schema_id": "Elevation0-9000","hist_area_km2": {"175": 0.71859,"200": 2.66901,"225": 6.77479,"250": 8.02669,"275": 8.08778,"300": 5.91149,"325": 5.13129,"350": 4.43327,"375": 3.94055,"400": 3.67363,"425": 3.0989,"450": 3.05778,"475": 3.01666,"500": 2.87295,"525": 0.86187,"550": 0.02052}}}