{"type": "Feature","bbox": [-91.4815,14.5971,-91.3024,14.8268],"geometry": {"type": "MultiPolygon","coordinates": [[[[-91.4815,14.6026,764.1238],[-91.4647,14.5999,748.8101],[-91.4516,14.6008,760.7172],[-91.4465,14.5971,702.9324],[-91.4472,14.6074,765.4338],[-91.4219,14.6349,918.314],[-91.4146,14.6363,930.5363],[-91.4106,14.641,946.8629],[-91.4021,14.6403,861.0781],[-91.398,14.6426,761.3472],[-91.3914,14.6378,656.3642],[-91.3905,14.6354,742.957],[-91.3755,14.6347,803.0982],[-91.3666,14.6401,885.7188],[-91.3614,14.638,999.2667],[-91.354,14.6428,1238.2035],[-91.3427,14.6662,1508.7605],[-91.3427,14.6986,2147.6382],[-91.3335,14.7118,2249.2339],[-91.3366,14.7159,1917.5688],[-91.336,14.7223,1832.4419],[-91.3319,14.7305,2154.7405],[-91.3218,14.7378,2217.6807],[-91.3188,14.7419,2102.2815],[-91.3118,14.7606,2361.5264],[-91.3024,14.7697,2486.5679],[-91.3086,14.7822,2436.9014],[-91.3183,14.7845,2390.0366],[-91.3189,14.7898,2285.8218],[-91.3163,14.8037,2232.4587],[-91.3227,14.8213,2441.895],[-91.3261,14.825,2401.3257],[-91.3299,14.8268,2521.7673],[-91.334,14.8264,2556.2756],[-91.3462,14.8167,2838.02],[-91.3512,14.8164,2660.0928],[-91.3598,14.8204,2613.1123],[-91.3644,14.8199,2774.0205],[-91.3717,14.816,2557.3772],[-91.3831,14.8027,2646.2234],[-91.3905,14.7841,2810.3306],[-91.4223,14.7482,2619.1653],[-91.4193,14.7383,2674.2078],[-91.4199,14.7297,2476.7158],[-91.416,14.7262,2562.1594],[-91.4159,14.7231,2482.5891],[-91.4187,14.7061,1918.7327],[-91.4238,14.6925,1598.0076],[-91.423,14.6736,1199.0107],[-91.4214,14.6705,1213.9916],[-91.4144,14.6655,1179.0872],[-91.4105,14.657,1013.7756],[-91.4133,14.6534,978.6093],[-91.4317,14.651,1109.0723],[-91.4374,14.6427,1064.9199],[-91.4531,14.6334,978.7562],[-91.4815,14.6026,764.1238]]]]}
,"properties": {"GID_2": "GTM.19.13_1","GID_0": "GTM","country": "Guatemala","GID_1": "GTM.19_1","province": "Sololá","NL_NAME_1": "NA","county": "SantaCatarinaIxtahuacan","VARNAME_2": "NA","NL_NAME_2": "NA","TYPE_2": "Municipio","ENGTYPE_2": "Municipality","CC_2": "NA","HASC_2": "NA","name": "Santa_Catarina_Ixtahuacan.county","area_km2": 190.9749,"hist_schema_id": "Elevation0-9000","hist_area_km2": {"650": 0.1641,"675": 0.2257,"700": 0.2051,"725": 0.3693,"750": 0.9437,"775": 2.2772,"800": 2.667,"825": 3.1592,"850": 3.1387,"875": 3.0361,"900": 3.5078,"925": 3.5283,"950": 3.0769,"975": 3.5281,"1000": 3.4051,"1025": 2.646,"1050": 2.1742,"1075": 2.4613,"1100": 1.7024,"1125": 1.7228,"1150": 1.7639,"1175": 1.6613,"1200": 1.8664,"1225": 1.5792,"1250": 1.8663,"1275": 1.7023,"1300": 1.5382,"1325": 2.0099,"1350": 1.7843,"1375": 1.7637,"1400": 1.5997,"1425": 2.0303,"1450": 2.1123,"1475": 1.9687,"1500": 1.9483,"1525": 2.2969,"1550": 2.1533,"1575": 2.0508,"1600": 2.0507,"1625": 2.0302,"1650": 2.6044,"1675": 2.2147,"1700": 2.1942,"1725": 2.0507,"1750": 1.948,"1775": 2.0506,"1800": 1.6199,"1825": 1.9275,"1850": 1.9685,"1875": 2.03,"1900": 1.7634,"1925": 2.1529,"1950": 2.3785,"1975": 2.1734,"2000": 2.0094,"2025": 2.5425,"2050": 2.2759,"2075": 2.3169,"2100": 2.6039,"2125": 2.9934,"2150": 3.0754,"2175": 3.3009,"2200": 3.2598,"2225": 3.3418,"2250": 3.0958,"2275": 3.6493,"2300": 3.6083,"2325": 3.1778,"2350": 3.2392,"2375": 2.6242,"2400": 3.0137,"2425": 2.6037,"2450": 3.0957,"2475": 3.0341,"2500": 2.6241,"2525": 2.2345,"2550": 2.214,"2575": 2.3165,"2600": 2.009,"2625": 1.5786,"2650": 1.394,"2675": 1.2506,"2700": 1.0456,"2725": 0.861,"2750": 0.6971,"2775": 0.5331,"2800": 0.7996,"2825": 0.3485,"2850": 0.3075,"2875": 0.3485,"2900": 0.3895,"2925": 0.082,"2950": 0.164,"2975": 0.082,"3000": 0.041}}}