{"type": "Feature","bbox": [-88.7334,15.5035,-88.2257,15.966],"geometry": {"type": "MultiPolygon","coordinates": [[[[-88.226,15.7232,0.6847],[-88.226,15.723,0.6847],[-88.2257,15.7232,0.6847],[-88.226,15.7232,0.6847]]],
[[[-88.4839,15.5035,491.0938],[-88.4698,15.5124,533.863],[-88.4131,15.5596,167.7998],[-88.3548,15.604,7.8357],[-88.3287,15.6351,6.7197],[-88.3175,15.6538,3.4839],[-88.3192,15.6592,4.2],[-88.3188,15.6695,2.8958],[-88.312,15.672,5.3191],[-88.3079,15.6792,5.7202],[-88.3004,15.6704,4.354],[-88.2811,15.6753,3.523],[-88.2739,15.6826,4.7769],[-88.2688,15.6839,2.1029],[-88.2609,15.6826,5.2498],[-88.2561,15.6839,1.3159],[-88.2507,15.6887,2.595],[-88.2484,15.6878,2.5633],[-88.2427,15.691,2.8022],[-88.2426,15.6949,4.6839],[-88.239,15.6962,2.4462],[-88.2383,15.7116,4.6443],[-88.245,15.7205,4.1677],[-88.226,15.723,0.6847],[-88.2343,15.7238,0.2538],[-88.2379,15.7221,0.3087],[-88.2343,15.7246,0.2538],[-88.229,15.7246,0.0],[-88.2504,15.7299,0.3195],[-88.2626,15.7365,3.9214],[-88.2701,15.7415,0.5665],[-88.2693,15.7429,0.1385],[-88.289,15.759,1.8148],[-88.294,15.7654,0.0],[-88.306,15.7732,1.8782],[-88.3076,15.7749,1.4598],[-88.3071,15.7774,0.0],[-88.3121,15.781,0.0],[-88.3821,15.8232,0.7563],[-88.3957,15.8279,4.608],[-88.4015,15.8318,2.1523],[-88.4054,15.8321,0.543],[-88.4057,15.8343,0.0],[-88.4362,15.8493,1.4557],[-88.4376,15.8515,0.4983],[-88.4832,15.8818,1.3259],[-88.5026,15.8965,4.5427],[-88.539,15.9332,0.0],[-88.5546,15.946,0.0],[-88.5865,15.9621,0.0],[-88.6057,15.966,0.6528],[-88.6201,15.9657,0.0],[-88.6224,15.9629,0.4598],[-88.6185,15.9479,0.0],[-88.6118,15.9362,0.0],[-88.6057,15.9335,0.0],[-88.5976,15.9338,6.8692],[-88.586,15.9207,2.0299],[-88.5765,15.9204,0.0],[-88.5749,15.9171,0.0],[-88.5649,15.9121,7.1137],[-88.5601,15.9015,0.7129],[-88.5504,15.8946,0.0],[-88.5482,15.8896,0.0],[-88.5479,15.8776,0.0],[-88.5437,15.8654,0.0],[-88.541,15.8665,1.6477],[-88.5437,15.8693,2.3662],[-88.5418,15.8715,1.7291],[-88.5418,15.8743,0.0],[-88.5449,15.874,0.0],[-88.5471,15.8807,6.0457],[-88.5404,15.8754,0.0],[-88.534,15.8765,0.0],[-88.5246,15.8724,6.0717],[-88.5107,15.8699,10.4393],[-88.511,15.8571,0.7076],[-88.509,15.8557,1.3118],[-88.5035,15.8565,1.3733],[-88.4965,15.8549,0.0],[-88.4918,15.8504,5.4122],[-88.4926,15.8424,1.0372],[-88.4949,15.8382,9.3188],[-88.4999,15.8354,4.5589],[-88.5026,15.8399,1.7745],[-88.5049,15.8396,0.0],[-88.5026,15.8346,0.375],[-88.499,15.8321,3.0272],[-88.4715,15.8338,11.4121],[-88.4687,15.8307,6.5761],[-88.4696,15.8237,3.0],[-88.4715,15.8215,5.9906],[-88.4776,15.8215,5.9021],[-88.4821,15.824,5.6827],[-88.4807,15.8265,7.7815],[-88.4726,15.8299,5.4705],[-88.4721,15.8332,6.9175],[-88.4993,15.8307,1.6398],[-88.5043,15.8335,3.418],[-88.5062,15.8371,0.0],[-88.5226,15.8415,0.0],[-88.5304,15.8415,4.7704],[-88.5379,15.8474,0.0],[-88.5437,15.8493,0.0],[-88.5471,15.8457,4.9261],[-88.5468,15.8418,6.3622],[-88.5524,15.8374,6.8683],[-88.5496,15.8432,1.9654],[-88.5537,15.8451,3.718],[-88.5604,15.8526,8.4566],[-88.5604,15.8551,5.3447],[-88.5624,15.8571,0.9917],[-88.5604,15.8601,0.0],[-88.5612,15.861,0.0],[-88.5626,15.859,0.0],[-88.5643,15.8538,0.0],[-88.5646,15.8276,0.0],[-88.5621,15.8215,1.9878],[-88.5576,15.8193,0.0],[-88.5565,15.821,4.5798],[-88.5579,15.8251,7.6418],[-88.5629,15.8296,6.7337],[-88.5599,15.8299,6.8831],[-88.5546,15.8196,1.814],[-88.5543,15.8124,0.0],[-88.5626,15.7932,0.4877],[-88.5663,15.7893,0.0],[-88.5685,15.7821,0.0],[-88.5846,15.7618,0.0],[-88.5846,15.759,0.0],[-88.581,15.7557,2.4989],[-88.579,15.7562,1.689],[-88.5793,15.7604,0.0],[-88.5757,15.7593,0.0],[-88.5796,15.7501,4.1012],[-88.5882,15.7421,0.0],[-88.5921,15.7415,1.2505],[-88.596,15.7432,0.6943],[-88.6012,15.7415,1.9081],[-88.6021,15.7382,0.0],[-88.6057,15.7351,0.0],[-88.6035,15.7201,0.0],[-88.6001,15.7154,0.0],[-88.5954,15.7135,0.0],[-88.5951,15.709,2.6541],[-88.6029,15.7065,2.3244],[-88.6032,15.7054,7.3406],[-88.5993,15.7043,4.617],[-88.6001,15.7021,6.2777],[-88.601,15.7035,6.2777],[-88.6043,15.7035,9.5666],[-88.6096,15.6996,0.0],[-88.6154,15.699,0.0],[-88.6201,15.6949,1.1118],[-88.6251,15.6951,0.4131],[-88.6268,15.6976,0.0],[-88.6296,15.6979,0.0],[-88.6299,15.6949,34.5765],[-88.6343,15.6932,7.5884],[-88.6371,15.6971,0.0],[-88.6421,15.6957,0.0],[-88.6451,15.6974,7.7014],[-88.6471,15.701,15.5661],[-88.6449,15.704,1.6346],[-88.6476,15.7082,25.3365],[-88.6457,15.7157,3.1456],[-88.641,15.7168,0.0],[-88.6399,15.7193,2.591],[-88.6354,15.719,0.0],[-88.6368,15.724,4.5306],[-88.6321,15.7274,0.0],[-88.6321,15.729,0.0],[-88.6343,15.7299,8.5808],[-88.6335,15.7321,4.7719],[-88.6299,15.7326,4.8407],[-88.6254,15.731,0.0],[-88.6254,15.7346,0.0],[-88.6293,15.7363,1.8664],[-88.6338,15.7426,0.0],[-88.6315,15.7463,1.6229],[-88.6279,15.7465,4.9869],[-88.6276,15.7418,0.0],[-88.6249,15.741,0.0],[-88.6243,15.7471,0.0],[-88.6276,15.7538,0.0],[-88.6379,15.7557,0.5888],[-88.6515,15.7615,4.0179],[-88.6651,15.7726,4.1682],[-88.6771,15.7785,4.8711],[-88.679,15.7818,0.0],[-88.6878,15.7643,69.7204],[-88.6935,15.7595,31.3745],[-88.7133,15.7529,208.8719],[-88.7248,15.7559,188.7481],[-88.7306,15.7457,212.0487],[-88.7334,15.7441,148.0907],[-88.728,15.7282,100.7477],[-88.72,15.7177,182.4365],[-88.7165,15.7084,243.0759],[-88.7123,15.7052,168.3871],[-88.6835,15.7064,198.9195],[-88.6672,15.6902,461.4471],[-88.6656,15.6845,507.3561],[-88.6751,15.6782,598.7383],[-88.683,15.6698,698.6088],[-88.6985,15.6631,781.4435],[-88.7054,15.6582,749.1223],[-88.7062,15.6488,586.2699],[-88.7031,15.6383,491.7039],[-88.7059,15.6207,454.6044],[-88.72,15.5882,531.5939],[-88.6971,15.5834,312.5177],[-88.6889,15.5853,364.2005],[-88.6745,15.5797,283.5614],[-88.6707,15.5829,252.4176],[-88.659,15.5845,225.2722],[-88.6507,15.588,114.162],[-88.6311,15.5894,103.1576],[-88.6249,15.5966,113.4466],[-88.6262,15.6056,72.9252],[-88.6227,15.6118,144.5706],[-88.6037,15.6171,105.0265],[-88.5989,15.6202,169.797],[-88.5877,15.6188,83.7484],[-88.5811,15.6136,118.444],[-88.5761,15.5999,65.9789],[-88.5714,15.5925,19.522],[-88.5543,15.5909,17.3301],[-88.5534,15.5767,22.4579],[-88.5611,15.5626,27.6067],[-88.5602,15.5564,24.997],[-88.5506,15.5525,27.2473],[-88.542,15.5455,27.4931],[-88.5419,15.5365,27.2414],[-88.5324,15.5233,162.3157],[-88.5278,15.5245,104.8722],[-88.5251,15.5278,77.9273],[-88.5134,15.5185,277.2382],[-88.5076,15.5053,537.0171],[-88.5004,15.5036,528.286],[-88.4839,15.5035,491.0938]]]]}
,"properties": {"GID_2": "GTM.9.6_1","GID_0": "GTM","country": "Guatemala","GID_1": "GTM.9_1","province": "Izabal","NL_NAME_1": "NA","county": "PuertoBarrios","VARNAME_2": "NA","NL_NAME_2": "NA","TYPE_2": "Municipio","ENGTYPE_2": "Municipality","CC_2": "NA","HASC_2": "NA","name": "Puerto_Barrios.county","area_km2": 1201.912,"hist_schema_id": "Elevation0-9000","hist_area_km2": {"0": 596.0192,"25": 337.8941,"50": 58.5613,"75": 34.6005,"100": 22.5583,"125": 17.8228,"150": 14.9655,"175": 14.4143,"200": 12.1076,"225": 10.8218,"250": 10.3115,"275": 8.6167,"300": 7.6368,"325": 7.249,"350": 7.1062,"375": 6.3505,"400": 6.3301,"425": 5.6768,"450": 5.1663,"475": 3.839,"500": 2.7976,"525": 2.4299,"550": 1.5927,"575": 1.5926,"600": 1.2454,"625": 1.1025,"650": 0.592,"675": 0.5512,"700": 0.592,"725": 0.4695,"750": 0.4695,"775": 0.0817,"800": 0.2246,"825": 0.1021,"875": 0.0204}}}