{"type":"Feature","properties":{"GID_2":"GTM.14.17_1","GID_0":"GTM","country":"Guatemala","GID_1":"GTM.14_1","province":"Quiché","NL_NAME_1":"NA","county":"SanJuanCotzal","VARNAME_2":"NA","NL_NAME_2":"NA","TYPE_2":"Municipio","ENGTYPE_2":"Municipality","CC_2":"NA","HASC_2":"NA","name":"San_Juan_Cotzal.county"},
"geometry":{"type": "MultiPolygon","coordinates": [[[[-91.1466,15.3744,2633.9863],[-91.125,15.3746,2528.3567],[-91.1109,15.3802,2288.0767],[-91.0984,15.3804,2848.1914],[-91.0711,15.3892,2298.0439],[-91.0604,15.4001,2100.7498],[-91.0346,15.4046,2086.8247],[-91.0202,15.4098,2193.4204],[-91.0149,15.41,2143.3652],[-91.0096,15.4028,2187.9336],[-91.0018,15.3977,2316.6594],[-90.9898,15.3977,2347.0156],[-90.9745,15.4057,2148.7297],[-90.9524,15.4076,2166.4529],[-90.9376,15.4185,1920.8673],[-90.9252,15.4128,1622.3177],[-90.9157,15.4103,1803.0895],[-90.9011,15.4192,2325.0168],[-90.8902,15.4137,2397.5632],[-90.8798,15.4174,2206.2371],[-90.8776,15.441,1912.7458],[-90.8779,15.4555,1381.7784],[-90.8692,15.4631,1097.026],[-90.8652,15.4891,1182.856],[-90.8659,15.4874,1230.9821],[-90.8804,15.4787,988.1973],[-90.9096,15.463,1084.0364],[-90.9291,15.4625,1219.8263],[-90.9445,15.4645,1394.9237],[-90.9574,15.4551,1261.1688],[-90.9678,15.4574,1426.7306],[-90.9781,15.453,1444.9756],[-91.0033,15.4509,1667.8977],[-91.0136,15.458,1657.2277],[-91.0784,15.4473,2010.8488],[-91.0966,15.4469,2050.0854],[-91.1083,15.4441,2205.752],[-91.1211,15.4297,1919.0872],[-91.1252,15.4275,2016.52],[-91.1243,15.4196,2198.1294],[-91.1308,15.4168,2104.002],[-91.1402,15.4085,1935.1725],[-91.1414,15.393,1938.4441],[-91.1558,15.3902,2261.7642],[-91.1645,15.3863,2353.5879],[-91.1598,15.3773,2627.7612],[-91.1466,15.3744,2633.9863]]]]}}