{"type": "Feature","bbox": [-90.5096,14.707,-90.3788,14.8339],"geometry": {"type": "MultiPolygon","coordinates": [[[[-90.448,14.7085,1371.3206],[-90.4471,14.7073,1371.3206],[-90.4404,14.707,1462.2993],[-90.432,14.7101,1440.8958],[-90.4232,14.711,1351.1597],[-90.4011,14.7108,1155.3043],[-90.3987,14.7241,1095.3608],[-90.4012,14.7315,1131.6899],[-90.4081,14.7372,1213.3599],[-90.4068,14.7478,1116.828],[-90.3984,14.7657,1020.1921],[-90.3973,14.7747,905.37],[-90.3788,14.7832,862.4156],[-90.3863,14.7991,813.4557],[-90.3851,14.8143,882.7764],[-90.395,14.8174,754.033],[-90.3921,14.8251,864.6656],[-90.3999,14.8259,851.9581],[-90.4125,14.8326,704.0439],[-90.4192,14.8323,596.3513],[-90.4212,14.8339,690.2097],[-90.425299999999993,14.8291,779.7798],[-90.4278,14.8288,829.837],[-90.4371,14.8303,888.9286],[-90.4473,14.8277,889.0223],[-90.4522,14.83,958.126],[-90.4583,14.8284,829.4169],[-90.4661,14.8305,943.986],[-90.4699,14.8278,941.6888],[-90.4789,14.8255,870.834],[-90.4823,14.8161,784.418],[-90.4895,14.8123,1005.9683],[-90.4944,14.8063,864.574],[-90.4977,14.8064,904.6813],[-90.4988,14.809,1067.9464],[-90.5016,14.8086,1017.2102],[-90.5062,14.7956,939.0709],[-90.5091,14.7953,1124.6353],[-90.5096,14.7926,1092.708],[-90.5027,14.7691,1164.6901],[-90.496,14.7666,1310.0282],[-90.4749,14.7682,1433.7096],[-90.4714,14.7622,1365.8257],[-90.4698,14.7473,1538.1055],[-90.4634,14.7422,1424.248],[-90.4586,14.7437,1435.7106],[-90.4545,14.7367,1451.1169],[-90.4519,14.7364,1435.9988],[-90.448,14.7392,1425.5017],[-90.4458,14.7384,1399.4633],[-90.4501,14.7315,1397.8669],[-90.4523,14.7224,1458.4143],[-90.446,14.7175,1402.2393],[-90.448,14.7085,1371.3206]]]]}
,"properties": {"GID_2": "GTM.7.11_1","GID_0": "GTM","country": "Guatemala","GID_1": "GTM.7_1","province": "Guatemala","NL_NAME_1": "NA","county": "SanPedroAyampuc","VARNAME_2": "NA","NL_NAME_2": "NA","TYPE_2": "Municipio","ENGTYPE_2": "Municipality","CC_2": "NA","HASC_2": "NA","name": "San_Pedro_Ayampuc.county","area_km2": 119.45806,"hist_schema_id": "Elevation0-9000","hist_area_km2": {"575": 0.0205,"600": 0.49191,"625": 0.71738,"650": 0.88135,"675": 1.53727,"700": 2.04972,"725": 2.19323,"750": 2.64421,"775": 3.07468,"800": 3.68966,"825": 3.17721,"850": 3.3207,"875": 3.46424,"900": 2.29584,"925": 2.54186,"950": 2.78786,"975": 3.5464,"1000": 3.60794,"1025": 3.62844,"1050": 3.52601,"1075": 3.30049,"1100": 3.25958,"1125": 3.7722,"1150": 3.50573,"1175": 4.63337,"1200": 4.59236,"1225": 4.3874,"1250": 3.95684,"1275": 3.79288,"1300": 4.244,"1325": 4.49011,"1350": 4.18272,"1375": 7.03287,"1400": 5.61816,"1425": 3.67017,"1450": 1.96829,"1475": 1.59924,"1500": 0.8611,"1525": 0.63557,"1550": 0.38953,"1575": 0.34852,"1600": 0.0205}}}