{"type": "Feature","bbox": [-91.4407,14.821,-91.175299999999993,14.9611],"geometry": {"type": "MultiPolygon","coordinates": [[[[-91.4036,14.821,3197.6978],[-91.3629,14.8477,2989.0737],[-91.3627,14.8512,2987.675],[-91.3478,14.8644,2970.2808],[-91.2977,14.8676,2910.2776],[-91.2869,14.8588,2929.2275],[-91.2731,14.8584,2946.897],[-91.2626,14.8412,2929.2957],[-91.2459,14.8488,2794.7158],[-91.2146,14.8573,3068.3533],[-91.211,14.8717,2912.7202],[-91.2063,14.8795,2821.2544],[-91.175299999999993,14.8934,2759.7124],[-91.224,14.9416,2409.3506],[-91.2387,14.9452,2374.0303],[-91.2442,14.9412,2392.8035],[-91.2615,14.9363,2700.6736],[-91.2784,14.9395,2755.6042],[-91.2998,14.9371,2764.0479],[-91.3146,14.9424,2657.4993],[-91.3275,14.9411,2898.3035],[-91.3444,14.9449,2893.2585],[-91.3614,14.9589,2954.2734],[-91.3997,14.9611,2991.6304],[-91.4173,14.9585,2805.03],[-91.4148,14.955,2732.5186],[-91.404,14.9484,2703.0989],[-91.4038,14.9433,2563.832],[-91.4067,14.9352,2420.6836],[-91.4166,14.9255,2354.1331],[-91.416,14.9213,2376.1021],[-91.4081,14.9177,2379.6409],[-91.4197,14.8998,2516.9563],[-91.4302,14.8921,2419.71],[-91.4365,14.8905,2394.291],[-91.4368,14.8729,2390.5193],[-91.4407,14.8572,2395.5239],[-91.42,14.845,2491.8325],[-91.4036,14.821,3197.6978]]]]}
,"properties": {"GID_2": "GTM.21.8_1","GID_0": "GTM","country": "Guatemala","GID_1": "GTM.21_1","province": "Totonicapán","NL_NAME_1": "NA","county": "Totonicapán","VARNAME_2": "NA","NL_NAME_2": "NA","TYPE_2": "Municipio","ENGTYPE_2": "Municipality","CC_2": "NA","HASC_2": "NA","name": "Totonicapán.county","area_km2": 250.9773,"hist_schema_id": "Elevation0-9000","hist_area_km2": {"2250": 0.041,"2275": 0.1844,"2300": 0.4507,"2325": 0.4302,"2350": 2.2536,"2375": 3.1757,"2400": 7.8681,"2425": 6.4335,"2450": 9.0148,"2475": 9.1991,"2500": 7.8267,"2525": 7.0483,"2550": 5.8804,"2575": 5.9623,"2600": 5.5526,"2625": 6.2082,"2650": 6.618,"2675": 6.4337,"2700": 7.1508,"2725": 7.1304,"2750": 6.9458,"2775": 6.7614,"2800": 7.6629,"2825": 7.8473,"2850": 7.4785,"2875": 8.1957,"2900": 9.1384,"2925": 9.6301,"2950": 9.7738,"2975": 10.0816,"3000": 7.9915,"3025": 7.1308,"3050": 6.4752,"3075": 5.553,"3100": 5.0408,"3125": 4.8769,"3150": 5.9015,"3175": 5.0407,"3200": 4.3235,"3225": 3.5448,"3250": 3.1145,"3275": 2.008,"3300": 1.1884,"3325": 0.2664,"3350": 0.0615,"3375": 0.082}}}