{"type":"Feature","properties":{"GID_2":"GTM.12.3_1","GID_0":"GTM","country":"Guatemala","GID_1":"GTM.12_1","province":"Petén","NL_NAME_1":"NA","county":"LaLibertad","VARNAME_2":"NA","NL_NAME_2":"NA","TYPE_2":"Municipio","ENGTYPE_2":"Municipality","CC_2":"NA","HASC_2":"NA","name":"La_Libertad.county"},
"geometry":{"type": "MultiPolygon","coordinates": [[[[-90.0748,16.9586,160.5681],[-90.3294,17.2297,46.515],[-90.334,17.2265,49.681],[-90.3457,17.2254,44.4561],[-90.3666,17.2109,46.3548],[-90.376,17.2115,45.3785],[-90.3889,17.1989,47.7442],[-90.3953,17.1965,50.0653],[-90.4034,17.1963,45.2383],[-90.4149,17.1922,46.6236],[-90.4356,17.1953,53.5696],[-90.4377,17.1901,48.5578],[-90.44,17.1919,47.6018],[-90.4409,17.1907,48.5855],[-90.4396,17.1875,47.8411],[-90.4415,17.1858,47.8961],[-90.4434,17.1875,46.3139],[-90.4496,17.176,46.5393],[-90.45,17.1703,50.789],[-90.4531,17.1666,48.8222],[-90.4534,17.1749,46.3956],[-90.4722,17.1761,46.5799],[-90.4736,17.1832,49.6894],[-90.4712,17.1857,45.4227],[-90.4671,17.1852,48.8325],[-90.4664,17.1867,44.7213],[-90.459,17.185,72.446],[-90.4567,17.1872,60.8268],[-90.4538,17.1942,70.9634],[-90.4548,17.1979,71.9474],[-90.4576,17.1992,47.6138],[-90.4555,17.2038,66.4202],[-90.4585,17.218,56.8322],[-90.4666,17.2233,47.082],[-90.4686,17.2273,49.947],[-90.4784,17.2331,47.5141],[-90.4834,17.2409,45.6917],[-90.5046,17.254,50.6084],[-90.509,17.2577,45.2731],[-90.5098,17.2611,49.6161],[-90.5126,17.2611,44.4947],[-90.5137,17.2654,44.3174],[-90.518,17.2655,46.0723],[-90.5247,17.2744,45.2127],[-90.5528,17.2857,51.6051],[-90.5776,17.2884,43.7211],[-90.5995,17.2967,49.941],[-90.6027,17.3046,50.58],[-90.6075,17.3064,47.0707],[-90.6316,17.3085,44.3875],[-90.6357,17.306,45.3468],[-90.6399,17.3099,43.5],[-90.6873,17.2972,43.5],[-90.6951,17.2917,43.5],[-90.7062,17.2801,48.6956],[-90.7125,17.2676,51.021],[-90.7199,17.2647,50.2189],[-90.7402,17.2631,46.297],[-90.7484,17.2596,53.0109],[-90.7556,17.2536,43.9752],[-90.7523,17.25,47.6659],[-90.7551,17.2454,45.7389],[-90.7527,17.2408,43.0],[-90.7551,17.2396,43.0],[-90.7596,17.2406,46.4201],[-90.758,17.2368,50.92],[-90.7674,17.231,46.4882],[-90.7739,17.2343,45.8238],[-90.7782,17.2276,43.0],[-90.7921,17.2346,53.0852],[-90.7986,17.2346,43.0],[-90.8009,17.2417,43.0],[-90.8039,17.2417,43.6164],[-90.812,17.2346,44.8979],[-90.8154,17.2379,43.1715],[-90.8185,17.2443,45.1701],[-90.8218,17.2422,43.0],[-90.8251,17.2439,43.5032],[-90.8248,17.247,43.0],[-90.8339,17.2534,43.0],[-90.8407,17.2542,43.0],[-90.8453,17.2516,43.0],[-90.8605,17.2525,44.6792],[-90.8584,17.2546,42.5],[-90.866,17.2607,42.5],[-90.8671,17.2686,42.5],[-90.8705,17.2675,46.1789],[-90.873,17.2708,43.2634],[-90.8759,17.27,42.5],[-90.8782,17.2648,42.5],[-90.8825,17.2649,42.5],[-90.886,17.2625,44.3144],[-90.8937,17.2667,43.5193],[-90.8952,17.2598,42.5],[-90.8987,17.26,42.5],[-90.9007,17.2544,58.091],[-90.9033,17.2527,52.459],[-90.9111,17.2533,45.7691],[-90.9165,17.2479,43.1996],[-90.9331,17.2524,43.2769],[-90.9393,17.2565,44.4382],[-90.9449,17.2567,42.5],[-90.9465,17.2598,44.9543],[-90.9543,17.261,42.9035],[-90.9559,17.2636,44.5239],[-90.9659,17.2626,45.2261],[-90.9686,17.2672,45.7971],[-90.9711,17.2654,43.1908],[-90.971,17.2634,43.1761],[-90.9755,17.2651,45.057],[-90.9802,17.2705,43.7569],[-90.982,17.2783,42.3717],[-90.9875,17.2792,43.2819],[-90.9875,17.2514,261.5055],[-91.4397,17.251,60.6577],[-91.4288,17.2185,63.1018],[-91.4183,17.2088,70.2536],[-91.4034,17.2046,50.75],[-91.3874,17.2064,54.75],[-91.3764,17.2049,58.0],[-91.3653,17.1961,62.4606],[-91.3553,17.1909,61.0],[-91.3475,17.1772,66.5138],[-91.3506,17.1652,73.0186],[-91.3493,17.1597,69.9192],[-91.3397,17.1585,78.3648],[-91.3356,17.1612,118.4182],[-91.3312,17.1768,120.3162],[-91.3245,17.1827,78.0128],[-91.3178,17.1827,68.5],[-91.309,17.1794,85.4591],[-91.3024,17.1808,118.0487],[-91.2848,17.1781,96.4283],[-91.2791,17.1796,68.5],[-91.2662,17.1698,69.0],[-91.2632,17.1645,69.0],[-91.2641,17.1561,69.0],[-91.2714,17.1454,83.2479],[-91.2733,17.1388,69.0],[-91.2705,17.1153,94.8802],[-91.2675,17.1083,125.98],[-91.2563,17.101,77.953],[-91.2345,17.1006,91.1975],[-91.227,17.0951,97.7085],[-91.2225,17.0886,83.4137],[-91.2171,17.0754,77.4829],[-91.2172,17.0656,82.6109],[-91.2143,17.0625,83.4709],[-91.2137,17.0529,70.0],[-91.2095,17.052,73.0843],[-91.2008,17.0428,89.8964],[-91.1928,17.0379,81.4815],[-91.175299999999993,17.0157,123.3301],[-91.1549,17.0047,107.4772],[-91.149,17.0042,88.7365],[-91.1381,17.0068,99.4132],[-91.1277,17.006,92.5565],[-91.1232,17.0035,101.8099],[-91.1214,17.0007,91.0],[-91.123,17.0007,158.5766],[-91.1212,16.9925,142.9017],[-91.1237,16.9828,102.0942],[-91.1226,16.977,134.0135],[-91.1175,16.9728,118.6221],[-91.1104,16.9715,186.0778],[-91.1044,16.9677,197.3896],[-91.1001,16.963,146.1594],[-91.0982,16.9556,140.3395],[-91.0945,16.95,207.1799],[-91.081,16.9421,158.9688],[-91.0749,16.9348,192.2012],[-91.073,16.9301,101.6326],[-91.0664,16.9243,170.1773],[-91.0657,16.9209,100.2855],[-91.0725,16.9166,119.9842],[-91.0753,16.9116,191.7375],[-91.0725,16.9064,123.3832],[-91.0672,16.9012,167.2053],[-91.0606,16.8979,110.1572],[-91.050299999999993,16.8968,138.7417],[-91.0072,16.8838,199.0797],[-90.9944,16.8748,115.1025],[-90.9916,16.8632,144.4752],[-90.9885,16.8614,145.4565],[-90.9823,16.8658,95.0],[-90.9805,16.8727,95.0],[-90.9806,16.8771,98.5857],[-90.9863,16.8917,144.4389],[-90.9857,16.8968,133.6112],[-90.9799,16.9011,116.57],[-90.9675,16.9008,110.0698],[-90.9589,16.895,106.4243],[-90.9558,16.8833,114.7803],[-90.9579,16.8785,97.1973],[-90.9721,16.871,104.9225],[-90.9755,16.8659,95.0],[-90.975,16.861,147.9097],[-90.9693,16.8587,154.4844],[-90.9593,16.8631,102.3832],[-90.9515,16.8636,104.0293],[-90.9444,16.8619,113.8543],[-90.9343,16.857,98.9225],[-90.9329,16.8537,96.1797],[-90.9352,16.8409,102.4688],[-90.9268,16.831,101.7246],[-90.9254,16.8231,103.8189],[-90.9229,16.8199,111.4439],[-90.9173,16.8192,97.3037],[-90.8992,16.823,102.2371],[-90.8804,16.8226,106.4071],[-90.863,16.811,125.7808],[-90.8583,16.7978,115.7519],[-90.8554,16.7956,110.8054],[-90.836,16.7939,131.9327],[-90.8125,16.7969,115.1488],[-90.8045,16.7963,107.2554],[-90.8027,16.7916,98.0],[-90.8058,16.7818,106.1758],[-90.8041,16.7738,112.6364],[-90.762,16.7621,116.3261],[-90.7586,16.7594,148.0563],[-90.7581,16.7531,152.5029],[-90.7547,16.7492,111.1394],[-90.7227,16.7295,109.1478],[-90.7156,16.728,100.0],[-90.7119,16.7245,102.6941],[-90.7082,16.7171,100.5],[-90.7107,16.7094,105.6247],[-90.7097,16.7042,100.5],[-90.7006,16.7004,100.5],[-90.6894,16.6916,101.0],[-90.6839,16.6899,103.0621],[-90.6817,16.6877,104.8313],[-90.68,16.6833,104.1596],[-90.6793,16.6706,105.7501],[-90.677,16.6668,104.082],[-90.676,16.6603,101.5],[-90.6584,16.6407,101.875],[-90.6583,16.6357,102.0],[-90.6622,16.6308,107.0851],[-90.6625,16.6275,102.0],[-90.6608,16.6194,103.8871],[-90.6561,16.6098,102.5],[-90.6547,16.5959,102.5],[-90.6573,16.5915,102.5],[-90.6675,16.589,105.2902],[-90.6674,16.582,107.0825],[-90.66,16.5772,105.4699],[-90.6446,16.5791,111.2735],[-90.6403,16.5864,111.7925],[-90.6425,16.5945,108.2109],[-90.6413,16.5957,106.4697],[-90.6379,16.5943,103.0],[-90.6266,16.5783,110.0154],[-90.6265,16.5758,108.9427],[-90.6392,16.5697,103.5],[-90.6464,16.5626,103.5],[-90.6484,16.5581,103.5],[-90.6475,16.5511,107.7292],[-90.6493,16.5455,104.8606],[-90.6434,16.5356,107.1842],[-90.6464,16.5199,103.5],[-90.6436,16.515,103.5],[-90.6356,16.5135,109.6702],[-90.6187,16.5222,110.4598],[-90.6116,16.5171,106.1598],[-90.6071,16.5078,108.1062],[-90.6079,16.4974,104.5],[-90.6122,16.4926,104.5],[-90.6232,16.4879,105.0],[-90.6309,16.4902,112.3101],[-90.6352,16.4881,105.0],[-90.6354,16.482,105.0],[-90.6283,16.4776,105.5],[-90.6188,16.4778,106.5857],[-90.6159,16.4811,105.5],[-90.6134,16.4884,110.9959],[-90.6042,16.4873,107.6429],[-90.5952,16.4908,109.5779],[-90.5934,16.489,108.9764],[-90.5949,16.4759,106.5],[-90.5923,16.4719,108.9479],[-90.5884,16.4697,107.0],[-90.5837,16.47,110.9378],[-90.565,16.4775,107.5],[-90.5483,16.4815,108.0],[-90.544,16.4808,108.0],[-90.5451,16.4777,108.4365],[-90.5288,16.4837,117.8267],[-90.5182,16.4781,112.5529],[-90.5182,16.498,111.862],[-90.5093,16.5116,115.765],[-90.5008,16.5148,114.2127],[-90.4975,16.5199,108.0],[-90.4955,16.5104,109.5862],[-90.487799999999993,16.5047,118.0606],[-90.4772,16.5227,131.9948],[-90.4707,16.522,119.3544],[-90.4621,16.5169,114.5789],[-90.462,16.511,112.0877],[-90.4579,16.5025,115.6916],[-90.4599,16.4957,108.5],[-90.4583,16.4887,114.5223],[-90.4572,16.4872,114.1959],[-90.4455,16.4839,111.4946],[-90.4424,16.4882,123.2071],[-90.4516,16.5055,108.9956],[-90.4486,16.5088,116.345],[-90.4429,16.5333,125.1487],[-90.4392,16.5391,125.543],[-90.4394,16.5415,122.2816],[-90.4463,16.5446,114.471],[-90.4541,16.5393,109.605],[-90.4599,16.5389,116.1662],[-90.4643,16.5442,115.0672],[-90.4634,16.5468,120.1219],[-90.4598,16.5502,115.4811],[-90.4475,16.5539,117.5037],[-90.4425,16.5607,109.9783],[-90.4378,16.5606,111.0054],[-90.4325,16.5562,118.7653],[-90.4259,16.5565,135.4363],[-90.4204,16.5604,125.8619],[-90.4154,16.5707,113.28],[-90.4112,16.575,113.0805],[-90.3699,16.5747,119.3439],[-90.3678,16.5793,117.3074],[-90.3733,16.5875,112.9412],[-90.3747,16.596,119.924],[-90.3775,16.599,119.9385],[-90.3756,16.6009,119.6984],[-90.3715,16.6016,113.0676],[-90.3648,16.5993,112.349],[-90.3459,16.6005,122.6307],[-90.3386,16.5954,116.0054],[-90.3425,16.5861,113.7046],[-90.3513,16.5853,117.0034],[-90.3552,16.5747,109.7949],[-90.3539,16.5713,116.7358],[-90.3426,16.5762,115.4292],[-90.3307,16.5694,110.4357],[-90.3229,16.5614,110.3345],[-90.3099,16.5536,109.0],[-90.3075,16.5544,111.7471],[-90.3055,16.5601,116.9507],[-90.3069,16.5647,119.2075],[-90.295,16.5692,114.241],[-90.2669,16.5622,113.1114],[-90.2617,16.5592,113.3913],[-90.2552,16.5604,119.7471],[-90.256,16.5652,122.0633],[-90.2523,16.5728,113.3267],[-90.2424,16.5709,110.5107],[-90.2381,16.5803,124.0567],[-90.2364,16.5862,123.3497],[-90.2406,16.5896,116.2386],[-90.2382,16.5939,123.2405],[-90.2376,16.6097,125.8923],[-90.2392,16.6146,127.7551],[-90.2379,16.6237,119.765],[-90.2263,16.6254,121.0521],[-90.2265,16.6297,121.4868],[-90.221,16.629,117.8947],[-90.2121,16.6324,118.6357],[-90.1999,16.6317,122.1045],[-90.1937,16.6351,119.262],[-90.1873,16.6348,123.0952],[-90.1836,16.6368,125.13],[-90.1758,16.6375,132.6996],[-90.1714,16.6356,123.3329],[-90.1669,16.639,138.6147],[-90.1546,16.6384,123.5932],[-90.1367,16.6425,121.5385],[-90.0294,16.8533,195.3693],[-90.0365,16.8725,189.8325],[-90.0748,16.9586,160.5681]]]]}}