{"type": "Feature","bbox": [-90.988,14.7756,-90.914,14.8956],"geometry": {"type": "MultiPolygon","coordinates": [[[[-90.914,14.789,2345.6052],[-90.9308,14.8044,2176.6106],[-90.9279,14.8125,2104.8982],[-90.9312,14.8172,2168.3943],[-90.9284,14.8247,2029.6566],[-90.9284,14.8302,2082.5979],[-90.9418,14.8531,1986.8076],[-90.9425,14.8712,1700.9436],[-90.9474,14.8956,1522.8845],[-90.9548,14.8861,1589.9962],[-90.9567,14.8802,1674.5626],[-90.9569,14.8682,1863.8142],[-90.9526,14.8606,1941.5405],[-90.956,14.8434,2177.0986],[-90.9657,14.8342,2543.9426],[-90.9688,14.8222,2606.7607],[-90.9767,14.8109,2583.8979],[-90.977,14.8066,2568.416],[-90.9809,14.805,2592.7527],[-90.9814,14.7995,2560.6963],[-90.988,14.7922,2538.9995],[-90.9841,14.7851,2326.1079],[-90.9815,14.7845,2305.2688],[-90.9804,14.7801,2291.1934],[-90.9687,14.7756,2294.5125],[-90.9643,14.7781,2293.179],[-90.9501,14.7778,2309.3782],[-90.9383,14.7813,2387.6101],[-90.9322,14.7769,2432.3516],[-90.914,14.789,2345.6052]]]]}
,"properties": {"GID_2": "GTM.3.12_1","GID_0": "GTM","country": "Guatemala","GID_1": "GTM.3_1","province": "Chimaltenango","NL_NAME_1": "NA","county": "SantaApolonia","VARNAME_2": "NA","NL_NAME_2": "NA","TYPE_2": "Municipio","ENGTYPE_2": "Municipality","CC_2": "NA","HASC_2": "NA","name": "Santa_Apolonia.county","area_km2": 44.37664,"hist_schema_id": "Elevation0-9000","hist_area_km2": {"1525": 0.16392,"1550": 0.14343,"1575": 0.53276,"1600": 0.34835,"1625": 0.2254,"1650": 0.10246,"1675": 0.2459,"1700": 0.18442,"1725": 0.12295,"1750": 0.14344,"1775": 0.2664,"1800": 0.20492,"1825": 0.22541,"1850": 0.22541,"1875": 0.34837,"1900": 0.32788,"1925": 0.43035,"1950": 0.24591,"1975": 0.38937,"2000": 0.36888,"2025": 0.26642,"2050": 0.32791,"2075": 0.4509,"2100": 0.94281,"2125": 0.94282,"2150": 1.37326,"2175": 1.33228,"2200": 1.35281,"2225": 1.78326,"2250": 1.84479,"2275": 3.01324,"2300": 4.83785,"2325": 4.09984,"2350": 3.4233,"2375": 2.8288,"2400": 1.88586,"2425": 1.43487,"2450": 1.22986,"2475": 1.04538,"2500": 0.84041,"2525": 0.84041,"2550": 0.84041,"2575": 0.90189,"2600": 0.59442,"2625": 0.45094,"2650": 0.18447,"2675": 0.06149}}}