{"type": "Feature","bbox": [-91.1384,14.6235,-91.0784,14.7051],"geometry": {"type": "MultiPolygon","coordinates": [[[[-91.0784,14.6927,1925.8042],[-91.1021,14.6987,2081.3496],[-91.1104,14.7051,2117.7798],[-91.1168,14.6974,1708.2268],[-91.1179,14.6925,1555.5],[-91.1171,14.678,1648.9215],[-91.1147,14.6746,1581.5071],[-91.1165,14.6719,1619.8113],[-91.1151,14.6686,1673.8496],[-91.1156,14.6614,1650.5513],[-91.119,14.6606,1555.5],[-91.1236,14.6628,1555.5],[-91.126,14.6618,1598.0635],[-91.1252,14.6573,1715.7849],[-91.1329,14.653,1566.0427],[-91.1322,14.648,1699.6757],[-91.1347,14.6365,1620.9062],[-91.1384,14.6348,1562.3849],[-91.1338,14.6316,1881.2826],[-91.1309,14.6321,1866.0586],[-91.1149,14.628,1663.6838],[-91.1096,14.6235,1445.3402],[-91.1083,14.6292,1394.6487],[-91.1032,14.6305,1522.4523],[-91.1018,14.6355,1529.5837],[-91.0984,14.6388,1650.4712],[-91.0981,14.6424,1549.324],[-91.0914,14.6531,1567.4436],[-91.0912,14.6625,1707.3032],[-91.089,14.6696,1693.9058],[-91.0786,14.6819,1916.1796],[-91.0784,14.6927,1925.8042]]]]}
,"properties": {"GID_2": "GTM.19.6_1","GID_0": "GTM","country": "Guatemala","GID_1": "GTM.19_1","province": "Sololá","NL_NAME_1": "NA","county": "SanAntonioPalopó","VARNAME_2": "NA","NL_NAME_2": "NA","TYPE_2": "Municipio","ENGTYPE_2": "Municipality","CC_2": "NA","HASC_2": "NA","name": "San_Antonio_Palopó.county","area_km2": 28.61363,"hist_schema_id": "Elevation0-9000","hist_area_km2": {"1350": 0.02052,"1375": 0.02051,"1400": 0.1436,"1425": 0.18463,"1450": 0.30772,"1475": 0.20514,"1500": 0.34874,"1525": 0.43079,"1550": 0.65643,"1575": 0.75896,"1600": 0.67691,"1625": 0.57434,"1650": 0.98459,"1675": 0.69741,"1700": 0.75896,"1725": 0.75894,"1750": 0.75894,"1775": 1.00509,"1800": 1.04613,"1825": 1.78455,"1850": 2.44099,"1875": 1.96918,"1900": 1.39481,"1925": 1.76398,"1950": 1.06658,"1975": 1.10756,"2000": 0.90245,"2025": 0.88191,"2050": 0.8614,"2075": 0.73833,"2100": 0.75884,"2125": 0.84088,"2150": 0.49222,"2175": 0.47172,"2200": 0.14357,"2225": 0.14356,"2250": 0.2256,"2275": 0.14356,"2300": 0.14357}}}