{"type":"Feature","properties":{"GID_2":"GTM.21.4_1","GID_0":"GTM","country":"Guatemala","GID_1":"GTM.21_1","province":"Totonicapán","NL_NAME_1":"NA","county":"SanCristóbalTotonicapán","VARNAME_2":"NA","NL_NAME_2":"NA","TYPE_2":"Municipio","ENGTYPE_2":"Municipality","CC_2":"NA","HASC_2":"NA","name":"San_Cristóbal_Totonicapán.county"},
"geometry":{"type": "MultiPolygon","coordinates": [[[[-91.4365,14.8905,2394.291],[-91.4302,14.8921,2419.71],[-91.4197,14.8998,2516.9563],[-91.4081,14.9177,2379.6409],[-91.416,14.9213,2376.1021],[-91.4249,14.9224,2419.095],[-91.4305,14.9278,2404.126],[-91.4541,14.9304,2604.5796],[-91.4747,14.9381,2695.7935],[-91.4763,14.9514,2612.4246],[-91.486,14.9546,2619.1235],[-91.4891,14.9573,2579.4976],[-91.4923,14.9585,2593.9739],[-91.4978,14.954,2628.2603],[-91.5022,14.9533,2627.2075],[-91.5122,14.9577,2646.9177],[-91.5228,14.9538,2648.5552],[-91.5327,14.9581,2634.4861],[-91.5573,14.9382,2825.3225],[-91.5248,14.9461,2702.917],[-91.5237,14.937,2738.2559],[-91.5186,14.9393,2749.1157],[-91.5065,14.9287,2679.5889],[-91.4779,14.9272,2656.9434],[-91.4719,14.9235,2666.9829],[-91.4722,14.9209,2682.062],[-91.4772,14.9148,2669.5774],[-91.4788,14.9062,2412.1133],[-91.4702,14.8954,2391.3777],[-91.4585,14.8992,2339.8215],[-91.4514,14.8952,2323.5444],[-91.4365,14.8905,2394.291]]]]}}