{"type": "Feature","bbox": [-91.3427,14.6605,-91.3053,14.7345],"geometry": {"type": "MultiPolygon","coordinates": [[[[-91.3239,14.6821,1765.0454],[-91.3207,14.6949,1910.8372],[-91.3155,14.7046,1939.7893],[-91.3062,14.7154,2069.8442],[-91.3053,14.7198,2067.4199],[-91.3116,14.7262,2041.1873],[-91.3204,14.7259,1988.6194],[-91.3259,14.7345,2207.272],[-91.3319,14.7305,2154.7405],[-91.336,14.7223,1832.4419],[-91.3366,14.7159,1917.5688],[-91.3335,14.7118,2249.2339],[-91.3427,14.6986,2147.6382],[-91.3427,14.6662,1508.7605],[-91.333,14.6605,1621.7446],[-91.3279,14.6683,1761.3835],[-91.3239,14.6821,1765.0454]]]]}
,"properties": {"GID_2": "GTM.19.18_1","GID_0": "GTM","country": "Guatemala","GID_1": "GTM.19_1","province": "Sololá","NL_NAME_1": "NA","county": "SantaMaríaVisitación","VARNAME_2": "NA","NL_NAME_2": "NA","TYPE_2": "Municipio","ENGTYPE_2": "Municipality","CC_2": "NA","HASC_2": "NA","name": "Santa_María_Visitación.county","area_km2": 16.89875,"hist_schema_id": "Elevation0-9000","hist_area_km2": {"1475": 0.06153,"1500": 0.04102,"1525": 0.06153,"1550": 0.06153,"1575": 0.08205,"1600": 0.14358,"1625": 0.24614,"1650": 0.24613,"1675": 0.43073,"1700": 0.1846,"1725": 0.30766,"1750": 0.49224,"1775": 0.65632,"1800": 0.63578,"1825": 0.6563,"1850": 0.65629,"1875": 0.82033,"1900": 0.84083,"1925": 0.88183,"1950": 0.5537,"1975": 0.82029,"2000": 1.06637,"2025": 1.35345,"2050": 0.88181,"2075": 1.00485,"2100": 0.69723,"2125": 0.45116,"2150": 0.47166,"2175": 0.30761,"2200": 0.32812,"2225": 0.36914,"2250": 0.16406,"2275": 0.14356,"2300": 0.45117,"2325": 0.18457,"2350": 0.08203,"2375": 0.06152}}}