{"type": "Feature","bbox": [-91.1305,14.4489,-90.9962,14.61],"geometry": {"type": "MultiPolygon","coordinates": [[[[-90.9965,14.5762,2268.5491],[-91.0036,14.5797,1967.6609],[-91.0044,14.5834,2024.126],[-91.0095,14.5864,2180.4717],[-91.01,14.5897,2178.2554],[-91.0134,14.5925,2162.177],[-91.0159,14.5991,2067.7146],[-91.0259,14.61,1795.9551],[-91.0313,14.6097,1755.7612],[-91.0344,14.6056,1705.3075],[-91.0348,14.599,1550.8933],[-91.0384,14.5953,1501.1526],[-91.0381,14.585,1487.2274],[-91.0666,14.5785,1480.1974],[-91.1058,14.5874,1213.0559],[-91.1107,14.5904,1157.6975],[-91.1173,14.5855,1154.6638],[-91.1158,14.5814,1009.553],[-91.1192,14.5739,1232.7507],[-91.1134,14.5682,898.6932],[-91.1156,14.565,1004.9854],[-91.1131,14.5599,953.9763],[-91.1152,14.5549,859.8588],[-91.1136,14.5465,762.5967],[-91.1164,14.5416,754.7721],[-91.1137,14.5308,708.5952],[-91.1154,14.5287,694.7408],[-91.116,14.5194,661.4567],[-91.1187,14.5153,708.13],[-91.1257,14.5106,628.0193],[-91.1244,14.4969,585.7014],[-91.1204,14.4899,541.4561],[-91.123,14.4833,513.4612],[-91.1232,14.4773,492.6015],[-91.1264,14.4733,480.5875],[-91.1259,14.4683,459.1281],[-91.1305,14.4572,422.1192],[-91.1068,14.4521,568.8685],[-91.1026,14.4489,546.1538],[-91.0993,14.4647,559.4898],[-91.081,14.4689,675.3124],[-91.077,14.4648,780.6682],[-91.0717,14.4631,763.3178],[-91.0488,14.4636,839.6927],[-91.0441,14.4767,869.2435],[-91.0393,14.4791,818.1597],[-91.0412,14.4846,918.83],[-91.0464,14.4875,833.0635],[-91.0389,14.4975,770.8419],[-91.0318,14.4986,875.6682],[-91.031,14.5031,793.4859],[-91.0304,14.5097,884.5034],[-91.0418,14.5285,1197.3105],[-91.0325,14.5501,1565.2396],[-90.9962,14.5611,1839.6691],[-90.9965,14.5762,2268.5491]]]]}
,"properties": {"GID_2": "GTM.3.8_1","GID_0": "GTM","country": "Guatemala","GID_1": "GTM.3_1","province": "Chimaltenango","NL_NAME_1": "NA","county": "Pochuta","VARNAME_2": "NA","NL_NAME_2": "NA","TYPE_2": "Municipio","ENGTYPE_2": "Municipality","CC_2": "NA","HASC_2": "NA","name": "Pochuta.county","area_km2": 138.2096,"hist_schema_id": "Elevation0-9000","hist_area_km2": {"425": 0.2464,"450": 0.4927,"475": 0.8212,"500": 1.2523,"525": 2.0529,"550": 2.8535,"575": 3.2436,"600": 3.2025,"625": 3.0999,"650": 2.5661,"675": 3.654,"700": 4.1671,"725": 4.8445,"750": 4.3107,"775": 3.9822,"800": 2.8942,"825": 2.8736,"850": 2.7504,"875": 2.894,"900": 3.5303,"925": 3.7354,"950": 3.2838,"975": 3.9405,"1000": 3.8173,"1025": 3.6941,"1050": 3.3863,"1075": 3.2837,"1100": 3.2016,"1125": 3.2837,"1150": 3.612,"1175": 3.3657,"1200": 3.6941,"1225": 2.8115,"1250": 2.791,"1275": 3.0782,"1300": 2.5447,"1325": 1.7648,"1350": 1.7853,"1375": 1.6417,"1400": 1.2312,"1425": 1.4159,"1450": 1.0876,"1475": 1.0465,"1500": 0.985,"1525": 0.985,"1550": 0.6977,"1575": 0.6772,"1600": 0.5541,"1625": 0.7592,"1650": 0.6156,"1675": 0.8208,"1700": 0.4104,"1725": 0.5951,"1750": 0.472,"1775": 0.6361,"1800": 0.6156,"1825": 0.6361,"1850": 0.513,"1875": 0.513,"1900": 0.4925,"1925": 0.2668,"1950": 0.5745,"1975": 0.5745,"2000": 0.2873,"2025": 0.4514,"2050": 0.5951,"2075": 0.4719,"2100": 0.3283,"2125": 0.4925,"2150": 0.2257,"2175": 0.4514,"2200": 0.3488,"2225": 0.3488,"2250": 0.3899,"2275": 0.4104,"2300": 0.2462,"2325": 0.2462,"2350": 0.2052,"2375": 0.3283,"2400": 0.1231,"2425": 0.2257,"2450": 0.1641,"2475": 0.1026,"2500": 0.1026,"2525": 0.041}}}