{"type":"Feature","properties":{"GID_2":"GTM.6.10_1","GID_0":"GTM","country":"Guatemala","GID_1":"GTM.6_1","province":"Escuintla","NL_NAME_1":"NA","county":"SanVicentePacaya","VARNAME_2":"NA","NL_NAME_2":"NA","TYPE_2":"Municipio","ENGTYPE_2":"Municipality","CC_2":"NA","HASC_2":"NA","name":"San_Vicente_Pacaya.county"},
"geometry":{"type": "MultiPolygon","coordinates": [[[[-90.6914,14.2503,350.2787],[-90.6709,14.2601,546.7268],[-90.6541,14.2706,627.2025],[-90.6418,14.2912,822.0589],[-90.5905,14.3067,1179.8767],[-90.6105,14.3554,1327.5549],[-90.5879,14.3956,2317.4302],[-90.5905,14.406,1843.2931],[-90.5878,14.427,1764.5693],[-90.6262,14.4377,1206.1246],[-90.6322,14.4431,1193.4304],[-90.6506,14.4155,1438.6514],[-90.6655,14.3657,925.7714],[-90.6726,14.3666,809.7791],[-90.6756,14.363,860.4706],[-90.6826,14.3653,737.9344],[-90.687,14.3629,711.9149],[-90.6909,14.3541,594.7826],[-90.6939,14.3538,555.4779],[-90.6995,14.3472,624.5676],[-90.705,14.3441,452.8227],[-90.7057,14.337,437.9685],[-90.7095,14.3354,427.9028],[-90.713,14.3262,347.1407],[-90.6857,14.3217,854.4915],[-90.6889,14.3192,666.4805],[-90.6925,14.2953,523.3568],[-90.6902,14.291,436.6556],[-90.6925,14.2806,379.713],[-90.6889,14.279,366.2549],[-90.6889,14.277,360.8876],[-90.6908,14.2746,364.7117],[-90.7095,14.2726,272.3492],[-90.6914,14.2503,350.2787]]]]}}