{"type":"Feature","properties":{"GID_2":"GTM.14.4_1","GID_0":"GTM","country":"Guatemala","GID_1":"GTM.14_1","province":"Quiché","NL_NAME_1":"NA","county":"Chiché","VARNAME_2":"NA","NL_NAME_2":"NA","TYPE_2":"Municipio","ENGTYPE_2":"Municipality","CC_2":"NA","HASC_2":"NA","name":"Chiché.county"},
"geometry":{"type": "MultiPolygon","coordinates": [[[[-90.9991,14.9756,1911.8392],[-90.9674,14.9897,1711.1154],[-90.9578,15.005,1722.7004],[-90.9645,15.019,1774.5083],[-90.9603,15.0315,1768.2991],[-90.9652,15.0407,1843.6388],[-90.966,15.0462,1917.4622],[-90.9631,15.0479,1856.4797],[-90.9648,15.0529,1966.343],[-90.9835,15.0427,1857.8058],[-90.9934,15.0325,1826.9863],[-91.0034,15.0373,1888.1968],[-91.0228,15.0269,1953.8933],[-91.0289,15.0394,1921.1915],[-91.0509,15.0598,2109.2615],[-91.0614,15.064,2171.4473],[-91.0657,15.0581,2136.8137],[-91.0745,15.0571,2139.1213],[-91.0872,15.0363,2084.6096],[-91.0981,15.0156,2038.6685],[-91.1017,14.9821,2009.9149],[-91.1256,14.9557,1987.2456],[-91.1225,14.9478,2014.7623],[-91.106,14.9631,1985.1497],[-91.0908,14.9657,2011.2008],[-91.0672,14.9774,1993.2059],[-91.0544,14.9754,2047.5239],[-91.0447,14.9773,2002.2845],[-91.0325,14.9766,1984.1649],[-91.0115,14.994,1909.9994],[-91.0034,14.9938,1907.701],[-91.0073,14.9831,1908.4912],[-90.9991,14.9756,1911.8392]]]]}}