{"type":"Feature","properties":{"GID_2":"GTM.7.12_1","GID_0":"GTM","country":"Guatemala","GID_1":"GTM.7_1","province":"Guatemala","NL_NAME_1":"NA","county":"SanPedroSacatepéquez","VARNAME_2":"NA","NL_NAME_2":"NA","TYPE_2":"Municipio","ENGTYPE_2":"Municipality","CC_2":"NA","HASC_2":"NA","name":"San_Pedro_Sacatepéquez.county"},
"geometry":{"type": "MultiPolygon","coordinates": [[[[-90.5321,14.7527,1372.5222],[-90.5376,14.7519,1369.074],[-90.5445,14.7452,1357.8315],[-90.5459,14.7243,1443.165],[-90.5367,14.7272,1393.5996],[-90.5317,14.725,1402.949],[-90.5218,14.7274,1366.8025],[-90.5225,14.7253,1382.2057],[-90.5362,14.7222,1421.0573],[-90.5518,14.7015,1418.6949],[-90.5599,14.6975,1507.9336],[-90.5699,14.6954,1516.0334],[-90.5855,14.6869,1618.3008],[-90.5924,14.6891,1631.6008],[-90.5983,14.6863,1673.524],[-90.6022,14.6868,1710.4452],[-90.6082,14.6943,1835.3799],[-90.6104,14.695,1864.7081],[-90.6098,14.698,1854.9777],[-90.6148,14.7055,1911.0803],[-90.6195,14.6994,1992.4528],[-90.6269,14.6972,1968.0787],[-90.6279,14.6986,1968.0787],[-90.6323,14.6958,2020.5317],[-90.6358,14.7046,1872.9109],[-90.6454,14.7017,1985.7615],[-90.6456,14.6973,2021.6697],[-90.6482,14.6942,2063.4736],[-90.6564,14.692,2059.574],[-90.6672,14.6827,2069.0005],[-90.6675,14.6705,2196.0222],[-90.666,14.6684,2188.8982],[-90.6424,14.6636,2168.1526],[-90.6321,14.6588,2028.8512],[-90.6299,14.6627,2055.8142],[-90.6254,14.66,1963.8127],[-90.6235,14.6707,2004.4712],[-90.6143,14.6753,1831.59],[-90.6064,14.6765,1753.369],[-90.5997,14.6726,1705.78],[-90.5965,14.6726,1693.2913],[-90.5889,14.6812,1633.3354],[-90.5786,14.6797,1552.2671],[-90.5666,14.6924,1533.8906],[-90.5571,14.6936,1496.6733],[-90.5482,14.6984,1421.6118],[-90.5435,14.7038,1373.7327],[-90.5396,14.7114,1382.3958],[-90.5354,14.713,1318.2775],[-90.532,14.7202,1394.6621],[-90.5178,14.7203,1370.7036],[-90.5162,14.7237,1319.4554],[-90.5091,14.7257,1312.071],[-90.5082,14.7289,1261.9918],[-90.5113,14.7311,1359.2312],[-90.5062,14.7379,1297.5164],[-90.5049,14.7423,1176.6023],[-90.5078,14.7449,1186.7848],[-90.5031,14.7552,1154.6298],[-90.5051,14.7612,1205.3615],[-90.5184,14.7533,1285.2339],[-90.5321,14.7527,1372.5222]]]]}}