{"type":"Feature","properties":{"GID_2":"GTM.8.8_1","GID_0":"GTM","country":"Guatemala","GID_1":"GTM.8_1","province":"Huehuetenango","NL_NAME_1":"NA","county":"LaDemocracia","VARNAME_2":"NA","NL_NAME_2":"NA","TYPE_2":"Municipio","ENGTYPE_2":"Municipality","CC_2":"NA","HASC_2":"NA","name":"La_Democracia.county"},
"geometry":{"type": "MultiPolygon","coordinates": [[[[-91.9835,15.6435,905.5858],[-91.9732,15.6609,782.2607],[-91.9418,15.6424,994.8491],[-91.9288,15.6318,864.5327],[-91.9225,15.6318,886.5665],[-91.9074,15.6283,1100.1105],[-91.8981,15.623,1198.4104],[-91.8634,15.6217,859.9747],[-91.8553,15.5979,940.8823],[-91.848,15.5956,933.3975],[-91.8479,15.5902,1122.1465],[-91.8444,15.5845,1376.4781],[-91.8416,15.5652,1352.0806],[-91.832,15.5531,2167.3706],[-91.8297,15.5223,1453.2948],[-91.8246,15.5076,1337.1376],[-91.8074,15.5104,1290.562],[-91.8022,15.5095,1307.1459],[-91.7816,15.5236,2524.5693],[-91.7681,15.5262,2243.5286],[-91.7617,15.5509,1536.8934],[-91.7622,15.5623,1369.3347],[-91.7599,15.5728,1468.3181],[-91.7668,15.5833,1431.1385],[-91.7659,15.5905,1692.1044],[-91.7689,15.5967,1614.2678],[-91.7715,15.6087,1272.026],[-91.7835,15.6204,1038.415],[-91.7872,15.6331,1119.9033],[-91.7809,15.6687,1389.366],[-91.7897,15.6797,1201.7531],[-91.796,15.692,1084.5464],[-91.8077,15.7016,963.314],[-91.8104,15.7089,894.0038],[-91.8151,15.7108,899.0098],[-91.8309,15.7096,835.8105],[-91.8386,15.7118,815.0779],[-91.8453,15.7055,846.7307],[-91.8514,15.7027,796.4248],[-91.8678,15.6986,775.8314],[-91.8758,15.7032,748.0749],[-91.8806,15.715,753.8534],[-91.8834,15.7367,744.4103],[-91.9137,15.7624,710.5066],[-91.8798,15.8202,652.1756],[-91.8813,15.821,646.156],[-91.9864,15.6437,850.6861],[-91.9835,15.6435,905.5858]]]]}}