{"type":"Feature","properties":{"GID_2":"GTM.7.35_1","GID_0":"GTM","country":"Guatemala","GID_1":"GTM.7_1","province":"Guatemala","NL_NAME_1":"NA","county":"ZONA6","VARNAME_2":"NA","NL_NAME_2":"NA","TYPE_2":"Municipio","ENGTYPE_2":"Municipality","CC_2":"NA","HASC_2":"NA","name":"Z_O_N_A6.county"},
"geometry":{"type": "MultiPolygon","coordinates": [[[[-90.4924,14.679,1382.0183],[-90.495,14.6752,1436.7916],[-90.5012,14.6717,1461.3965],[-90.5026,14.6562,1463.141],[-90.5057,14.6501,1480.5253],[-90.4939,14.644,1470.167],[-90.4925,14.6468,1465.9828],[-90.4876,14.65,1457.6426],[-90.487,14.6565,1464.2275],[-90.4772,14.6813,1484.2368],[-90.4924,14.679,1382.0183]]]]}}