{"type":"Feature","properties":{"GID_2":"GTM.7.30_1","GID_0":"GTM","country":"Guatemala","GID_1":"GTM.7_1","province":"Guatemala","NL_NAME_1":"NA","county":"ZONA24","VARNAME_2":"NA","NL_NAME_2":"NA","TYPE_2":"Municipio","ENGTYPE_2":"Municipality","CC_2":"NA","HASC_2":"NA","name":"Z_O_N_A24.county"},
"geometry":{"type": "MultiPolygon","coordinates": [[[[-90.4284,14.6009,1681.2765],[-90.4246,14.603,1691.921],[-90.4191,14.6132,1530.1526],[-90.4205,14.6131,1539.3619],[-90.4206,14.6153,1532.1711],[-90.4251,14.6205,1481.8223],[-90.4229,14.6228,1490.7416],[-90.4247,14.6254,1466.4576],[-90.4296,14.626,1460.1698],[-90.4313,14.6295,1408.0337],[-90.4335,14.6297,1411.3683],[-90.4312,14.6329,1443.8931],[-90.4309,14.6356,1399.6134],[-90.4324,14.6365,1399.6134],[-90.4313,14.6379,1380.574],[-90.4326,14.6382,1380.574],[-90.4311,14.6437,1340.8148],[-90.436,14.6452,1423.3434],[-90.4365,14.6403,1369.7427],[-90.4491,14.6428,1476.7141],[-90.4524,14.642,1457.7034],[-90.458,14.6357,1460.635],[-90.4574,14.6297,1444.4476],[-90.4618,14.6114,1561.7202],[-90.4602,14.6064,1579.7979],[-90.4637,14.5902,1730.6035],[-90.4551,14.5945,1756.5818],[-90.4374,14.5969,1717.3885],[-90.4366,14.5987,1742.2542],[-90.4284,14.6009,1681.2765]]]]}}