{"type": "Feature","bbox": [-89.744,14.8521,-89.639,14.9638],"geometry": {"type": "MultiPolygon","coordinates": [[[[-89.6465,14.8718,805.4249],[-89.6426,14.9147,584.7897],[-89.639,14.9185,614.5364],[-89.651,14.9217,785.0963],[-89.6546,14.9258,879.4193],[-89.6499,14.947,664.904],[-89.6637,14.9638,247.8038],[-89.6719,14.9636,230.0956],[-89.6807,14.958,263.0283],[-89.6961,14.9614,199.946],[-89.7102,14.9578,199.6839],[-89.7211,14.9592,197.5642],[-89.724,14.9572,199.2204],[-89.7359,14.9547,204.793],[-89.744,14.9347,239.8904],[-89.7391,14.93,250.0527],[-89.737,14.9161,261.2645],[-89.7307,14.9155,276.5714],[-89.7291,14.9137,288.8402],[-89.715,14.91,486.8914],[-89.7105,14.8992,451.8857],[-89.716,14.8765,775.5383],[-89.723,14.8739,581.2733],[-89.725,14.8704,670.1624],[-89.6888,14.8521,1317.4526],[-89.6614,14.875,1399.5171],[-89.6465,14.8718,805.4249]]]]}
,"properties": {"GID_2": "GTM.22.4_1","GID_0": "GTM","country": "Guatemala","GID_1": "GTM.22_1","province": "Zacapa","NL_NAME_1": "NA","county": "Huité","VARNAME_2": "NA","NL_NAME_2": "NA","TYPE_2": "Municipio","ENGTYPE_2": "Municipality","CC_2": "NA","HASC_2": "NA","name": "Huité.county","area_km2": 89.88086,"hist_schema_id": "Elevation0-9000","hist_area_km2": {"200": 1.90501,"225": 5.59231,"250": 5.32627,"275": 3.11382,"300": 2.74514,"325": 2.27395,"350": 1.65936,"375": 1.86421,"400": 1.43402,"425": 1.96667,"450": 1.57746,"475": 2.08962,"500": 1.84379,"525": 1.82332,"550": 2.02823,"575": 1.59801,"600": 1.76195,"625": 1.70047,"650": 1.92585,"675": 1.78246,"700": 2.0693,"725": 2.58154,"750": 2.62255,"775": 3.42161,"800": 3.11433,"825": 3.13481,"850": 3.23724,"875": 3.21687,"900": 2.56125,"925": 2.1105,"950": 1.7007,"975": 1.61879,"1000": 1.65976,"1025": 1.4139,"1050": 1.06555,"1075": 1.168,"1100": 0.94261,"1125": 0.67622,"1150": 0.84017,"1175": 0.59427,"1200": 0.65574,"1225": 0.38935,"1250": 0.63526,"1275": 0.38936,"1300": 0.43034,"1325": 0.38936,"1350": 0.32788,"1375": 0.20492,"1400": 0.2664,"1425": 0.16394,"1450": 0.20492,"1475": 0.06148}}}