{"type":"Feature","properties":{"GID_2":"GTM.17.7_1","GID_0":"GTM","country":"Guatemala","GID_1":"GTM.17_1","province":"SanMarcos","NL_NAME_1":"NA","county":"ElTumbador","VARNAME_2":"NA","NL_NAME_2":"NA","TYPE_2":"Municipio","ENGTYPE_2":"Municipality","CC_2":"NA","HASC_2":"NA","name":"El_Tumbador.county"},
"geometry":{"type": "MultiPolygon","coordinates": [[[[-92.048,14.7917,123.6903],[-92.042,14.7865,207.8271],[-92.038,14.7866,222.7328],[-92.0325,14.7935,235.0754],[-92.0294,14.8022,330.3322],[-92.0267,14.8022,296.4855],[-92.0247,14.7984,284.2906],[-92.0198,14.799,300.8629],[-92.0189,14.7956,328.3418],[-92.013,14.7949,338.1581],[-92.0153,14.7848,254.0016],[-92.0128,14.7842,226.9723],[-92.009,14.7865,250.2748],[-91.9996,14.7883,238.4413],[-91.9903,14.78,232.5709],[-91.9825,14.776,304.5432],[-91.9774,14.77,288.5897],[-91.9703,14.7647,262.7138],[-91.9619,14.7653,326.6898],[-91.9554,14.7718,311.4234],[-91.95,14.7859,418.2455],[-91.9401,14.7949,490.9937],[-91.9233,14.8147,622.201],[-91.9214,14.8189,711.0989],[-91.9142,14.8236,811.6229],[-91.8861,14.8317,976.3613],[-91.8465,14.8562,1946.5332],[-91.8406,14.8631,2320.2505],[-91.8285,14.891,2310.2917],[-91.8336,14.8931,2198.2605],[-91.8407,14.8918,2055.1785],[-91.8574,14.8833,1915.5123],[-91.8685,14.8818,1831.5104],[-91.8799,14.8867,1631.9556],[-91.8856,14.8965,1495.4066],[-91.8951,14.8851,1248.1501],[-91.8999,14.8828,1291.8708],[-91.9047,14.8828,1274.2181],[-91.9176,14.889,1127.9287],[-91.9384,14.8928,961.9113],[-91.9422,14.8953,930.1299],[-91.9434,14.9081,901.0433],[-91.9585,14.9111,823.5206],[-91.963,14.9063,685.2887],[-91.9708,14.889099999999999,731.3236],[-91.9768,14.8837,696.7155],[-91.9823,14.8743,658.2057],[-92.0003,14.8361,405.4208],[-92.0114,14.8275,352.0268],[-92.0209,14.8258,339.963],[-92.0236,14.8285,288.2767],[-92.0463,14.8201,264.7795],[-92.0456,14.8171,268.1735],[-92.049,14.8061,166.8012],[-92.0372,14.7995,237.1713],[-92.048,14.7917,123.6903]]]]}}