{"type":"Feature","properties":{"GID_2":"GTM.15.7_1","GID_0":"GTM","country":"Guatemala","GID_1":"GTM.15_1","province":"Retalhuleu","NL_NAME_1":"NA","county":"SanMartínZapotitlán","VARNAME_2":"NA","NL_NAME_2":"NA","TYPE_2":"Municipio","ENGTYPE_2":"Municipality","CC_2":"NA","HASC_2":"NA","name":"San_Martín_Zapotitlán.county"},
"geometry":{"type": "MultiPolygon","coordinates": [[[[-91.5646,14.6225,721.1575],[-91.573,14.6249,710.3225],[-91.5818,14.6234,673.3505],[-91.6096,14.6147,547.8721],[-91.6326,14.5974,423.2932],[-91.63,14.5944,414.5897],[-91.6052,14.5979,496.6237],[-91.5903,14.5968,528.8281],[-91.5713,14.618,695.9305],[-91.5646,14.6225,721.1575]]]]}}