{"type":"Feature","properties":{"GID_2":"GTM.16.15_1","GID_0":"GTM","country":"Guatemala","GID_1":"GTM.16_1","province":"Sacatepéquez","NL_NAME_1":"NA","county":"SantoDomingoXenacoj","VARNAME_2":"NA","NL_NAME_2":"NA","TYPE_2":"Municipio","ENGTYPE_2":"Municipality","CC_2":"NA","HASC_2":"NA","name":"Santo_Domingo_Xenacoj.county"},
"geometry":{"type": "MultiPolygon","coordinates": [[[[-90.7269,14.7005,1739.7473],[-90.7297,14.6872,1673.1178],[-90.7242,14.682,1670.1578],[-90.7256,14.6549,1868.9202],[-90.7043,14.6613,1878.7699],[-90.6749,14.6618,2194.5168],[-90.666,14.6684,2188.8982],[-90.6675,14.6705,2196.0222],[-90.6672,14.6827,2069.0005],[-90.6723,14.7057,1922.9385],[-90.6894,14.7081,1948.0305],[-90.6942,14.7005,1950.8149],[-90.6992,14.7015,1941.6104],[-90.7047,14.6945,1779.8008],[-90.7115,14.6963,1797.1564],[-90.7216,14.6963,1758.6768],[-90.7269,14.7005,1739.7473]]]]}}