{"type": "Feature","bbox": [-90.1729,14.7873,-89.9114,14.9151],"geometry": {"type": "MultiPolygon","coordinates": [[[[-89.9831,14.8896,615.8405],[-89.9938,14.8832,537.291],[-90.0,14.8821,566.0535],[-90.0117,14.8849,661.5822],[-90.0274,14.8952,353.8781],[-90.0351,14.9034,378.5968],[-90.0376,14.9115,321.9122],[-90.0396,14.9127,312.0866],[-90.0495,14.9087,373.2246],[-90.0523,14.9089,302.4295],[-90.06,14.9151,281.434],[-90.0628,14.9096,343.8819],[-90.0777,14.9106,289.0959],[-90.0892,14.9055,303.2541],[-90.0952,14.909,294.8159],[-90.0995,14.9086,341.3567],[-90.1014,14.9099,337.6658],[-90.1065,14.908,350.7216],[-90.1112,14.9082,304.3929],[-90.1166,14.9039,304.9073],[-90.1259,14.9004,349.0029],[-90.1385,14.8874,313.2388],[-90.1523,14.8829,333.1239],[-90.1593,14.885,329.2444],[-90.1722,14.8809,324.0834],[-90.1729,14.8538,419.5015],[-90.115,14.8174,1026.2993],[-90.1135,14.8125,927.2279],[-90.1016,14.8024,683.0231],[-90.0947,14.8041,821.2968],[-90.093,14.7944,763.8558],[-90.0904,14.79,786.6495],[-90.0851,14.7873,772.3387],[-90.0757,14.7896,838.3596],[-90.0695,14.7967,658.964],[-90.0666,14.8078,607.2236],[-90.0624,14.8076,753.9491],[-90.0536,14.7993,826.0117],[-90.0408,14.7975,972.3492],[-90.04,14.8061,821.7512],[-90.0368,14.8082,831.8147],[-90.0296,14.8065,950.7827],[-90.0251,14.8091,1026.0659],[-89.9919,14.8077,1035.6443],[-89.9861,14.8024,1163.1788],[-89.9672,14.7982,1579.7484],[-89.9555,14.8158,1459.155],[-89.9364,14.8215,1149.9656],[-89.9249,14.836,1242.9175],[-89.9114,14.849,1209.6943],[-89.941,14.8415,671.9803],[-89.9718,14.8371,684.8113],[-89.9764,14.8377,681.5743],[-89.9796,14.844,1000.2354],[-89.9866,14.8439,976.0308],[-89.9958,14.8469,915.6866],[-90.0132,14.8575,699.2722],[-90.0125,14.8597,662.8224],[-90.0027,14.8609,751.5129],[-89.9971,14.855,749.325],[-89.9881,14.8556,829.903],[-89.9798,14.8788,405.4993],[-89.9827,14.8833,415.1396],[-89.9831,14.8896,615.8405]]]]}
,"properties": {"GID_2": "GTM.5.2_1","GID_0": "GTM","country": "Guatemala","GID_1": "GTM.5_1","province": "ElProgreso","NL_NAME_1": "NA","county": "Guastatoya","VARNAME_2": "NA","NL_NAME_2": "NA","TYPE_2": "Municipio","ENGTYPE_2": "Municipality","CC_2": "NA","HASC_2": "NA","name": "Guastatoya.county","area_km2": 209.0993,"hist_schema_id": "Elevation0-9000","hist_area_km2": {"275": 0.3483,"300": 1.1269,"325": 2.9095,"350": 5.778,"375": 8.5239,"400": 8.77,"425": 7.3154,"450": 6.8032,"475": 6.0861,"500": 7.5412,"525": 9.7955,"550": 9.3039,"575": 8.2794,"600": 7.9719,"625": 7.2958,"650": 7.2548,"675": 6.9885,"700": 6.4763,"725": 6.7428,"750": 6.169,"775": 5.4313,"800": 5.7183,"825": 4.9804,"850": 4.4476,"875": 4.6321,"900": 3.9967,"925": 4.2221,"950": 4.4066,"975": 4.919,"1000": 4.3246,"1025": 4.5706,"1050": 3.5459,"1075": 3.4024,"1100": 2.8695,"1125": 2.2546,"1150": 1.8447,"1175": 1.3938,"1200": 1.0863,"1225": 0.9634,"1250": 0.8199,"1275": 0.7994,"1300": 0.8199,"1325": 0.7584,"1350": 0.4714,"1375": 0.8199,"1400": 0.5944,"1425": 0.5944,"1450": 0.4304,"1475": 0.4509,"1500": 0.3895,"1525": 0.246,"1550": 0.205,"1575": 0.164,"1600": 0.123,"1625": 0.205,"1650": 0.1025,"1675": 0.164,"1700": 0.1845,"1725": 0.082,"1750": 0.041,"1775": 0.123,"1800": 0.0205}}}