{"type":"Feature","properties":{"GID_2":"GTM.17.11_1","GID_0":"GTM","country":"Guatemala","GID_1":"GTM.17_1","province":"SanMarcos","NL_NAME_1":"NA","county":"Malacatán","VARNAME_2":"NA","NL_NAME_2":"NA","TYPE_2":"Municipio","ENGTYPE_2":"Municipality","CC_2":"NA","HASC_2":"NA","name":"Malacatán.county"},
"geometry":{"type": "MultiPolygon","coordinates": [[[[-92.1334,14.7897,78.4509],[-92.1139,14.8181,121.4528],[-92.1006,14.8405,178.6708],[-92.0985,14.847,189.043],[-92.0884,14.8575,219.6727],[-92.0857,14.8701,232.2675],[-92.081,14.8756,251.5217],[-92.0572,14.8972,317.4102],[-92.0508,14.8972,328.0385],[-92.044,14.8949,404.0424],[-92.0384,14.8955,411.4052],[-92.019,14.9003,521.6716],[-92.0144,14.9058,534.9969],[-92.0142,14.9085,527.4927],[-92.0156,14.91,511.9226],[-92.0364,14.908,371.7271],[-92.041,14.9105,395.3233],[-92.0424,14.9148,402.0721],[-92.0423,14.9188,453.1758],[-92.0325,14.9303,600.417],[-92.0295,14.9384,736.4144],[-92.0291,14.9406,774.4709],[-92.032,14.9453,754.5796],[-92.0306,14.9779,853.0576],[-92.039,14.9797,991.6302],[-92.0389,14.9857,987.1506],[-92.0743,14.9898,552.2734],[-92.0742,14.9922,592.4814],[-92.0656,15.004,624.1534],[-92.0704,15.0072,674.5149],[-92.0868,15.0087,995.4337],[-92.0862,15.0114,1015.0182],[-92.0781,15.0186,996.5315],[-92.0787,15.023,907.7566],[-92.0839,15.0258,819.8574],[-92.0874,15.0212,747.187],[-92.0915,15.0217,819.9069],[-92.1008,15.0114,662.1495],[-92.1153,15.0134,604.1913],[-92.1177,15.0154,595.084],[-92.121,15.0134,587.3428],[-92.1234,15.015,563.4263],[-92.1294,15.0153,545.1899],[-92.1348,15.0128,604.6567],[-92.1367,15.0058,584.2979],[-92.14,15.0027,499.4088],[-92.1387,14.9998,471.5625],[-92.1394,14.9952,503.7249],[-92.1435,14.9942,463.2287],[-92.1508,14.9869,380.7384],[-92.1508,14.9836,369.2954],[-92.1454,14.9773,357.204],[-92.1474,14.9715,352.7353],[-92.1467,14.9611,333.2115],[-92.1489,14.9482,300.9376],[-92.143,14.9387,273.9673],[-92.1436,14.9279,252.7754],[-92.1421,14.9186,246.2276],[-92.1447,14.9095,224.1096],[-92.1416,14.9064,221.7753],[-92.1364,14.8913,196.1602],[-92.1376,14.8872,187.4594],[-92.142,14.8845,178.2024],[-92.1466,14.8702,174.4392],[-92.1636,14.8614,133.2539],[-92.1706,14.8617,135.235],[-92.1722,14.8561,118.7293],[-92.1757,14.8516,112.1237],[-92.1818,14.8476,112.4524],[-92.183,14.843,100.643],[-92.1814,14.84,99.1651],[-92.1848,14.8283,85.8802],[-92.1774,14.8167,76.7657],[-92.1789,14.8116,69.5922],[-92.1785,14.8036,63.5532],[-92.1738,14.7956,59.544],[-92.1756,14.7993,61.8455],[-92.1334,14.7897,78.4509]]]]}}