{"type":"Feature","properties":{"GID_2":"GTM.19.5_1","GID_0":"GTM","country":"Guatemala","GID_1":"GTM.19_1","province":"Sololá","NL_NAME_1":"NA","county":"SanAndrésSemetabaj","VARNAME_2":"NA","NL_NAME_2":"NA","TYPE_2":"Municipio","ENGTYPE_2":"Municipality","CC_2":"NA","HASC_2":"NA","name":"San_Andrés_Semetabaj.county"},
"geometry":{"type": "MultiPolygon","coordinates": [[[[-91.0754,14.6994,1859.1155],[-91.0781,14.7049,1884.3765],[-91.077,14.71,1853.4314],[-91.0799,14.718,1859.1842],[-91.0843,14.7176,1930.1528],[-91.0851,14.7307,2008.5333],[-91.0786,14.7319,1923.1503],[-91.0761,14.7267,2062.1113],[-91.0727,14.7305,2007.092],[-91.0773,14.7376,2058.2527],[-91.0731,14.7488,2067.1443],[-91.0767,14.7604,2107.8823],[-91.0723,14.7809,2290.0251],[-91.0685,14.789,2369.0825],[-91.0694,14.7911,2370.3555],[-91.0774,14.7918,2446.8271],[-91.0717,14.8019,2671.9973],[-91.0879,14.8207,2694.8477],[-91.1049,14.8006,2350.5498],[-91.1074,14.7723,2251.8369],[-91.1143,14.7674,2206.9651],[-91.1206,14.7582,2194.3311],[-91.1245,14.7551,2055.5701],[-91.1354,14.7501,1979.8713],[-91.1394,14.7439,1954.6638],[-91.1384,14.7399,1984.6857],[-91.1229,14.7256,2123.3848],[-91.1156,14.7115,2164.78],[-91.1104,14.7051,2117.7798],[-91.1021,14.6987,2081.3496],[-91.0784,14.6927,1925.8042],[-91.0754,14.6994,1859.1155]]]]}}