{"type":"Feature","properties":{"GID_2":"GTM.22.3_1","GID_0":"GTM","country":"Guatemala","GID_1":"GTM.22_1","province":"Zacapa","NL_NAME_1":"NA","county":"Gualán","VARNAME_2":"NA","NL_NAME_2":"NA","TYPE_2":"Municipio","ENGTYPE_2":"Municipality","CC_2":"NA","HASC_2":"NA","name":"Gualán.county"},
"geometry":{"type": "MultiPolygon","coordinates": [[[[-89.4652,15.1962,1816.5408],[-89.4538,15.186,1351.3171],[-89.4529,15.174,1513.8925],[-89.4478,15.1678,1289.2186],[-89.4428,15.1673,949.9959],[-89.4442,15.165,1036.2043],[-89.4378,15.1626,856.3389],[-89.4414,15.1559,1216.3857],[-89.4395,15.151,1032.3944],[-89.4349,15.1521,855.9224],[-89.4352,15.1454,1108.8365],[-89.439,15.1435,1174.6382],[-89.4381,15.1259,602.1132],[-89.4438,15.123,488.4241],[-89.4506,15.1256,452.3571],[-89.4589,15.1205,369.8747],[-89.463,15.1044,210.7266],[-89.4699,15.0974,195.5637],[-89.4651,15.0937,207.6637],[-89.462,15.0938,227.2594],[-89.4598,15.0902,166.8945],[-89.4652,15.0802,134.3102],[-89.4684,15.0782,151.4683],[-89.4645,15.0709,186.4117],[-89.4613,15.0696,203.4476],[-89.4518,15.0724,204.2428],[-89.4474,15.0773,161.7598],[-89.4427,15.0766,193.1391],[-89.4383,15.0791,179.5631],[-89.4345,15.0786,188.8462],[-89.4263,15.0522,490.311],[-89.4036,15.052,578.6468],[-89.3979,15.0497,694.0645],[-89.3923,15.0543,543.6736],[-89.3863,15.0564,463.4566],[-89.3793,15.0652,291.4406],[-89.3749,15.0671,302.5771],[-89.3697,15.0629,406.6398],[-89.3665,15.0503,486.6817],[-89.3702,15.0431,574.5957],[-89.3716,15.0352,723.2595],[-89.3601,15.028,744.0348],[-89.3458,15.0304,534.7269],[-89.3182,15.0266,469.0045],[-89.3169,15.0217,478.4548],[-89.3234,15.0181,562.6646],[-89.3213,15.009,539.7213],[-89.3125,15.0084,444.6531],[-89.3101,15.0167,583.2131],[-89.3036,15.0086,639.9968],[-89.2738,15.0106,609.4957],[-89.2551,15.0142,446.8277],[-89.2462,15.0186,531.0887],[-89.2468,15.0138,590.8735],[-89.2391,15.0006,651.9403],[-89.2298,15.0018,816.7609],[-89.2193,15.008,951.0848],[-89.1939,15.0045,1220.0413],[-89.1805,15.0048,1080.3145],[-89.1785,15.014,957.2308],[-89.1718,15.0208,975.4331],[-89.1702,15.0341,839.1125],[-89.1585,15.0529,529.8819],[-89.1544,15.0653,426.0821],[-89.1477,15.0697,621.4858],[-89.1564,15.0764,519.7113],[-89.1589,15.0803,476.6645],[-89.1628,15.0798,433.6278],[-89.1633,15.0834,508.4327],[-89.1699,15.0885,545.2271],[-89.1742,15.0997,523.9933],[-89.1813,15.1076,402.4319],[-89.1747,15.1159,289.4083],[-89.1733,15.1274,405.0121],[-89.1752,15.1297,445.0454],[-89.1746,15.1334,532.7686],[-89.1776,15.1353,354.4658],[-89.1749,15.1381,345.9618],[-89.1778,15.1455,297.3105],[-89.1859,15.1502,217.5205],[-89.1858,15.1581,188.097],[-89.1879,15.1594,183.0522],[-89.1893,15.168,196.4881],[-89.1936,15.1687,190.1884],[-89.1916,15.1755,225.7723],[-89.1965,15.1776,207.7406],[-89.1959,15.1797,207.7443],[-89.2084,15.1799,158.0025],[-89.2138,15.1842,110.0484],[-89.2041,15.1921,103.2369],[-89.1743,15.2059,104.2684],[-89.1701,15.2114,83.6237],[-89.1724,15.2696,631.7092],[-89.18,15.27,629.0696],[-89.1833,15.272,672.5642],[-89.1842,15.2818,601.5813],[-89.1871,15.2834,689.5095],[-89.1997,15.2778,700.6981],[-89.2135,15.2749,710.1196],[-89.2173,15.2802,439.196],[-89.2185,15.287,421.1176],[-89.2221,15.2921,281.9246],[-89.2281,15.2965,354.0994],[-89.2325,15.2963,324.1799],[-89.2444,15.2836,661.9464],[-89.2484,15.2842,735.0401],[-89.25,15.2883,810.6207],[-89.2481,15.2976,773.0639],[-89.2543,15.2991,767.0629],[-89.2623,15.2918,667.6015],[-89.2722,15.2936,812.2362],[-89.2945,15.2918,944.8735],[-89.2983,15.2866,897.8541],[-89.3038,15.2739,1064.371],[-89.3062,15.2728,1159.2632],[-89.3109,15.2737,1109.2449],[-89.321,15.2721,1087.2489],[-89.3311,15.2785,1070.3207],[-89.3399,15.2751,1296.3038],[-89.3564,15.2772,1069.8495],[-89.3645,15.2725,942.7521],[-89.3757,15.2687,938.652],[-89.3808,15.2625,986.4315],[-89.3901,15.244,1269.715],[-89.3912,15.2378,1212.5054],[-89.3936,15.2359,1322.8071],[-89.3965,15.2394,1301.2753],[-89.408,15.2222,1319.3618],[-89.4176,15.2163,1830.4553],[-89.4652,15.1962,1816.5408]]]]}}