{"type": "Feature","bbox": [-91.3259,14.6821,-91.2808,14.7422],"geometry": {"type": "MultiPolygon","coordinates": [[[[-91.2808,14.7148,1575.4865],[-91.2872,14.7252,1942.7432],[-91.2821,14.7422,2487.748],[-91.3065,14.7387,2168.0303],[-91.3188,14.7419,2102.2815],[-91.3259,14.7345,2207.272],[-91.322,14.728,2025.822],[-91.3187,14.7252,2000.2627],[-91.3116,14.7262,2041.1873],[-91.3053,14.7198,2067.4199],[-91.3062,14.7154,2069.8442],[-91.3155,14.7046,1939.7893],[-91.3207,14.6949,1910.8372],[-91.3239,14.6821,1765.0454],[-91.3135,14.692,1966.5502],[-91.2981,14.6973,1646.7981],[-91.2919,14.709,1915.42],[-91.2867,14.7135,1835.078],[-91.2808,14.7148,1575.4865]]]]}
,"properties": {"GID_2": "GTM.19.15_1","GID_0": "GTM","country": "Guatemala","GID_1": "GTM.19_1","province": "Sololá","NL_NAME_1": "NA","county": "SantaClaraLaLaguna","VARNAME_2": "NA","NL_NAME_2": "NA","TYPE_2": "Municipio","ENGTYPE_2": "Municipality","CC_2": "NA","HASC_2": "NA","name": "Santa_Clara_La_Laguna.county","area_km2": 15.56435,"hist_schema_id": "Elevation0-9000","hist_area_km2": {"1575": 0.02051,"1600": 0.08203,"1625": 0.06152,"1650": 0.02051,"1675": 0.12305,"1700": 0.14355,"1725": 0.16406,"1750": 0.10253,"1775": 0.12305,"1800": 0.22558,"1825": 0.2666,"1850": 0.30762,"1875": 0.32812,"1900": 0.36914,"1925": 0.55371,"1950": 0.47167,"1975": 0.59472,"2000": 1.12789,"2025": 1.1689,"2050": 1.37394,"2075": 1.47644,"2100": 1.33289,"2125": 1.14832,"2150": 0.59467,"2175": 0.61516,"2200": 0.20505,"2225": 0.43061,"2250": 0.3896,"2275": 0.30758,"2300": 0.16404,"2325": 0.36909,"2350": 0.32808,"2375": 0.08202,"2400": 0.10252,"2425": 0.14353,"2450": 0.10252,"2475": 0.0205,"2500": 0.06151,"2525": 0.04101,"2550": 0.0205}}}