{"type":"Feature","properties":{"GID_2":"GTM.13.23_1","GID_0":"GTM","country":"Guatemala","GID_1":"GTM.13_1","province":"Quezaltenango","NL_NAME_1":"NA","county":"Sibilia","VARNAME_2":"NA","NL_NAME_2":"NA","TYPE_2":"Municipio","ENGTYPE_2":"Municipality","CC_2":"NA","HASC_2":"NA","name":"Sibilia.county"},
"geometry":{"type": "MultiPolygon","coordinates": [[[[-91.6143,14.9498,2966.7732],[-91.6115,14.9634,3066.3711],[-91.613,14.9746,2948.2188],[-91.6106,14.9788,2828.8818],[-91.6063,14.9803,2753.04],[-91.601,14.9773,2742.8159],[-91.6001,14.9886,2728.6038],[-91.6003,14.9927,2698.6992],[-91.613,14.9902,2826.8147],[-91.6172,14.994,2722.7683],[-91.6173,15.0013,2802.9426],[-91.6133,15.0235,2872.2292],[-91.6344,15.0063,2834.8547],[-91.6368,15.0109,2767.3198],[-91.6417,15.0133,2870.2769],[-91.65,15.0089,2676.0752],[-91.6525,15.0129,2674.1506],[-91.6571,15.0147,2657.415],[-91.6591,15.0228,2619.8408],[-91.6659,15.0255,2624.2021],[-91.6788,14.9645,2688.6631],[-91.6772,14.9611,2733.468],[-91.6546,14.9674,2879.1306],[-91.6504,14.9638,2836.634],[-91.6454,14.9552,2953.9419],[-91.637,14.9499,3058.3984],[-91.6374,14.9466,3118.572],[-91.6211,14.9511,3016.2793],[-91.6143,14.9498,2966.7732]]]]}}