{"type":"Feature","properties":{"GID_2":"GTM.17.17_1","GID_0":"GTM","country":"Guatemala","GID_1":"GTM.17_1","province":"SanMarcos","NL_NAME_1":"NA","county":"SanCristobalCucho","VARNAME_2":"NA","NL_NAME_2":"NA","TYPE_2":"Municipio","ENGTYPE_2":"Municipality","CC_2":"NA","HASC_2":"NA","name":"San_Cristobal_Cucho.county"},
"geometry":{"type": "MultiPolygon","coordinates": [[[[-91.7391,14.8907,1795.9647],[-91.7456,14.8911,2059.6626],[-91.754,14.895,1613.0525],[-91.7681,14.9146,2125.3333],[-91.7782,14.9125,2182.5217],[-91.7911,14.9057,2449.8833],[-91.799,14.8932,2777.9995],[-91.7866,14.8787,2358.6899],[-91.7869,14.8682,2182.6755],[-91.783,14.8577,1892.0431],[-91.7779,14.8493,1622.6016],[-91.7699,14.841,1151.7781],[-91.764,14.8513,1212.407],[-91.7628,14.8567,1247.2726],[-91.7584,14.8617,1320.8317],[-91.7571,14.8731,1336.5889],[-91.7542,14.8767,1364.2637],[-91.7449,14.88,1537.4489],[-91.7406,14.884,1671.0208],[-91.7391,14.8907,1795.9647]]]]}}