{"type":"Feature","properties":{"GID_2":"GTM.12.2_1","GID_0":"GTM","country":"Guatemala","GID_1":"GTM.12_1","province":"Petén","NL_NAME_1":"NA","county":"Flores","VARNAME_2":"NA","NL_NAME_2":"NA","TYPE_2":"Municipio","ENGTYPE_2":"Municipality","CC_2":"NA","HASC_2":"NA","name":"Flores.county"},
"geometry":{"type": "MultiPolygon","coordinates": [[[[-89.3484,16.9405,157.1112],[-89.348,17.0579,208.506],[-89.3447,17.0609,175.9446],[-89.3415,17.0677,179.695],[-89.3437,17.0749,178.9005],[-89.3475,17.0741,173.9104],[-89.3446,17.2544,169.9001],[-89.342,17.8152,133.6704],[-89.7291,17.8159,278.1687],[-89.7411,17.2523,214.5985],[-89.7495,16.994,105.0],[-89.8676,16.9948,105.0],[-89.9167,16.9467,105.0],[-89.9173,16.9005,166.0966],[-89.3484,16.9405,157.1112]]]]}}