{"type": "Feature","bbox": [-90.6664,14.3956,-90.5385,14.5389],"geometry": {"type": "MultiPolygon","coordinates": [[[[-90.6322,14.4431,1193.4304],[-90.6262,14.4377,1206.1246],[-90.5878,14.427,1764.5693],[-90.5905,14.406,1843.2931],[-90.5879,14.3956,2317.4302],[-90.5709,14.3967,1774.0751],[-90.5432,14.4055,1680.957],[-90.5412,14.4081,1684.1797],[-90.5385,14.423,1188.5],[-90.5426,14.4329,1188.5],[-90.552,14.4444,1188.5],[-90.5625,14.4527,1193.9308],[-90.5821,14.4781,1188.0],[-90.6058,14.4874,1188.0],[-90.6096,14.4933,1327.4767],[-90.6101,14.5027,1435.385],[-90.6184,14.5225,1449.564],[-90.6396,14.5294,1645.6323],[-90.6549,14.5389,1950.4281],[-90.6586,14.5284,2085.0786],[-90.6566,14.5218,1728.5254],[-90.6638,14.5062,1852.4668],[-90.6639,14.4987,2103.4194],[-90.6664,14.492,1714.8958],[-90.6596,14.4833,1450.0662],[-90.6354,14.4606,1184.9257],[-90.6351,14.4491,1180.2],[-90.6322,14.4431,1193.4304]]]]}
,"properties": {"GID_2": "GTM.7.1_1","GID_0": "GTM","country": "Guatemala","GID_1": "GTM.7_1","province": "Guatemala","NL_NAME_1": "NA","county": "Amatitlán","VARNAME_2": "NA","NL_NAME_2": "NA","TYPE_2": "Municipio","ENGTYPE_2": "Municipality","CC_2": "NA","HASC_2": "NA","name": "Amatitlán.county","area_km2": 91.4215,"hist_schema_id": "Elevation0-9000","hist_area_km2": {"1175": 1.41663,"1200": 17.65614,"1225": 5.11193,"1250": 3.34643,"1275": 2.73047,"1300": 2.89473,"1325": 3.51067,"1350": 3.40806,"1375": 4.33186,"1400": 4.61925,"1425": 5.19395,"1450": 5.29643,"1475": 4.12631,"1500": 2.48412,"1525": 2.97686,"1550": 2.23784,"1575": 2.44311,"1600": 2.15577,"1625": 1.84784,"1650": 1.84789,"1675": 2.25862,"1700": 1.14975,"1725": 1.08812,"1750": 0.88283,"1775": 0.63653,"1800": 0.67756,"1825": 0.71862,"1850": 0.59543,"1875": 0.57493,"1900": 0.55436,"1925": 0.34903,"1950": 0.39006,"1975": 0.30798,"2000": 0.2669,"2025": 0.34901,"2050": 0.30797,"2075": 0.18473,"2100": 0.14371,"2125": 0.12316,"2150": 0.0616,"2175": 0.02054,"2200": 0.04107,"2225": 0.02054,"2250": 0.02054,"2275": 0.04107,"2325": 0.02054}}}