{"type":"Feature","properties":{"GID_2":"GTM.5.3_1","GID_0":"GTM","country":"Guatemala","GID_1":"GTM.5_1","province":"ElProgreso","NL_NAME_1":"NA","county":"Morazán","VARNAME_2":"NA","NL_NAME_2":"NA","TYPE_2":"Municipio","ENGTYPE_2":"Municipality","CC_2":"NA","HASC_2":"NA","name":"Morazán.county"},
"geometry":{"type": "MultiPolygon","coordinates": [[[[-90.3039,14.8856,401.5809],[-90.2902,14.8864,430.4851],[-90.2697,14.8802,368.4505],[-90.2605,14.8831,380.1061],[-90.2467,14.8766,350.0992],[-90.2252,14.8751,389.4325],[-90.2257,14.8809,345.2224],[-90.2059,14.8753,382.8826],[-90.1829,14.8762,352.5039],[-90.1593,14.885,329.2444],[-90.1523,14.8829,333.1239],[-90.1385,14.8874,313.2388],[-90.1259,14.9004,349.0029],[-90.1166,14.9039,304.9073],[-90.1112,14.9082,304.3929],[-90.1065,14.908,350.7216],[-90.1014,14.9099,337.6658],[-90.0995,14.9086,341.3567],[-90.0952,14.909,294.8159],[-90.0892,14.9055,303.2541],[-90.0777,14.9106,289.0959],[-90.0875,14.9319,556.5333],[-90.0794,14.9518,758.8484],[-90.0736,14.9728,1013.3087],[-90.0774,14.9849,1080.2816],[-90.0722,14.9997,1115.9943],[-90.0762,15.0152,1558.1581],[-90.0735,15.028,1965.8906],[-90.0685,15.0413,2558.7346],[-90.0853,15.0461,2600.3154],[-90.1203,15.0369,2457.7681],[-90.116,15.0266,2397.6816],[-90.1206,15.0271,2367.8435],[-90.1935,15.0001,820.8497],[-90.224,14.9803,738.8629],[-90.3151,14.9162,551.0007],[-90.3184,14.9112,523.3086],[-90.3175,14.9017,502.9046],[-90.3036,14.894,519.9017],[-90.3039,14.8856,401.5809]]]]}}