{"type":"Feature","properties":{"GID_2":"GTM.8.29_1","GID_0":"GTM","country":"Guatemala","GID_1":"GTM.8_1","province":"Huehuetenango","NL_NAME_1":"NA","county":"Soloma","VARNAME_2":"NA","NL_NAME_2":"NA","TYPE_2":"Municipio","ENGTYPE_2":"Municipality","CC_2":"NA","HASC_2":"NA","name":"Soloma.county"},
"geometry":{"type": "MultiPolygon","coordinates": [[[[-91.3121,15.6899,1657.103],[-91.3137,15.705,1742.2661],[-91.3191,15.714,2240.8127],[-91.3339,15.7185,2451.3999],[-91.349,15.7192,2269.2607],[-91.3583,15.7284,2650.8123],[-91.3784,15.7399,2462.1304],[-91.392,15.7386,2167.2754],[-91.3965,15.741,2180.625],[-91.409,15.7398,2581.6826],[-91.4182,15.7365,2479.5259],[-91.4344,15.7353,2437.2256],[-91.447,15.7244,2415.9824],[-91.4681,15.717,2655.6628],[-91.4803,15.7052,2936.6494],[-91.4925,15.702,2842.2505],[-91.4996,15.6965,2722.8167],[-91.5034,15.6863,2882.0693],[-91.5023,15.6753,2896.3682],[-91.4852,15.6713,2994.3225],[-91.4723,15.6715,2637.5808],[-91.4572,15.6776,2709.6401],[-91.4439,15.676,2650.2007],[-91.4271,15.6768,2340.895],[-91.4283,15.6698,2287.9189],[-91.4167,15.663,2288.3303],[-91.3963,15.6719,2117.8979],[-91.3775,15.6729,1686.7899],[-91.3597,15.6693,1800.4615],[-91.343,15.6767,2072.7004],[-91.3351,15.676,2169.835],[-91.3121,15.6899,1657.103]]]]}}