{"type": "Feature","bbox": [-91.4805,14.7584,-91.4036,14.8578],"geometry": {"type": "MultiPolygon","coordinates": [[[[-91.4805,14.7867,2085.5488],[-91.4747,14.7828,2239.8367],[-91.4671,14.7895,2400.4131],[-91.4536,14.7801,2597.9849],[-91.4504,14.763,3083.8821],[-91.4452,14.7584,3334.1411],[-91.444,14.7637,3302.5735],[-91.4069,14.8006,3050.3657],[-91.4036,14.821,3197.6978],[-91.42,14.845,2491.8325],[-91.4407,14.8572,2395.5239],[-91.4563,14.8578,2388.8633],[-91.4684,14.8539,2358.2761],[-91.4729,14.8438,2378.0469],[-91.4717,14.8409,2322.8638],[-91.4608,14.8383,2317.2283],[-91.4631,14.833,2381.3831],[-91.4581,14.8215,2403.0649],[-91.4641,14.8104,2452.3091],[-91.4679,14.8077,2568.4065],[-91.47,14.7944,2289.8179],[-91.4734,14.7902,2114.7095],[-91.4805,14.7867,2085.5488]]]]}
,"properties": {"GID_2": "GTM.13.4_1","GID_0": "GTM","country": "Guatemala","GID_1": "GTM.13_1","province": "Quezaltenango","NL_NAME_1": "NA","county": "Cantel","VARNAME_2": "NA","NL_NAME_2": "NA","TYPE_2": "Municipio","ENGTYPE_2": "Municipality","CC_2": "NA","HASC_2": "NA","name": "Cantel.county","area_km2": 50.75167,"hist_schema_id": "Elevation0-9000","hist_area_km2": {"2075": 0.0205,"2100": 0.1025,"2125": 0.2255,"2150": 0.164,"2175": 0.24599,"2200": 0.16399,"2225": 0.28699,"2250": 0.47148,"2275": 1.18891,"2300": 1.08639,"2325": 1.80373,"2350": 1.92668,"2375": 3.17678,"2400": 6.06656,"2425": 4.44764,"2450": 2.66454,"2475": 2.19317,"2500": 1.55777,"2525": 1.35283,"2550": 1.04538,"2575": 0.8404,"2600": 0.84041,"2625": 0.9429,"2650": 0.81992,"2675": 0.59443,"2700": 0.61495,"2725": 0.63546,"2750": 0.63545,"2775": 0.81994,"2800": 0.75846,"2825": 0.73796,"2850": 0.73796,"2875": 0.45097,"2900": 0.77896,"2925": 0.71747,"2950": 0.47147,"2975": 0.43049,"3000": 0.47148,"3025": 0.59447,"3050": 1.06594,"3075": 1.04547,"3100": 0.73798,"3125": 0.92247,"3150": 1.02494,"3175": 0.79944,"3200": 0.77895,"3225": 0.47152,"3250": 0.28701,"3275": 0.32802,"3300": 0.10251,"3325": 0.10251}}}