{"type": "Feature","bbox": [-91.6988,15.2425,-91.5216,15.4206],"geometry": {"type": "MultiPolygon","coordinates": [[[[-91.5216,15.3677,1883.5503],[-91.5395,15.3759,1884.0087],[-91.5467,15.388,2117.6997],[-91.5843,15.3953,1916.0791],[-91.6056,15.389,1860.5806],[-91.6123,15.3895,1757.3508],[-91.6071,15.4105,1999.3502],[-91.6166,15.4206,2534.9146],[-91.627,15.418,2250.7522],[-91.6312,15.4123,2121.3696],[-91.63,15.4027,1911.2147],[-91.6335,15.3948,1799.3246],[-91.6522,15.3759,2002.7686],[-91.6616,15.375,1933.6248],[-91.6988,15.3238,1907.7935],[-91.6821,15.3042,1815.8674],[-91.6636,15.2926,2005.0183],[-91.6282,15.2425,1747.3718],[-91.6142,15.286,2095.3352],[-91.6063,15.2952,2128.6301],[-91.6059,15.2995,2269.6958],[-91.608,15.3046,2373.3528],[-91.6051,15.3129,2220.7981],[-91.593,15.3153,2249.6707],[-91.5804,15.3255,1946.1259],[-91.5714,15.322,1978.3683],[-91.5515,15.3315,2052.6619],[-91.5471,15.335,1917.6013],[-91.5269,15.3424,1861.1746],[-91.5285,15.3531,1972.9855],[-91.5216,15.3677,1883.5503]]]]}
,"properties": {"GID_2": "GTM.8.25_1","GID_0": "GTM","country": "Guatemala","GID_1": "GTM.8_1","province": "Huehuetenango","NL_NAME_1": "NA","county": "SantaBárbara","VARNAME_2": "NA","NL_NAME_2": "NA","TYPE_2": "Municipio","ENGTYPE_2": "Municipality","CC_2": "NA","HASC_2": "NA","name": "Santa_Bárbara.county","area_km2": 162.1219,"hist_schema_id": "Elevation0-9000","hist_area_km2": {"1650": 0.2249,"1675": 0.4293,"1700": 1.431,"1725": 1.8194,"1750": 3.0665,"1775": 4.6,"1800": 6.3789,"1825": 8.9553,"1850": 10.2023,"1875": 11.5314,"1900": 9.9573,"1925": 8.7306,"1950": 8.7102,"1975": 7.7698,"2000": 7.3813,"2025": 7.4225,"2050": 7.1567,"2075": 5.7049,"2100": 5.8888,"2125": 4.437,"2150": 4.1918,"2175": 3.9055,"2200": 3.6192,"2225": 3.1285,"2250": 2.8628,"2275": 2.74,"2300": 2.7196,"2325": 2.2493,"2350": 1.9835,"2375": 2.5561,"2400": 2.372,"2425": 2.2698,"2450": 1.8199,"2475": 1.6359,"2500": 1.4927,"2525": 0.6339,"2550": 0.1431}}}