{"type":"Feature","properties":{"GID_2":"GTM.14.18_1","GID_0":"GTM","country":"Guatemala","GID_1":"GTM.14_1","province":"Quiché","NL_NAME_1":"NA","county":"SanPedroJocopilas","VARNAME_2":"NA","NL_NAME_2":"NA","TYPE_2":"Municipio","ENGTYPE_2":"Municipality","CC_2":"NA","HASC_2":"NA","name":"San_Pedro_Jocopilas.county"},
"geometry":{"type": "MultiPolygon","coordinates": [[[[-90.989,15.1021,2255.9185],[-90.9875,15.1182,1899.0721],[-90.9794,15.1377,1735.7727],[-90.9785,15.1464,1656.4465],[-90.9971,15.1469,1475.0383],[-91.0231,15.1387,1856.353],[-91.0625,15.1395,1995.4701],[-91.0622,15.1452,1848.6104],[-91.0556,15.1631,1597.2974],[-91.0648,15.1831,1513.0269],[-91.0702,15.1844,1535.2223],[-91.0799,15.1774,1568.2822],[-91.094,15.1766,1498.5931],[-91.1189,15.1888,1787.1647],[-91.1257,15.2034,1914.4326],[-91.1417,15.2225,1879.5054],[-91.159,15.2211,1943.4708],[-91.1684,15.2229,1701.1141],[-91.1898,15.2229,1654.2042],[-91.2536,15.221,1786.6902],[-91.2799,15.2283,1743.0728],[-91.2919,15.2288,1755.8676],[-91.3108,15.244,1569.3014],[-91.3145,15.2357,1589.3333],[-91.3144,15.2305,1571.1384],[-91.3171,15.2277,1650.113],[-91.3179,15.22,1573.4706],[-91.3208,15.2128,1585.6962],[-91.3171,15.2092,1575.8234],[-91.3187,15.2008,1611.5403],[-91.3095,15.1992,1602.0074],[-91.3089,15.1948,1616.7427],[-91.3022,15.1879,1672.0713],[-91.2992,15.1872,1606.2522],[-91.2971,15.1766,1628.6907],[-91.2919,15.1729,1629.0836],[-91.2903,15.1679,1637.999],[-91.2849,15.1633,1743.7227],[-91.2694,15.1582,1798.9906],[-91.2669,15.1614,1736.6791],[-91.2627,15.1613,1741.9327],[-91.2586,15.1552,1812.6157],[-91.2542,15.1526,1779.2963],[-91.2524,15.1445,1822.99],[-91.2411,15.1426,1819.694],[-91.2387,15.1372,1828.8088],[-91.236,15.1369,1822.0203],[-91.2348,15.1312,1809.9274],[-91.2282,15.1226,1834.4935],[-91.2199,15.1173,1868.489],[-91.2063,15.1127,1926.7764],[-91.205,15.111,1920.2888],[-91.2062,15.1086,2000.3391],[-91.2141,15.1001,1998.8612],[-91.1799,15.0945,2036.0984],[-91.1669,15.097,2051.0601],[-91.1459,15.0965,2134.6638],[-91.1273,15.1056,2246.8889],[-91.1028,15.1029,2435.3896],[-91.0929,15.1077,2155.416],[-91.0875,15.1064,2201.5015],[-91.0793,15.1011,2157.1099],[-91.0638,15.0966,2119.7595],[-91.0545,15.1034,2031.2778],[-91.0478,15.1014,2115.2393],[-91.0191,15.1026,2283.9585],[-91.001,15.0979,2195.7617],[-90.989,15.1021,2255.9185]]]]}}