{"type": "Feature","bbox": [-91.5468,14.6799,-91.4452,14.792],"geometry": {"type": "MultiPolygon","coordinates": [[[[-91.5004,14.792,2670.7144],[-91.5098,14.7833,2584.7715],[-91.5134,14.7754,2344.6782],[-91.5174,14.7734,2638.5903],[-91.5182,14.7706,2547.7036],[-91.5132,14.7646,2369.51],[-91.5118,14.7595,2286.2817],[-91.512,14.7556,2057.9163],[-91.5158,14.7475,1900.5437],[-91.5221,14.7423,1908.5476],[-91.5408,14.7382,2397.5354],[-91.5468,14.732,2230.8462],[-91.5436,14.73,2217.072],[-91.5377,14.6947,1267.6587],[-91.5335,14.6945,1286.0264],[-91.5338,14.6866,1126.9672],[-91.5305,14.6799,1123.0015],[-91.5235,14.681,1185.167],[-91.5209,14.6848,1268.4758],[-91.5112,14.6874,1440.3333],[-91.4875,14.7109,2923.811],[-91.485,14.7181,3235.7358],[-91.4728,14.7248,3245.3906],[-91.4636,14.737,3046.2292],[-91.4616,14.7385,3113.7756],[-91.448,14.7401,3470.2441],[-91.4457,14.7439,3354.1611],[-91.4452,14.7584,3334.1411],[-91.4504,14.763,3083.8821],[-91.4536,14.7801,2597.9849],[-91.4671,14.7895,2400.4131],[-91.4747,14.7828,2239.8367],[-91.4805,14.7867,2085.5488],[-91.5004,14.792,2670.7144]]]]}
,"properties": {"GID_2": "GTM.13.24_1","GID_0": "GTM","country": "Guatemala","GID_1": "GTM.13_1","province": "Quezaltenango","NL_NAME_1": "NA","county": "Zunil","VARNAME_2": "NA","NL_NAME_2": "NA","TYPE_2": "Municipio","ENGTYPE_2": "Municipality","CC_2": "NA","HASC_2": "NA","name": "Zunil.county","area_km2": 72.21653,"hist_schema_id": "Elevation0-9000","hist_area_km2": {"1050": 0.06153,"1075": 0.02051,"1100": 0.14357,"1125": 0.08204,"1150": 0.10255,"1175": 0.16408,"1200": 0.32815,"1225": 0.24611,"1250": 0.34866,"1275": 0.36916,"1300": 0.41018,"1325": 0.41017,"1350": 0.59474,"1375": 0.51271,"1400": 0.57423,"1425": 0.73828,"1450": 0.92284,"1475": 0.55371,"1500": 0.67675,"1525": 0.53319,"1550": 0.71775,"1575": 0.79978,"1600": 0.65622,"1625": 0.59469,"1650": 0.96382,"1675": 0.57418,"1700": 0.90228,"1725": 0.6767,"1750": 0.82024,"1775": 0.96376,"1800": 1.66089,"1825": 1.4148,"1850": 1.45583,"1875": 1.23027,"1900": 1.41481,"1925": 1.35328,"1950": 0.96371,"1975": 1.16876,"2000": 1.27123,"2025": 1.27121,"2050": 1.35321,"2075": 1.84527,"2100": 1.25066,"2125": 1.27119,"2150": 1.2917,"2175": 1.4352,"2200": 1.08668,"2225": 1.1482,"2250": 1.02518,"2275": 1.33274,"2300": 1.18916,"2325": 1.49672,"2350": 1.06617,"2375": 1.35319,"2400": 1.06615,"2425": 0.82012,"2450": 1.02517,"2475": 0.90214,"2500": 1.14814,"2525": 0.94315,"2550": 0.96366,"2575": 0.7791,"2600": 1.06616,"2625": 0.90213,"2650": 1.10717,"2675": 1.10718,"2700": 0.98413,"2725": 0.94314,"2750": 0.77911,"2775": 0.69712,"2800": 0.67663,"2825": 0.79967,"2850": 0.71763,"2875": 0.5536,"2900": 0.63563,"2925": 0.63563,"2950": 0.65613,"2975": 0.5126,"3000": 0.51262,"3025": 0.34857,"3050": 0.4716,"3075": 0.45109,"3100": 0.20505,"3125": 0.49212,"3150": 0.26656,"3175": 0.32808,"3200": 0.30757,"3225": 0.38959,"3250": 0.28706,"3275": 0.14353,"3300": 0.12302,"3325": 0.16403,"3350": 0.14352,"3375": 0.10252,"3400": 0.08202,"3425": 0.04101,"3450": 0.06151,"3500": 0.04101,"3550": 0.0205}}}