{"type": "Feature","bbox": [-89.4935,14.7232,-89.2085,14.91],"geometry": {"type": "MultiPolygon","coordinates": [[[[-89.3456,14.9026,1317.7495],[-89.3744,14.8951,1492.9552],[-89.4223,14.91,1321.3352],[-89.4327,14.9027,1510.8127],[-89.4844,14.891,699.7838],[-89.4935,14.8646,578.1918],[-89.468,14.8633,337.4269],[-89.46,14.8531,705.4686],[-89.4607,14.8475,937.3373],[-89.4551,14.8434,1332.1063],[-89.4538,14.8288,1269.585],[-89.4473,14.826599999999999,1117.6284],[-89.4377,14.8202,941.7086],[-89.4437,14.7978,1270.1051],[-89.4561,14.8069,1389.1667],[-89.4706,14.8063,1096.0601],[-89.4739,14.7942,911.0699],[-89.4723,14.7877,775.6255],[-89.4561,14.7775,1178.2092],[-89.4352,14.7882,1029.3989],[-89.4308,14.7925,965.6915],[-89.4302,14.7889,881.8218],[-89.4265,14.7923,827.8564],[-89.4212,14.7896,645.1127],[-89.4235,14.7866,682.5554],[-89.4119,14.7827,657.9557],[-89.4102,14.7825,657.9557],[-89.4078,14.7864,579.8055],[-89.4009,14.786,492.3447],[-89.4022,14.783,503.3453],[-89.4102,14.7766,528.0829],[-89.4132,14.77,622.6577],[-89.4081,14.7668,667.7585],[-89.4026,14.7669,839.8954],[-89.4022,14.7638,872.404],[-89.3851,14.7476,1380.8105],[-89.3792,14.7391,1269.0916],[-89.3784,14.7333,1326.228],[-89.3797,14.7263,1115.2976],[-89.3776,14.7248,1121.7532],[-89.3611,14.7232,1102.9814],[-89.3508,14.7367,1062.3037],[-89.328,14.7506,1388.1887],[-89.3246,14.7395,1353.0254],[-89.3154,14.7315,1172.5992],[-89.3014,14.7295,1058.468],[-89.2967,14.7304,1012.5434],[-89.2924,14.7354,901.611],[-89.2894,14.733,883.298],[-89.2753,14.7347,923.8867],[-89.2622,14.7452,747.762],[-89.2393,14.7472,704.3563],[-89.2329,14.7512,605.6213],[-89.2231,14.7522,602.9624],[-89.2173,14.7576,605.3874],[-89.2159,14.7638,564.0499],[-89.2085,14.7675,577.8583],[-89.2224,14.785,645.2979],[-89.2314,14.782,581.3784],[-89.2397,14.7881,697.4514],[-89.242,14.788,655.0875],[-89.2427,14.7842,746.9087],[-89.2496,14.7885,642.4835],[-89.2656,14.782,894.8162],[-89.2823,14.7928,1265.0648],[-89.2897,14.7902,1408.9359],[-89.2973,14.791,1409.2585],[-89.3084,14.7871,1382.489],[-89.3156,14.7865,1451.1187],[-89.3179,14.7902,1381.5548],[-89.3278,14.7911,1077.0084],[-89.341,14.7888,1188.2081],[-89.3458,14.7895,1138.7958],[-89.3509,14.7927,1252.5283],[-89.3598,14.7898,1115.5197],[-89.3606,14.7932,1047.8661],[-89.3676,14.7993,721.2383],[-89.3715,14.8099,608.8798],[-89.3719,14.8152,543.4952],[-89.367,14.8221,428.8636],[-89.3675,14.8312,591.9404],[-89.3751,14.8412,637.3724],[-89.3753,14.8433,629.0226],[-89.3704,14.8502,625.9574],[-89.3681,14.8576,822.2126],[-89.3561,14.8724,912.3376],[-89.3556,14.8774,950.4678],[-89.3512,14.881,828.5198],[-89.3456,14.9026,1317.7495]]]]}
,"properties": {"GID_2": "GTM.4.6_1","GID_0": "GTM","country": "Guatemala","GID_1": "GTM.4_1","province": "Chiquimula","NL_NAME_1": "NA","county": "Jocotán","VARNAME_2": "NA","NL_NAME_2": "NA","TYPE_2": "Municipio","ENGTYPE_2": "Municipality","CC_2": "NA","HASC_2": "NA","name": "Jocotán.county","area_km2": 248.0632,"hist_schema_id": "Elevation0-9000","hist_area_km2": {"250": 0.082,"275": 0.4098,"300": 0.2254,"325": 0.6967,"350": 0.8402,"375": 1.1886,"400": 2.0904,"425": 3.3612,"450": 4.7755,"475": 5.2265,"500": 5.206,"525": 5.8823,"550": 7.2967,"575": 7.2354,"600": 7.2561,"625": 6.8462,"650": 6.4361,"675": 6.4977,"700": 7.1332,"725": 6.8872,"750": 5.8624,"775": 5.4114,"800": 6.2313,"825": 5.35,"850": 6.0059,"875": 6.6618,"900": 5.9649,"925": 5.9444,"950": 6.047,"975": 6.785,"1000": 6.6622,"1025": 6.3547,"1050": 6.2725,"1075": 5.9037,"1100": 5.883,"1125": 6.0881,"1150": 6.7238,"1175": 6.7644,"1200": 6.4366,"1225": 6.6621,"1250": 5.9651,"1275": 6.0473,"1300": 5.1042,"1325": 4.5097,"1350": 4.4277,"1375": 3.6488,"1400": 2.8082,"1425": 2.3776,"1450": 1.3321,"1475": 0.6148,"1500": 0.4713,"1525": 0.2254,"1550": 0.2254,"1575": 0.2664,"1600": 0.1024,"1625": 0.1229,"1650": 0.082,"1675": 0.082,"1700": 0.0205,"1725": 0.041}}}