{"type": "Feature","bbox": [-90.1922,14.4299,-89.9213,14.7982],"geometry": {"type": "MultiPolygon","coordinates": [[[[-90.1922,14.6485,1247.9513],[-90.1867,14.6326,1201.8732],[-90.1755,14.6297,1379.8959],[-90.1822,14.6246,1280.3645],[-90.1684,14.6146,1403.0282],[-90.1466,14.612,1544.3824],[-90.1414,14.6128,1694.0585],[-90.1354,14.6163,1747.4518],[-90.1325,14.6134,1656.0233],[-90.1344,14.6109,1687.6594],[-90.1321,14.6087,1759.2646],[-90.1324,14.6065,1666.8571],[-90.1393,14.6016,1777.9719],[-90.1403,14.5955,1972.3785],[-90.1382,14.5837,2187.3916],[-90.1383,14.5717,2291.3945],[-90.1357,14.5632,2298.3613],[-90.1087,14.5264,2385.2969],[-90.0981,14.5214,2336.2476],[-90.0414,14.5162,1727.6011],[-90.0365,14.5146,1617.7509],[-90.0315,14.5052,1531.3044],[-90.0255,14.5018,1509.1932],[-90.0184,14.5148,1340.8264],[-90.0137,14.5146,1275.4207],[-90.0129,14.5093,1398.9343],[-90.0143,14.5048,1502.9764],[-90.0221,14.4889,1496.2239],[-90.0291,14.4833,1648.5487],[-90.0291,14.4773,1697.6938],[-90.0319,14.4694,1674.7422],[-90.0385,14.4691,1773.3706],[-90.0472,14.4568,1523.6147],[-90.0459,14.45,1552.0333],[-90.0417,14.4469,1452.1906],[-90.0473,14.4402,1653.7156],[-90.0535,14.4361,1577.937],[-90.0469,14.4299,1571.7887],[-89.9849,14.4318,1500.3877],[-89.9825,14.4349,1516.7853],[-89.9809,14.4513,1404.1545],[-89.9879,14.4583,1297.2041],[-89.9879,14.4619,1255.0085],[-89.9745,14.4715,1347.8621],[-89.9735,14.4753,1350.4537],[-89.9755,14.4854,1320.8433],[-89.9724,14.4891,1326.8877],[-89.9654,14.5068,1252.2087],[-89.9573,14.5196,1035.1239],[-89.9522,14.5217,1015.9349],[-89.938,14.5233,1002.535],[-89.9341,14.5271,1003.0366],[-89.9327,14.5306,1021.3734],[-89.9337,14.533,1044.6519],[-89.9384,14.5332,1017.8032],[-89.9361,14.542,1071.3269],[-89.9414,14.5437,1092.0278],[-89.9415,14.5468,1159.7354],[-89.9316,14.5554,1089.5815],[-89.9283,14.5603,1159.1282],[-89.9247,14.5719,1227.4417],[-89.9299,14.5969,1384.5173],[-89.926,14.5975,1356.499],[-89.9213,14.6009,1205.0063],[-89.925,14.6084,1197.2827],[-89.9311,14.6099,1225.1066],[-89.9428,14.6075,1363.9644],[-89.9477,14.6131,1493.8143],[-89.9478,14.6169,1474.8104],[-89.9371,14.6284,1372.1134],[-89.9432,14.6347,1495.9385],[-89.9432,14.6434,1544.8881],[-89.9383,14.6472,1363.9547],[-89.9368,14.6508,1430.4014],[-89.9488,14.6734,1422.5255],[-89.9468,14.6743,1318.6821],[-89.9436,14.6729,1361.2834],[-89.9388,14.6688,1434.9156],[-89.9368,14.6698,1434.9156],[-89.9356,14.6727,1315.0082],[-89.9416,14.6834,1464.8514],[-89.9425,14.6951,1775.3384],[-89.9323,14.7043,1900.6272],[-89.9236,14.7166,1990.0254],[-89.9222,14.7209,2013.2089],[-89.9255,14.731,1812.4282],[-89.9254,14.7469,1772.2892],[-89.9305,14.7506,1767.262],[-89.9339,14.756,1765.795],[-89.9326,14.7761,1857.1744],[-89.9351,14.7852,1829.5619],[-89.9384,14.7895,1817.4182],[-89.9476,14.798,1853.771],[-89.9582,14.7957,1835.4955],[-89.9672,14.7982,1579.7484],[-89.9858,14.7713,1971.5072],[-90.049,14.7521,1086.3418],[-90.0723,14.7118,1256.1404],[-90.0893,14.7101,1195.3049],[-90.1091,14.7171,1066.9589],[-90.181,14.7052,1298.6921],[-90.1841,14.6795,1311.3754],[-90.1872,14.6762,1370.0259],[-90.1899,14.667,1391.131],[-90.1904,14.6523,1252.592],[-90.1922,14.6485,1247.9513]]]]}
,"properties": {"GID_2": "GTM.10.1_1","GID_0": "GTM","country": "Guatemala","GID_1": "GTM.10_1","province": "Jalapa","NL_NAME_1": "NA","county": "Jalapa","VARNAME_2": "NA","NL_NAME_2": "NA","TYPE_2": "Municipio","ENGTYPE_2": "Municipality","CC_2": "NA","HASC_2": "NA","name": "Jalapa.county","area_km2": 668.8559,"hist_schema_id": "Elevation0-9000","hist_area_km2": {"850": 0.082,"875": 0.1435,"900": 0.2666,"925": 0.4922,"950": 0.4511,"975": 0.5742,"1000": 1.4564,"1025": 3.6114,"1050": 6.4433,"1075": 4.5964,"1100": 5.8273,"1125": 7.2024,"1150": 7.51,"1175": 8.8437,"1200": 9.6642,"1225": 9.5815,"1250": 12.2079,"1275": 13.0081,"1300": 13.6852,"1325": 15.1211,"1350": 31.4913,"1375": 32.2904,"1400": 24.5771,"1425": 22.2801,"1450": 20.3724,"1475": 19.9416,"1500": 18.1977,"1525": 17.9101,"1550": 17.787,"1575": 17.8068,"1600": 19.3631,"1625": 16.2661,"1650": 14.5641,"1675": 14.0309,"1700": 12.9234,"1725": 15.8765,"1750": 17.5164,"1775": 25.5545,"1800": 18.0285,"1825": 16.3265,"1850": 15.9781,"1875": 15.5478,"1900": 12.205,"1925": 11.1183,"1950": 9.9906,"1975": 9.8679,"2000": 7.6936,"2025": 7.0989,"2050": 4.9449,"2075": 4.2066,"2100": 4.145,"2125": 4.1041,"2150": 3.4679,"2175": 3.3243,"2200": 3.1397,"2225": 3.8169,"2250": 3.386,"2275": 3.5297,"2300": 4.3095,"2325": 3.345,"2350": 3.3245,"2375": 2.5037,"2400": 2.8526,"2425": 2.2779,"2450": 2.2575,"2475": 2.1343,"2500": 1.4776,"2525": 0.944,"2550": 0.6773,"2575": 0.7593,"2600": 0.2873,"2625": 0.1642,"2650": 0.0821,"2675": 0.0205}}}