{"type":"Feature","properties":{"GID_2":"GTM.13.7_1","GID_0":"GTM","country":"Guatemala","GID_1":"GTM.13_1","province":"Quezaltenango","NL_NAME_1":"NA","county":"ConcepciónChiquirichapa","VARNAME_2":"NA","NL_NAME_2":"NA","TYPE_2":"Municipio","ENGTYPE_2":"Municipality","CC_2":"NA","HASC_2":"NA","name":"Concepción_Chiquirichapa.county"},
"geometry":{"type": "MultiPolygon","coordinates": [[[[-91.6501,14.8469,3097.4863],[-91.6416,14.829,2539.2764],[-91.634,14.8262,2710.0234],[-91.6256,14.8178,3002.7988],[-91.608,14.8199,2827.5544],[-91.5931,14.8243,3125.7944],[-91.5942,14.8405,2802.2322],[-91.6029,14.8547,2602.9561],[-91.603,14.8607,2507.813],[-91.6083,14.8581,2569.4749],[-91.6174,14.8573,2606.4136],[-91.6209,14.8596,2525.4307],[-91.6273,14.8573,2538.7207],[-91.6519,14.8556,3042.3335],[-91.6566,14.8509,3176.4915],[-91.6507,14.8496,3099.1973],[-91.6501,14.8469,3097.4863]]]]}}