{"type": "Feature","bbox": [-90.4731,13.8033,-90.2422,14.1903],"geometry": {"type": "MultiPolygon","coordinates": [[[[-90.2646,13.8051,0.375],[-90.2567,13.8033,4.7279],[-90.2539,13.8047,9.5111],[-90.2622,13.8082,15.5903],[-90.2625,13.8111,2.5649],[-90.2591,13.811,1.7957],[-90.2588,13.8127,1.6379],[-90.2607,13.8155,2.8661],[-90.2639,13.8361,5.4701],[-90.2584,13.84,5.4313],[-90.257,13.8428,5.6153],[-90.2462,13.8479,9.6618],[-90.2435,13.8569,11.3969],[-90.2448,13.8678,13.3943],[-90.2422,13.8717,13.7925],[-90.2439,13.8783,13.9825],[-90.2474,13.8802,13.6759],[-90.2491,13.89,15.9276],[-90.2527,13.8904,15.8233],[-90.2546,13.894,17.8505],[-90.2509,13.9022,16.5678],[-90.2511,13.9061,20.4419],[-90.2461,13.9147,17.784],[-90.2527,13.9215,19.0223],[-90.2507,13.9292,20.706],[-90.2576,13.9293,20.9389],[-90.2595,13.935,21.0855],[-90.2698,13.9336,19.7402],[-90.2759,13.947,25.1457],[-90.2823,13.9534,25.0814],[-90.2932,13.9748,32.8588],[-90.2892,13.9822,47.4895],[-90.2893,13.985,49.455],[-90.2948,13.9955,48.0937],[-90.2929,13.999,50.5284],[-90.2982,14.005,48.8518],[-90.2988,14.0113,59.3019],[-90.2928,14.011,58.8834],[-90.2962,14.0226,72.8945],[-90.2948,14.0282,83.6241],[-90.2997,14.0354,100.1959],[-90.2991,14.0382,114.0662],[-90.3022,14.0448,123.8266],[-90.2972,14.0513,192.7664],[-90.2893,14.0703,235.9597],[-90.2816,14.0787,312.6864],[-90.2805,14.0865,347.8914],[-90.2837,14.0916,436.0401],[-90.2828,14.0976,429.6639],[-90.2917,14.1053,623.1675],[-90.2998,14.1069,639.2653],[-90.3056,14.1115,709.8757],[-90.3059,14.1504,1257.0583],[-90.3172,14.1787,888.571],[-90.3237,14.1793,761.5356],[-90.3269,14.1816,755.3702],[-90.3255,14.1879,916.0963],[-90.3343,14.1903,531.4446],[-90.3448,14.1841,536.343],[-90.3619,14.182,627.8297],[-90.3644,14.1866,663.5649],[-90.3736,14.1836,694.0459],[-90.3845,14.1893,821.5087],[-90.3904,14.1892,875.3948],[-90.3948,14.1853,920.0182],[-90.4009,14.1835,1015.8041],[-90.4075,14.1764,1195.9911],[-90.4113,14.1664,1477.4495],[-90.4116,14.1595,1515.5793],[-90.4012,14.1587,1539.1516],[-90.3953,14.1531,1441.7047],[-90.399,14.1372,960.183],[-90.3943,14.1202,644.938],[-90.3928,14.1073,497.0262],[-90.3884,14.101,411.1755],[-90.3909,14.0877,338.1065],[-90.3961,14.0855,341.9662],[-90.3959,14.0784,282.7967],[-90.3893,14.0795,268.2773],[-90.3871,14.0734,224.6781],[-90.3874,14.0679,202.9843],[-90.3853,14.0641,180.2999],[-90.3876,14.0543,144.6183],[-90.3903,14.0507,133.1921],[-90.3963,14.0488,126.1027],[-90.3973,14.0402,110.5562],[-90.4015,14.0401,104.1898],[-90.4023,14.0328,94.6467],[-90.4072,14.0341,93.3621],[-90.4125,14.0327,81.9538],[-90.4115,14.0206,74.7957],[-90.4064,14.0215,78.1092],[-90.3988,14.01,76.0118],[-90.3994,14.0076,74.9918],[-90.4037,14.0067,68.0443],[-90.4066,14.0032,62.5953],[-90.4104,13.9823,47.8572],[-90.4069,13.9768,39.7659],[-90.417,13.9529,26.5613],[-90.4124,13.9397,17.6529],[-90.4313,13.9155,6.4675],[-90.4384,13.9157,6.2563],[-90.4414,13.9109,4.131],[-90.4348,13.9043,5.8167],[-90.4336,13.8976,9.6621],[-90.4349,13.8959,11.7381],[-90.4435,13.9005,2.1976],[-90.4454,13.8987,1.5419],[-90.4546,13.9087,8.2792],[-90.4594,13.9081,7.4064],[-90.4655,13.9131,8.9178],[-90.4681,13.9069,7.0869],[-90.468,13.9005,7.0033],[-90.4731,13.8918,6.8345],[-90.4731,13.886,2.4804],[-90.4337,13.8735,2.768],[-90.3974,13.8596,5.3372],[-90.3543,13.8399,0.6258],[-90.3499,13.8421,3.475],[-90.3415,13.8379,8.5002],[-90.3421,13.8354,0.0],[-90.339,13.8335,0.0],[-90.3365,13.8349,1.7591],[-90.3376,13.8321,6.1654],[-90.3218,13.8268,0.0],[-90.2763,13.8057,0.0],[-90.2726,13.8046,1.2282],[-90.2718,13.8085,0.5],[-90.2735,13.8099,1.2895],[-90.2835,13.8104,1.965],[-90.2879,13.8135,6.1821],[-90.2893,13.8174,1.8902],[-90.2829,13.8129,1.4877],[-90.2721,13.8101,2.4506],[-90.2646,13.8051,0.375]]]]}
,"properties": {"GID_2": "GTM.18.3_1","GID_0": "GTM","country": "Guatemala","GID_1": "GTM.18_1","province": "SantaRosa","NL_NAME_1": "NA","county": "Chiquimulilla","VARNAME_2": "NA","NL_NAME_2": "NA","TYPE_2": "Municipio","ENGTYPE_2": "Municipality","CC_2": "NA","HASC_2": "NA","name": "Chiquimulilla.county","area_km2": 542.1034,"hist_schema_id": "Elevation0-9000","hist_area_km2": {"0": 162.0338,"25": 120.4058,"50": 38.0614,"75": 27.7099,"100": 21.4134,"125": 13.4931,"150": 9.276,"175": 8.3707,"200": 7.301,"225": 5.964,"250": 6.0667,"275": 5.9432,"300": 6.0048,"325": 5.6963,"350": 5.4083,"375": 4.5856,"400": 4.7089,"425": 4.8528,"450": 3.9068,"475": 4.2151,"500": 4.0301,"525": 4.4412,"550": 4.0092,"575": 4.6054,"600": 4.5642,"625": 4.523,"650": 3.9268,"675": 3.2894,"700": 3.5567,"725": 3.7828,"750": 3.1455,"775": 3.0221,"800": 2.5082,"825": 2.5081,"850": 2.0764,"875": 1.9942,"900": 1.9736,"925": 1.9736,"950": 1.6652,"975": 1.583,"1000": 1.4802,"1025": 1.583,"1050": 1.0485,"1075": 1.2541,"1100": 0.9457,"1125": 0.9663,"1150": 1.0074,"1175": 0.6579,"1200": 0.699,"1225": 0.699,"1250": 0.3906,"1275": 0.5345,"1300": 0.4523,"1325": 0.3701,"1350": 0.185,"1375": 0.2056,"1400": 0.1645,"1425": 0.1645,"1450": 0.1233,"1475": 0.2878,"1500": 0.1439,"1525": 0.0822,"1575": 0.0206,"1600": 0.0206,"1675": 0.0206}}}