{"type": "Feature","bbox": [-91.9163,15.0628,-91.7693,15.233],"geometry": {"type": "MultiPolygon","coordinates": [[[[-91.7958,15.1861,2872.8867],[-91.8018,15.1943,2823.4451],[-91.8115,15.1984,2761.7087],[-91.8159,15.2248,2507.7915],[-91.821,15.223,2592.6033],[-91.8256,15.2297,2584.832],[-91.8355,15.233,2738.814],[-91.8493,15.2202,2985.6079],[-91.862,15.214,3031.8604],[-91.8738,15.2157,3109.6274],[-91.8779,15.2216,3114.2839],[-91.8942,15.2234,3180.3638],[-91.8974,15.2199,3215.7109],[-91.8991,15.2149,3288.6191],[-91.9028,15.2149,3345.9412],[-91.9106,15.2201,3396.603],[-91.9163,15.2175,3459.9463],[-91.9069,15.2047,3516.8291],[-91.9066,15.1939,3542.1274],[-91.8929,15.1949,3232.4761],[-91.8898,15.193,3161.886],[-91.8778,15.1742,3099.3252],[-91.8644,15.1622,2662.2773],[-91.8749,15.1551,2643.771],[-91.8736,15.1519,2760.5593],[-91.8747,15.1499,2818.1619],[-91.8744,15.1479,2872.2336],[-91.8695,15.1491,2757.791],[-91.8633,15.1456,2793.9202],[-91.8603,15.1406,2763.5972],[-91.8623,15.137,2835.6763],[-91.8642,15.1367,2864.7192],[-91.8711,15.1408,2909.8555],[-91.8718,15.1393,2946.1118],[-91.8663,15.1326,2904.4307],[-91.8603,15.1108,3020.4187],[-91.8479,15.1071,2873.3794],[-91.8409,15.1069,2722.1997],[-91.8328,15.0987,2631.6284],[-91.8354,15.0868,2725.4114],[-91.8472,15.0651,2870.407],[-91.8435,15.0628,2875.1462],[-91.8377,15.0633,2801.8379],[-91.8339,15.0736,2746.8323],[-91.8315,15.0754,2745.4272],[-91.8297,15.076,2722.4531],[-91.8252,15.0711,2785.3076],[-91.8221,15.0704,2839.125],[-91.817,15.0722,2720.8613],[-91.8111,15.0715,2808.7307],[-91.7936,15.0783,2642.322],[-91.7797,15.0904,2322.4902],[-91.7801,15.092,2302.1499],[-91.7836,15.0932,2296.1643],[-91.7718,15.1064,2309.4031],[-91.7693,15.1197,2310.9443],[-91.7694,15.1368,2495.8743],[-91.7744,15.1453,2544.1675],[-91.7751,15.1508,2830.4441],[-91.7834,15.1516,2900.6282],[-91.7862,15.1539,2946.5515],[-91.7958,15.1861,2872.8867]]]]}
,"properties": {"GID_2": "GTM.17.29_1","GID_0": "GTM","country": "Guatemala","GID_1": "GTM.17_1","province": "SanMarcos","NL_NAME_1": "NA","county": "Tejutla","VARNAME_2": "NA","NL_NAME_2": "NA","TYPE_2": "Municipio","ENGTYPE_2": "Municipality","CC_2": "NA","HASC_2": "NA","name": "Tejutla.county","area_km2": 146.7135,"hist_schema_id": "Elevation0-9000","hist_area_km2": {"2200": 0.0409,"2225": 0.307,"2250": 0.4094,"2275": 0.7573,"2300": 1.3919,"2325": 2.1697,"2350": 2.8247,"2375": 3.1316,"2400": 3.3977,"2425": 3.7661,"2450": 3.8276,"2475": 4.7895,"2500": 4.8099,"2525": 4.8917,"2550": 5.0758,"2575": 4.9326,"2600": 5.4032,"2625": 5.6282,"2650": 5.7919,"2675": 5.4849,"2700": 5.4233,"2725": 5.4642,"2750": 5.0549,"2775": 5.2388,"2800": 4.7475,"2825": 4.7271,"2850": 4.9112,"2875": 4.6656,"2900": 5.1976,"2925": 4.3177,"2950": 3.2126,"2975": 2.3941,"3000": 2.2509,"3025": 1.9439,"3050": 2.1075,"3075": 1.7392,"3100": 1.555,"3125": 1.289,"3150": 1.2276,"3175": 1.3299,"3200": 1.7391,"3225": 1.78,"3250": 1.3913,"3275": 0.4297,"3300": 0.2251,"3325": 0.1637,"3350": 0.3683,"3375": 0.4501,"3400": 0.491,"3425": 0.5115,"3450": 0.3887,"3475": 0.3683,"3500": 0.3069,"3525": 0.3274,"3550": 0.1432}}}