{"type":"Feature","properties":{"GID_2":"GTM.8.9_1","GID_0":"GTM","country":"Guatemala","GID_1":"GTM.8_1","province":"Huehuetenango","NL_NAME_1":"NA","county":"LaLibertad","VARNAME_2":"NA","NL_NAME_2":"NA","TYPE_2":"Municipio","ENGTYPE_2":"Municipality","CC_2":"NA","HASC_2":"NA","name":"La_Libertad.county"},
"geometry":{"type": "MultiPolygon","coordinates": [[[[-91.8431,15.4475,2581.458],[-91.8293,15.4656,2653.9858],[-91.8247,15.4822,2203.7302],[-91.8246,15.5076,1337.1376],[-91.8297,15.5223,1453.2948],[-91.832,15.5531,2167.3706],[-91.8416,15.5652,1352.0806],[-91.8444,15.5845,1376.4781],[-91.8479,15.5902,1122.1465],[-91.848,15.5956,933.3975],[-91.8553,15.5979,940.8823],[-91.8634,15.6217,859.9747],[-91.8981,15.623,1198.4104],[-91.9074,15.6283,1100.1105],[-91.9225,15.6318,886.5665],[-91.9288,15.6318,864.5327],[-91.9418,15.6424,994.8491],[-91.9732,15.6609,782.2607],[-91.9868,15.6379,851.621],[-91.9502,15.6153,1017.4318],[-91.9316,15.6137,911.3364],[-91.9197,15.5988,1440.8025],[-91.9014,15.5867,2122.5835],[-91.8915,15.5781,2053.5005],[-91.8826,15.5651,2343.3745],[-91.8833,15.564,2343.3745],[-91.8737,15.5603,1904.1382],[-91.8714,15.5515,1715.5813],[-91.8615,15.5401,1545.0797],[-91.8613,15.5353,1417.4828],[-91.8555,15.53,1169.9937],[-91.8549,15.5197,1479.2694],[-91.8495,15.5037,1603.2693],[-91.8474,15.4895,1895.7915],[-91.8469,15.4578,2661.6858],[-91.8431,15.4475,2581.458]]]]}}