{"type":"Feature","properties":{"GID_2":"GTM.11.8_1","GID_0":"GTM","country":"Guatemala","GID_1":"GTM.11_1","province":"Jutiapa","NL_NAME_1":"NA","county":"Jalpatagua","VARNAME_2":"NA","NL_NAME_2":"NA","TYPE_2":"Municipio","ENGTYPE_2":"Municipality","CC_2":"NA","HASC_2":"NA","name":"Jalpatagua.county"},
"geometry":{"type": "MultiPolygon","coordinates": [[[[-89.8956,14.0405,318.0581],[-89.9048,14.0471,325.7929],[-89.9131,14.0494,322.0144],[-89.9162,14.0544,321.2735],[-89.9237,14.0595,326.5462],[-89.9343,14.0608,423.2818],[-89.9365,14.0642,476.4958],[-89.9453,14.0659,364.4059],[-89.9534,14.088,486.9747],[-89.9553,14.0899,463.5343],[-89.9625,14.0887,535.35],[-89.9652,14.0913,548.0977],[-89.9657,14.0947,570.8552],[-89.9596,14.1119,733.8621],[-89.9571,14.1134,753.3723],[-89.9575,14.1169,754.3475],[-89.9497,14.1214,1058.4771],[-89.9501,14.1407,1284.6075],[-89.979,14.1567,1117.563],[-89.9911,14.1589,1074.2471],[-90.004,14.166,987.4432],[-90.0142,14.1695,1035.4792],[-90.0136,14.1753,1084.1968],[-90.016,14.1834,1021.3693],[-90.0132,14.1843,1003.9021],[-90.0095,14.1825,1013.7502],[-90.0094,14.1858,1004.2285],[-90.0248,14.2014,1105.478],[-90.0307,14.193,1137.3192],[-90.0334,14.1946,1170.1058],[-90.036,14.1883,1158.5294],[-90.0418,14.185,1016.9822],[-90.05,14.201,1141.8289],[-90.0497,14.2026,1162.4146],[-90.0439,14.1995,1185.9851],[-90.0443,14.2032,1160.6959],[-90.0483,14.208,1151.8213],[-90.0487,14.2128,1130.2299],[-90.0502,14.2138,1124.8325],[-90.0575,14.2047,1138.9905],[-90.062,14.2066,1139.2858],[-90.075,14.2007,887.4922],[-90.0621,14.1825,861.7264],[-90.067,14.1816,724.2607],[-90.0726,14.1774,728.7886],[-90.0685,14.1715,635.3824],[-90.069,14.1671,596.5151],[-90.0759,14.1628,583.4876],[-90.0796,14.1642,636.5211],[-90.0813,14.1614,579.1304],[-90.0573,14.1273,640.0488],[-90.0551,14.1303,596.5323],[-90.0529,14.1259,604.8006],[-90.0663,14.0909,716.835],[-90.0574,14.0606,1233.7909],[-90.0528,14.0596,1295.8813],[-90.0478,14.0735,1177.2719],[-90.0489,14.0827,1042.3339],[-90.0474,14.0837,1027.8989],[-90.0336,14.0852,975.0891],[-90.0295,14.088,884.0433],[-90.0243,14.0861,855.0695],[-90.0205,14.0893,834.7922],[-89.9991,14.0941,552.7765],[-89.9932,14.0804,706.7184],[-89.9919,14.0801,744.176],[-89.9945,14.0783,706.5622],[-89.9937,14.0727,813.3142],[-89.9883,14.073,826.2261],[-89.9837,14.0786,712.8212],[-89.9624,14.0685,494.7267],[-89.9623,14.062,543.841],[-89.9686,14.0552,539.7026],[-89.9695,14.048,547.7264],[-89.9677,14.0375,583.545],[-89.9643,14.0368,550.438],[-89.9652,14.0335,612.3882],[-89.9641,14.0305,602.7108],[-89.9587,14.0259,578.1995],[-89.9604,14.0187,738.4822],[-89.9567,14.0137,739.3817],[-89.9384,14.014099999999999,528.7178],[-89.9374,14.0114,504.1086],[-89.9248,14.007,291.4202],[-89.9255,14.0059,291.4202],[-89.9204,14.0079,294.6471],[-89.9179,14.0071,375.2581],[-89.9172,14.0093,342.7798],[-89.909,14.0129,299.7681],[-89.9002,14.0321,310.9873],[-89.9007,14.0357,316.5622],[-89.8964,14.0375,320.3448],[-89.8956,14.0405,318.0581]]]]}}