{"type": "Feature","bbox": [-90.5458,14.8822,-90.4296,15.0176],"geometry": {"type": "MultiPolygon","coordinates": [[[[-90.4966,14.8969,643.1372],[-90.4936,14.899,805.9516],[-90.4908,14.8916,545.7099],[-90.4815,14.8893,681.3099],[-90.4825,14.8869,557.4822],[-90.4785,14.887,617.2585],[-90.4749,14.8829,569.2952],[-90.4703,14.8822,588.4362],[-90.4685,14.8851,609.3257],[-90.4588,14.8842,595.4457],[-90.4436,14.886,593.3739],[-90.4358,14.8895,501.696],[-90.436,14.8991,504.3353],[-90.4329,14.9088,507.074],[-90.4296,14.9125,570.9269],[-90.4457,14.9247,699.664],[-90.4508,14.9329,694.6956],[-90.4484,14.946,813.056],[-90.4503,14.9545,956.1915],[-90.4428,14.9856,1949.8832],[-90.4441,14.993,1967.1116],[-90.4517,14.9991,1999.7424],[-90.4561,15.0093,1725.2047],[-90.4684,15.0134,1754.2764],[-90.4738,15.01,1897.4791],[-90.4815,15.015,1800.2351],[-90.4886,15.0166,1988.0055],[-90.4927,15.0145,1982.5098],[-90.5007,15.0175,1958.8898],[-90.5096,15.0176,2023.7872],[-90.5148,15.0061,2056.7266],[-90.5146,15.0007,2035.0928],[-90.5173,14.9974,1977.0884],[-90.5224,14.999,1906.5004],[-90.5254,14.9957,1866.6007],[-90.533,14.996,1959.7815],[-90.5387,14.9935,1702.4784],[-90.5432,14.9886,1519.7808],[-90.5458,14.9841,1406.0487],[-90.5421,14.9722,1243.1792],[-90.5455,14.9625,1125.9078],[-90.5402,14.9565,1158.4358],[-90.5199,14.9458,956.7691],[-90.5186,14.9428,1041.1277],[-90.5103,14.9408,989.3885],[-90.5015,14.9331,932.2446],[-90.4997,14.9272,835.9291],[-90.5076,14.91,800.1808],[-90.502,14.9054,633.7336],[-90.4964,14.8987,584.2268],[-90.4966,14.8969,643.1372]]]]}
,"properties": {"GID_2": "GTM.2.8_1","GID_0": "GTM","country": "Guatemala","GID_1": "GTM.2_1","province": "BajaVerapaz","NL_NAME_1": "NA","county": "SantaCruzElChol","VARNAME_2": "NA","NL_NAME_2": "NA","TYPE_2": "Municipio","ENGTYPE_2": "Municipality","CC_2": "NA","HASC_2": "NA","name": "Santa_Cruz_El_Chol.county","area_km2": 113.27728,"hist_schema_id": "Elevation0-9000","hist_area_km2": {"475": 0.02049,"500": 0.14342,"525": 0.14342,"550": 0.47126,"575": 0.38931,"600": 1.02447,"625": 0.92202,"650": 1.27034,"675": 1.41377,"700": 1.3318,"725": 1.45473,"750": 1.61859,"775": 1.8235,"800": 2.1513,"825": 2.15124,"850": 2.37662,"875": 2.29463,"900": 3.07313,"925": 2.88868,"950": 3.25739,"975": 3.7695,"1000": 3.8514,"1025": 3.50307,"1050": 3.1752,"1075": 3.40051,"1100": 3.23656,"1125": 3.15461,"1150": 2.70391,"1175": 2.45806,"1200": 2.68333,"1225": 2.00735,"1250": 1.76154,"1275": 2.10972,"1300": 2.2326,"1325": 1.82294,"1350": 1.76148,"1375": 2.00725,"1400": 1.78195,"1425": 1.41324,"1450": 1.45418,"1475": 1.49517,"1500": 1.59756,"1525": 1.37226,"1550": 1.39272,"1575": 1.4337,"1600": 1.29031,"1625": 1.04453,"1650": 1.37223,"1675": 1.41318,"1700": 1.47461,"1725": 1.31075,"1750": 1.69988,"1775": 1.6589,"1800": 1.55648,"1825": 1.35168,"1850": 1.59743,"1875": 1.59743,"1900": 1.29023,"1925": 1.22879,"1950": 1.00351,"1975": 0.86015,"2000": 0.92158,"2025": 0.81919,"2050": 0.86014,"2075": 0.55295,"2100": 0.40959,"2125": 0.16384}}}