{"type":"Feature","properties":{"GID_2":"GTM.7.19_1","GID_0":"GTM","country":"Guatemala","GID_1":"GTM.7_1","province":"Guatemala","NL_NAME_1":"NA","county":"ZONA11","VARNAME_2":"NA","NL_NAME_2":"NA","TYPE_2":"Municipio","ENGTYPE_2":"Municipality","CC_2":"NA","HASC_2":"NA","name":"Z_O_N_A11.county"},
"geometry":{"type": "MultiPolygon","coordinates": [[[[-90.5636,14.5888,1476.7141],[-90.56,14.5945,1489.9751],[-90.537,14.6144,1527.4719],[-90.5396,14.6172,1531.4473],[-90.5709,14.6349,1602.3145],[-90.5728,14.6297,1564.9658],[-90.5694,14.6285,1561.0782],[-90.5711,14.6213,1533.2231],[-90.5682,14.6124,1498.0801],[-90.5691,14.6061,1490.5923],[-90.5674,14.6044,1452.032],[-90.5677,14.6018,1439.3752],[-90.5726,14.5961,1471.1277],[-90.5758,14.5834,1414.3625],[-90.5782,14.58,1377.425],[-90.5816,14.5783,1369.876],[-90.5815,14.5714,1379.7004],[-90.5784,14.5724,1364.3967],[-90.5747,14.5807,1380.636],[-90.5713,14.582,1416.9718],[-90.5672,14.5887,1467.249],[-90.5636,14.5888,1476.7141]]]]}}