{"type":"Feature","properties":{"GID_2":"GTM.18.5_1","GID_0":"GTM","country":"Guatemala","GID_1":"GTM.18_1","province":"SantaRosa","NL_NAME_1":"NA","county":"Guazacapán","VARNAME_2":"NA","NL_NAME_2":"NA","TYPE_2":"Municipio","ENGTYPE_2":"Municipality","CC_2":"NA","HASC_2":"NA","name":"Guazacapán.county"},
"geometry":{"type": "MultiPolygon","coordinates": [[[[-90.399,14.1372,960.183],[-90.4128,14.1377,1320.6221],[-90.4157,14.1129,706.5972],[-90.4305,14.1177,801.5978],[-90.4294,14.1299,1030.4358],[-90.4315,14.132,1029.5878],[-90.4468,14.1252,843.2242],[-90.4511,14.1141,705.7502],[-90.4495,14.1125,673.7142],[-90.446,14.1148,697.6083],[-90.4351,14.1141,687.9988],[-90.433,14.1121,689.2324],[-90.4355,14.1001,515.7866],[-90.4323,14.0786,312.699],[-90.4358,14.0755,288.5289],[-90.4348,14.0568,158.1239],[-90.4384,14.0463,112.8755],[-90.4372,14.0385,83.8855],[-90.4415,14.0356,77.3758],[-90.4424,14.0305,55.8242],[-90.441,14.026,50.9801],[-90.4512,14.0025,32.0794],[-90.4558,13.9968,28.2791],[-90.4637,13.9946,26.4899],[-90.4658,13.9876,19.6567],[-90.4636,13.9792,17.9825],[-90.4627,13.9648,11.361],[-90.4545,13.9642,19.6086],[-90.4502,13.9589,16.2739],[-90.4467,13.9598,20.485],[-90.4384,13.9469,15.7661],[-90.4325,13.9422,16.3776],[-90.4202,13.9364,18.143],[-90.4175,13.9324,15.8358],[-90.4124,13.9397,17.6529],[-90.417,13.9529,26.5613],[-90.4069,13.9768,39.7659],[-90.4104,13.9823,47.8572],[-90.4066,14.0032,62.5953],[-90.4037,14.0067,68.0443],[-90.3994,14.0076,74.9918],[-90.3988,14.01,76.0118],[-90.4064,14.0215,78.1092],[-90.4115,14.0206,74.7957],[-90.4125,14.0327,81.9538],[-90.4072,14.0341,93.3621],[-90.4023,14.0328,94.6467],[-90.4015,14.0401,104.1898],[-90.3973,14.0402,110.5562],[-90.3963,14.0488,126.1027],[-90.3903,14.0507,133.1921],[-90.3854,14.0608,171.8866],[-90.3893,14.0795,268.2773],[-90.3959,14.0784,282.7967],[-90.3961,14.0855,341.9662],[-90.3909,14.0877,338.1065],[-90.3884,14.101,411.1755],[-90.3928,14.1073,497.0262],[-90.3943,14.1202,644.938],[-90.399,14.1372,960.183]]]]}}