{"type":"Feature","properties":{"GID_2":"GTM.18.6_1","GID_0":"GTM","country":"Guatemala","GID_1":"GTM.18_1","province":"SantaRosa","NL_NAME_1":"NA","county":"NuevaSantaRosa","VARNAME_2":"NA","NL_NAME_2":"NA","TYPE_2":"Municipio","ENGTYPE_2":"Municipality","CC_2":"NA","HASC_2":"NA","name":"Nueva_Santa_Rosa.county"},
"geometry":{"type": "MultiPolygon","coordinates": [[[[-90.1943,14.3255,1790.4353],[-90.2047,14.3442,1984.3716],[-90.2093,14.3456,2082.4067],[-90.2096,14.3484,2114.8982],[-90.2178,14.358,1693.9221],[-90.2132,14.3657,1677.5631],[-90.2134,14.3756,1591.2573],[-90.2175,14.3943,1163.0261],[-90.217,14.3984,1136.4005],[-90.2197,14.4035,1053.0076],[-90.2269,14.4053,1100.9458],[-90.2283,14.4093,1045.6609],[-90.2389,14.4138,1024.1221],[-90.2431,14.4119,1015.8145],[-90.2561,14.4128,1001.761],[-90.276,14.409,970.5715],[-90.2782,14.4114,967.3692],[-90.2755,14.4172,983.3459],[-90.2761,14.4212,985.7958],[-90.272,14.4331,1019.1903],[-90.2747,14.4458,1078.2476],[-90.2883,14.4519,1189.2732],[-90.2978,14.4526,1119.9512],[-90.3016,14.4496,1126.3746],[-90.3031,14.4457,1091.6228],[-90.302,14.4379,1044.3549],[-90.2985,14.4305,1041.1799],[-90.2936,14.4256,983.2614],[-90.2886,14.4263,1017.3378],[-90.2865,14.4217,999.1194],[-90.2846,14.4065,952.3379],[-90.2852,14.3932,942.4974],[-90.2932,14.3826,935.6277],[-90.2955,14.3744,924.7051],[-90.2991,14.3748,954.3486],[-90.3016,14.3713,923.5559],[-90.3042,14.372,922.6668],[-90.3044,14.3702,923.2468],[-90.3271,14.3755,964.3857],[-90.3347,14.3754,1025.8278],[-90.3376,14.3732,1043.4709],[-90.3384,14.3642,1151.064],[-90.3505,14.3581,1223.7603],[-90.3496,14.3395,1351.9353],[-90.3398,14.3459,1339.0969],[-90.3321,14.3439,1395.6023],[-90.3285,14.3323,1295.3937],[-90.3249,14.332,1348.343],[-90.3224,14.3275,1302.7769],[-90.3129,14.3309,1229.1812],[-90.3107,14.3307,1155.0735],[-90.3076,14.3267,1095.519],[-90.3005,14.3309,909.556],[-90.2913,14.3266,1095.7997],[-90.2905,14.3199,975.5621],[-90.2944,14.316,965.6873],[-90.2925,14.3108,923.4771],[-90.2887,14.3072,873.4989],[-90.2808,14.3099,938.6998],[-90.2796,14.3071,909.2321],[-90.2699,14.3053,911.7739],[-90.2692,14.3033,844.8599],[-90.2574,14.2992,986.1876],[-90.2535,14.309,1069.7393],[-90.2479,14.3167,1282.9244],[-90.2435,14.3173,1351.6443],[-90.2375,14.3221,1308.3159],[-90.2391,14.3282,1275.1698],[-90.2148,14.3225,1644.2124],[-90.2063,14.3273,1704.1953],[-90.1988,14.3225,1747.3397],[-90.1943,14.3255,1790.4353]]]]}}