{"type":"Feature","properties":{"featurecla":"River","scalerank":12,"rivernum":22221,"dissolve":"22221River","name":"San Pedro","name_alt":null,"note":"ID is link back to CEC data","name_full":null,"min_zoom":7.0,"strokeweig":0.15,"uident":2041301,"min_label":8.0},
"geometry":{"type": "LineString","coordinates": [[-90.495228644916224,17.255235093223206,49.4445],[-90.4686580068954,17.232285874473206,47.1398],[-90.444894986062067,17.198268947389863,62.4002],[-90.4190974600204,17.198187567181535,59.14],[-90.360463019916224,17.230088608848206,88.3925],[-90.302845832416224,17.248643296348206,106.6941],[-90.2728572256454,17.262518621869035,125.0688],[-90.222727017312067,17.268255926556535,87.3264],[-90.1900935537704,17.281317449994035,71.4302],[-90.1666560537704,17.286525783327363,93.4173],[-90.152333137103724,17.285223699994035,55.7557],[-90.145822720437067,17.272202866660706,60.8775],[-90.141916470437067,17.248765366660706,67.3581],[-90.130197720437067,17.237046616660706,66.9763],[-90.1080623037704,17.230536199994035,69.5525],[-90.0846248037704,17.217515366660706,77.3998],[-90.070301887103724,17.205796616660706,78.5167],[-90.0533748037704,17.187567449994035,80.4541],[-90.040353970437067,17.174546616660706,81.9124],[-90.028635220437067,17.149807033327363,88.0976],[-90.013010220437067,17.131577866660706,90.0599],[-90.012994730853734,17.13157326249404,90.0599],[-90.0129488037704,17.131559783327372,90.0599],[-90.012873251687068,17.131537929160707,91.9986],[-90.012768887103732,17.131508199994038,91.9986],[-90.0126365225204,17.131471095827372,91.9986],[-90.012476970437064,17.131427116660706,91.9986],[-90.012291043353727,17.131376762494039,91.9986],[-90.0120795537704,17.131320533327372,91.9986],[-90.011843314187061,17.131258929160705,91.9986],[-90.011583137103727,17.131192449994039,91.9986],[-90.0112998350204,17.131121595827373,91.9986],[-90.01099422043707,17.131046866660707,91.9986],[-90.010667105853727,17.130968762494039,88.5054],[-90.0103193037704,17.130887783327374,88.5054],[-90.009951626687069,17.130804429160705,88.5054],[-90.009564887103735,17.13071919999404,88.5054],[-90.0091598975204,17.130632595827372,88.5054],[-90.008737470437069,17.130545116660706,93.2566],[-90.008298418353732,17.130457262494037,93.2566],[-90.0078435537704,17.130369533327372,90.1022],[-90.007373689187062,17.130282429160705,90.1022],[-90.006889637103725,17.130196449994038,90.1022],[-90.0063922100204,17.130112095827371,89.0763],[-90.005882220437059,17.130029866660706,89.0763],[-90.005360480853724,17.129950262494038,89.0763],[-90.0048278037704,17.129873783327373,89.0763],[-90.004285001687066,17.129800929160705,90.6688],[-90.003732887103723,17.129732199994038,90.6688],[-90.0031722725204,17.12966809582737,90.6688],[-90.002603970437065,17.129609116660703,90.6688],[-90.00202879335373,17.129555762494036,89.5363],[-90.00144755377039,17.129508533327371,89.5363],[-90.000861064187063,17.129467929160704,89.5363],[-90.000270137103726,17.129434449994037,89.2524],[-89.9996755850204,17.129408595827368,89.2524],[-89.999078220437056,17.129390866660703,89.2524],[-89.998478855853733,17.129381762494035,89.1772],[-89.997878303770392,17.129381783327368,89.1772],[-89.997277376687066,17.1293914291607,89.1772],[-89.996676887103732,17.129411199994035,89.1772],[-89.9960776475204,17.129441595827366,96.131],[-89.995480470437059,17.1294831166607,96.131],[-89.99488616835373,17.129536262494032,96.131],[-89.9942955537704,17.129601533327367,96.0076],[-89.993709439187057,17.1296794291607,96.0076],[-89.993128637103723,17.12977044999403,96.0076],[-89.9925539600204,17.129875095827366,96.0076],[-89.991986220437056,17.129993866660698,96.7106],[-89.9908748037704,17.130275783327363,96.7106],[-89.9903172100204,17.13044588749403,96.4082],[-89.989739053770393,17.130642866660697,98.6541],[-89.9891416475204,17.130865470827363,98.6541],[-89.9885263037704,17.131112449994031,98.6541],[-89.9878943350204,17.131382554160698,101.1293],[-89.9872470537704,17.131674533327367,101.1293],[-89.9865857725204,17.131987137494033,101.1293],[-89.985911803770392,17.1323191166607,104.5664],[-89.9852264600204,17.132669220827367,104.5664],[-89.9845310537704,17.133036199994031,104.5664],[-89.9838268975204,17.133418804160698,105.2513],[-89.9831153037704,17.133815783327368,105.1486],[-89.9823975850204,17.134225887494033,105.1486],[-89.9816750537704,17.1346478666607,106.1156],[-89.980949022520392,17.135080470827369,106.1156],[-89.9802208037704,17.135522449994035,106.3304],[-89.9794917100204,17.135972554160702,105.5314],[-89.9787630537704,17.13642953332737,105.5314],[-89.9780361475204,17.136892137494034,105.5314],[-89.9773123037704,17.1373591166607,107.5771],[-89.9765928350204,17.137829220827367,107.5771],[-89.9758790537704,17.138301199994036,107.5771],[-89.9751722725204,17.138773804160703,102.1067],[-89.9744738037704,17.139245783327368,102.1067],[-89.9737849600204,17.139715887494038,102.8931],[-89.973107053770391,17.1401828666607,102.8931],[-89.9724413975204,17.140645470827369,103.2845],[-89.9717893037704,17.141102449994037,103.2845],[-89.971152085020393,17.141552554160704,100.1864],[-89.9705310537704,17.14199453332737,100.1864],[-89.9699275225204,17.142427137494039,98.0141],[-89.9693428037704,17.142849116660706,99.0813],[-89.9687782100204,17.143259220827371,99.0813],[-89.9682350537704,17.143656199994037,99.0813],[-89.9677146475204,17.144038804160704,100.341],[-89.9672183037704,17.144405783327372,99.9667],[-89.9667473350204,17.144755887494039,99.9667],[-89.9663030537704,17.145087866660706,99.9667],[-89.965886772520392,17.145400470827372,99.9667],[-89.9654998037704,17.145692449994037,100.5577],[-89.9651434600204,17.145962554160704,100.5577],[-89.9648190537704,17.146209533327372,100.5577],[-89.9645278975204,17.146432137494038,100.5577],[-89.9642713037704,17.146629116660705,100.5577],[-89.9640505850204,17.146799220827372,100.5577],[-89.9638670537704,17.146941199994039,100.5577],[-89.9637220225204,17.147053804160706,100.5577],[-89.963616803770392,17.147135783327371,100.2635],[-89.9635310537704,17.147202866660706,100.2635],[-89.949208137103724,17.162827866660706,105.3382],[-89.917958137103724,17.177150783327363,120.7284],[-89.899728970437067,17.183661199994035,125.9882],[-89.8814998037704,17.200588283327363,247.3199],[-89.864572720437067,17.204494533327363,153.0735],[-89.8385310537704,17.209702866660706,192.8538],[-89.826095503701666,17.213488855675063,197.2926],[-89.820503703652761,17.22746835579732,216.1535],[-89.823299603677214,17.245641705956256,305.519],[-89.830918396517333,17.264098732112362,258.1616],[-89.827767694134764,17.286611919976139,311.0238],[-89.824697553689447,17.30854945650642,276.6189],[-89.835881153787241,17.332314606714256,307.6224],[-89.833085253762789,17.35468180690987,345.1476]]}}