{"type":"Feature","properties":{"GID_2":"GTM.17.12_1","GID_0":"GTM","country":"Guatemala","GID_1":"GTM.17_1","province":"SanMarcos","NL_NAME_1":"NA","county":"NuevoProgreso","VARNAME_2":"NA","NL_NAME_2":"NA","TYPE_2":"Municipio","ENGTYPE_2":"Municipality","CC_2":"NA","HASC_2":"NA","name":"Nuevo_Progreso.county"},
"geometry":{"type": "MultiPolygon","coordinates": [[[[-91.9205,14.725,322.5261],[-91.9211,14.7294,295.6226],[-91.8938,14.7506,436.7636],[-91.8833,14.7634,551.3141],[-91.8805,14.7709,559.3931],[-91.8778,14.7729,580.112],[-91.8817,14.7823,525.827],[-91.8716,14.7884,592.9745],[-91.8667,14.7859,596.1448],[-91.8517,14.7929,798.6572],[-91.8452,14.7982,929.6542],[-91.8423,14.8064,953.0272],[-91.8414,14.8162,1028.3433],[-91.8299,14.8379,1420.2189],[-91.829,14.8431,1507.7372],[-91.8334,14.8566,2013.3022],[-91.832,14.8605,2120.7952],[-91.8243,14.8693,2473.0229],[-91.8118,14.875,2867.4521],[-91.799,14.8932,2777.9995],[-91.8054,14.9033,2886.8274],[-91.8127,14.9091,3054.8582],[-91.8285,14.891,2310.2917],[-91.8406,14.8631,2320.2505],[-91.8465,14.8562,1946.5332],[-91.8861,14.8317,976.3613],[-91.9142,14.8236,811.6229],[-91.9214,14.8189,711.0989],[-91.9233,14.8147,622.201],[-91.9401,14.7949,490.9937],[-91.95,14.7859,418.2455],[-91.9554,14.7718,311.4234],[-91.9619,14.7653,326.6898],[-91.9794,14.7638,235.3618],[-91.9799,14.7618,247.7563],[-91.9702,14.753,240.2911],[-91.9706,14.7519,237.7304],[-91.9774,14.746,202.8427],[-91.9785,14.7432,187.4341],[-91.9855,14.7394,163.8842],[-91.9893,14.7349,169.4728],[-92.0006,14.7297,143.5757],[-92.004,14.7207,119.105],[-92.0091,14.7183,104.8423],[-92.0098,14.7135,107.2341],[-91.9815,14.7105,151.6401],[-91.968,14.7125,159.0751],[-91.961,14.7112,212.2793],[-91.9559,14.7127,193.4158],[-91.9553,14.717,160.0998],[-91.9509,14.7193,195.378],[-91.9449,14.7257,181.3047],[-91.9396,14.7237,276.947],[-91.9362,14.7269,189.6558],[-91.9345,14.726,213.6954],[-91.9305,14.7285,215.5698],[-91.925299999999993,14.7244,320.3069],[-91.9205,14.725,322.5261]]]]}}