{"type":"Feature","properties":{"GID_2":"GTM.14.15_1","GID_0":"GTM","country":"Guatemala","GID_1":"GTM.14_1","province":"Quiché","NL_NAME_1":"NA","county":"SanAntonioIlotenango","VARNAME_2":"NA","NL_NAME_2":"NA","TYPE_2":"Municipio","ENGTYPE_2":"Municipality","CC_2":"NA","HASC_2":"NA","name":"San_Antonio_Ilotenango.county"},
"geometry":{"type": "MultiPolygon","coordinates": [[[[-91.1434,14.9945,2002.5972],[-91.1433,15.0153,2010.2742],[-91.1622,15.0462,1975.1084],[-91.1624,15.0537,2003.9229],[-91.1613,15.0594,2040.5524],[-91.1537,15.0661,2105.9858],[-91.1413,15.0814,2179.3086],[-91.1404,15.0858,2145.3152],[-91.1459,15.0965,2134.6638],[-91.1669,15.097,2051.0601],[-91.1799,15.0945,2036.0984],[-91.2141,15.1001,1998.8612],[-91.2488,15.1109,1749.1279],[-91.2514,15.115,1739.7871],[-91.2534,15.1235,1729.9269],[-91.2581,15.125,1762.104],[-91.2639,15.0496,1984.5685],[-91.2718,15.0354,1902.9803],[-91.2637,15.0217,2106.178],[-91.2643,15.001,2182.0918],[-91.2628,14.9953,2151.5054],[-91.2547,14.9798,2164.8149],[-91.237,14.9851,2142.3054],[-91.2313,14.9885,2032.4629],[-91.219,14.9898,2150.1716],[-91.1982,14.9976,2019.8757],[-91.1782,14.9958,2024.1102],[-91.1661,14.9988,2000.5876],[-91.1434,14.9945,2002.5972]]]]}}