{"type":"Feature","properties":{"GID_2":"GTM.17.15_1","GID_0":"GTM","country":"Guatemala","GID_1":"GTM.17_1","province":"SanMarcos","NL_NAME_1":"NA","county":"RíoBlanco","VARNAME_2":"NA","NL_NAME_2":"NA","TYPE_2":"Municipio","ENGTYPE_2":"Municipality","CC_2":"NA","HASC_2":"NA","name":"Río_Blanco.county"},
"geometry":{"type": "MultiPolygon","coordinates": [[[[-91.6981,15.0925,2192.762],[-91.7024,15.0856,2119.0593],[-91.7032,15.0601,2347.9824],[-91.6967,15.0382,2491.2512],[-91.7081,15.0222,2520.8584],[-91.6983,15.0105,2596.2197],[-91.7003,15.005,2562.5706],[-91.7062,14.9992,2618.5857],[-91.699,14.9979,2655.8066],[-91.6928,14.9996,2538.4717],[-91.6857,14.9916,2663.9758],[-91.6805,14.9934,2697.2405],[-91.6735,14.9921,2754.1367],[-91.6611,15.0549,2495.9309],[-91.6714,15.0592,2452.2458],[-91.6757,15.0694,2394.1655],[-91.6823,15.0714,2402.9128],[-91.6878,15.0781,2367.0417],[-91.696,15.0832,2326.3979],[-91.6958,15.0901,2181.0376],[-91.6981,15.0925,2192.762]]]]}}