{"type":"Feature","properties":{"ISO3166-1-Alpha-3":"GTM","country":"Guatemala","fill":"#F0F","id":"1951","name":"Guatemala"},
"geometry":{"type": "Polygon","coordinates": [[[-90.39993,14.89904,560.5454],[-90.4043,14.91077,553.837],[-90.41207,14.91702,565.4645],[-90.42835,14.91397,585.3077],[-90.43662,14.90819,571.4523],[-90.43902,14.90245,590.8342],[-90.44305,14.89749,748.1055],[-90.45628,14.89408,884.869],[-90.46781,14.89315,727.8835],[-90.4775,14.89423,962.3174],[-90.48499,14.89857,922.842],[-90.48979,14.90777,835.2649],[-90.49724,14.90777,676.1664],[-90.51338,14.89878,846.9929],[-90.53884,14.89,773.1626],[-90.56398,14.88493,716.4324],[-90.57919,14.88726,1004.1885],[-90.5854,14.88726,998.8235],[-90.58992,14.88483,851.751],[-90.59415,14.88354,784.2333],[-90.59943,14.88581,805.9352],[-90.6071,14.89408,993.8905],[-90.62198,14.89134,751.1262],[-90.65761,14.90395,1119.1403],[-90.66025,14.8885,706.8936],[-90.66079,14.88602,713.1325],[-90.66185,14.88307,869.6019],[-90.66309,14.88075,871.2809],[-90.66498,14.87801,860.8657],[-90.66849,14.87501,800.9097],[-90.67299,14.87191,882.5453],[-90.68405,14.86829,985.2015],[-90.68888,14.8655,1101.8145],[-90.7041,14.85393,1234.403],[-90.70901,14.85196,1270.0293],[-90.71298,14.85155,1292.1863],[-90.71549,14.85258,1475.2112],[-90.71841,14.85279,1527.4994],[-90.72105,14.85238,1561.5632],[-90.72342,14.85129,1596.5278],[-90.72761,14.84845,1622.2194],[-90.73182,14.84488,1638.6869],[-90.73763,14.83512,1704.1454],[-90.74691,14.80514,1764.7964],[-90.76523,14.77791,1880.877],[-90.74195,14.75739,1325.9446],[-90.7288,14.74985,1600.7896],[-90.71926,14.74778,1691.9734],[-90.70978,14.74747,1670.1511],[-90.69759,14.74949,1743.3802],[-90.69451,14.74944,1718.4438],[-90.69159,14.74882,1691.7761],[-90.68151,14.73951,1751.2145],[-90.65133,14.70205,1978.79],[-90.6425,14.67342,2210.7798],[-90.62911,14.65849,2017.0933],[-90.61948,14.64758,1816.3618],[-90.61816,14.64531,1793.6134],[-90.61759,14.63781,1764.0045],[-90.62302,14.61957,1946.8469],[-90.62105,14.60789,1870.6937],[-90.62942,14.59875,1952.1957],[-90.63464,14.58655,2007.6606],[-90.64188,14.50625,1439.2618],[-90.65051,14.46873,1343.4412],[-90.63774,14.43152,1232.0126],[-90.62302,14.41891,1579.252],[-90.6148,14.41623,1692.5688],[-90.60183,14.41654,1831.2997],[-90.59883,14.41612,1894.9462],[-90.59635,14.41509,1835.6389],[-90.59217,14.40181,1992.5841],[-90.58555,14.35039,1424.6168],[-90.58633,14.31727,1248.082],[-90.58317,14.30533,1090.6626],[-90.57103,14.27789,635.2419],[-90.56493,14.25624,521.7882],[-90.53635,14.26621,605.6693],[-90.52863,14.27133,594.8079],[-90.50966,14.28843,698.4628],[-90.49034,14.29737,778.6204],[-90.48243,14.30026,873.717],[-90.47656,14.3015,794.8058],[-90.47401,14.30243,873.7897],[-90.47217,14.30368,852.4252],[-90.46388,14.31349,972.2886],[-90.46078,14.31608,905.0252],[-90.45765,14.31794,921.2313],[-90.45496,14.31887,930.5128],[-90.45264,14.32,896.3156],[-90.45057,14.32145,901.126],[-90.44876,14.32305,903.5413],[-90.44383,14.32858,915.5718],[-90.44241,14.34104,998.7723],[-90.44776,14.38791,1124.1821],[-90.42938,14.43349,1735.7212],[-90.38828,14.49653,1713.9451],[-90.3713,14.50408,1775.4169],[-90.36722,14.50449,1708.0442],[-90.35965,14.50247,1662.0793],[-90.35699,14.49979,1658.833],[-90.35507,14.49679,1582.7891],[-90.35355,14.48475,1404.993],[-90.35267,14.48217,1323.4059],[-90.35153,14.48,1376.0222],[-90.3498,14.47813,1234.0247],[-90.34531,14.47927,1302.1145],[-90.33874,14.4832,1401.3145],[-90.3197,14.5001,1881.2834],[-90.31415,14.50594,1727.3788],[-90.30596,14.50883,1910.687],[-90.29714,14.50883,1945.4595],[-90.28521,14.51431,1797.6865],[-90.28358,14.54521,2089.759],[-90.28273,14.55017,2137.9163],[-90.28102,14.55632,2183.1221],[-90.27709,14.55937,2173.2046],[-90.27467,14.56392,2036.5039],[-90.27208,14.57208,2039.5137],[-90.27162,14.58779,1990.8398],[-90.2658,14.61151,1695.459],[-90.2333,14.63797,1264.0117],[-90.22477,14.64329,1196.7374],[-90.22283,14.64484,1179.1492],[-90.21818,14.65197,1194.266],[-90.20909,14.6743,1004.9193],[-90.21973,14.67776,1346.2794],[-90.23066,14.69011,1556.8796],[-90.23671,14.69507,1633.7675],[-90.25025,14.70169,1543.444],[-90.30849,14.72225,1274.9906],[-90.31787,14.72928,995.4682],[-90.33885,14.75099,870.1812],[-90.34332,14.7592,846.9851],[-90.34427,14.76153,824.0189],[-90.34463,14.76577,836.2374],[-90.34339,14.77042,806.9603],[-90.33936,14.77744,721.0967],[-90.33528,14.78282,903.9269],[-90.33386,14.78421,921.167],[-90.33259,14.78592,817.8527],[-90.33115,14.79408,820.99],[-90.33495,14.81848,893.9249],[-90.34401,14.84359,776.2026],[-90.34859,14.85269,828.9675],[-90.35014,14.85486,877.8209],[-90.3574,14.85734,872.2894],[-90.38024,14.85568,707.3766],[-90.3943,14.85186,660.8229],[-90.40057,14.85124,496.7638],[-90.40675,14.85212,626.049],[-90.40933,14.8531,751.2098],[-90.41145,14.85439,762.5806],[-90.41334,14.85594,723.1779],[-90.41512,14.85816,692.7544],[-90.41659,14.86142,721.2976],[-90.4176,14.86695,732.5298],[-90.4176,14.87088,753.7914],[-90.41476,14.87506,662.439],[-90.41225,14.87765,586.8665],[-90.39993,14.89904,560.5454]]]}}