{"type":"Feature","properties":{"featurecla":"River","scalerank":8,"rivernum":715,"dissolve":"715River","name":"Motagua1","name_alt":null,"note":null,"min_zoom":7.0,"strokeweig":0.2,"name_en":"Motagua","min_label":8.0},
"geometry":{"type": "LineString","coordinates": [[-90.88232421875,14.93915436405662,1368.8162],[-90.868457031249989,14.94147369999412,1446.153],[-90.85302734375,14.94171784061912,1527.5222],[-90.805224609374989,14.928094793744123,1212.7168],[-90.753662109375,14.928094793744123,1017.3576],[-90.73681640625,14.92584869999412,1260.3444],[-90.707373046874991,14.91608307499412,912.4448],[-90.671484374999991,14.90875885624412,1099.6044],[-90.6220703125,14.89118073124412,751.1262],[-90.607226562499989,14.89398834843162,993.8905],[-90.599536132812489,14.88568756718162,805.9352],[-90.59423828125,14.883417059369123,784.2333],[-90.590014648437489,14.88471100468162,851.751],[-90.585498046874989,14.88715241093162,998.8235],[-90.579272460937489,14.88715241093162,1004.1885],[-90.5640625,14.88483307499412,716.4324],[-90.538916015624991,14.88983795780662,773.1626],[-90.513476562499989,14.898700262494117,809.6686],[-90.497363281249989,14.907586981244123,676.1664],[-90.489916992187489,14.907586981244123,835.2649],[-90.485107421875,14.89850494999412,922.842],[-90.477587890624989,14.89411041874412,962.3174],[-90.467871093749991,14.89301178593162,727.8835],[-90.456396484374991,14.89398834843162,884.869],[-90.443164062499989,14.89740631718162,748.1055],[-90.439135742187489,14.902362371869117,590.8342],[-90.436694335937489,14.908075262494123,571.4523],[-90.428466796875,14.913836981244117,585.3077],[-90.412158203124989,14.916864324994123,596.2213],[-90.404394531249991,14.910663153119117,553.837],[-90.3984375,14.899286199994123,613.4586],[-90.3875,14.88715241093162,677.3179],[-90.354418945312489,14.88141510624412,593.0391],[-90.271777343749989,14.894549871869117,669.8851],[-90.242846679687489,14.88031647343162,495.7004],[-90.226318359375,14.88410065311912,382.5873],[-90.172460937499991,14.888299871869123,354.7468],[-90.160937499999989,14.89057037968162,426.9716],[-90.15576171875,14.89423248905662,473.0268],[-90.123706054687489,14.92780182499412,354.5312],[-90.115234375,14.93414948124412,381.9279],[-90.106298828124991,14.93805573124412,370.5979],[-90.0966796875,14.93756744999412,362.2733],[-90.085864257812489,14.930926824994117,590.1868],[-90.070849609374989,14.93927643436912,549.7211],[-90.04345703125,14.943963934369123,719.239],[-89.910400390625,14.94501373905662,375.2023],[-89.89404296875,14.93842194218162,280.7914],[-89.888427734375,14.94843170780662,361.0513],[-89.878588867187489,14.94977448124412,372.6354],[-89.849658203124989,14.945184637494123,368.399],[-89.839648437499989,14.949335028119123,277.0935],[-89.832080078124989,14.957391668744123,427.181],[-89.823828124999991,14.96271393436912,410.9949],[-89.812109374999991,14.958856512494123,255.0467],[-89.798388671874989,14.970233465619117,372.3281],[-89.749853515624991,14.971307684369123,239.5017],[-89.728930664062489,14.98615143436912,241.3658],[-89.722094726562489,14.97931549686912,214.5668],[-89.715917968749991,14.984247137494123,237.1987],[-89.699804687499991,15.00311920780662,237.753],[-89.698535156249989,15.00726959843162,241.548],[-89.674169921874991,15.00958893436912,223.5934],[-89.660009765624991,15.01264069218162,209.1751],[-89.650390625,15.017206121869123,210.8673],[-89.645117187499991,15.020770574994117,226.7081],[-89.626513671874989,15.02777741093162,219.8127],[-89.620361328125,15.03143952030662,220.808],[-89.617431640625,15.035028387494123,216.6972],[-89.615576171874991,15.038202215619123,238.896],[-89.612890624999991,15.040790106244117,301.7165],[-89.5796875,15.05512116093162,225.0757],[-89.5712890625,15.062518621869117,321.8072],[-89.565039062499991,15.062518621869117,235.4748],[-89.562109374999991,15.057977606244123,210.338],[-89.556079101562489,15.05316803593162,203.3839],[-89.551440429687489,15.04828522343162,180.3073],[-89.5400390625,15.06452057499412,204.367],[-89.512451171875,15.081317449994117,230.7394],[-89.412353515625,15.12140534061912,210.5117],[-89.366455078125,15.150653387494117,242.6081],[-89.346362304687489,15.146112371869123,294.0691],[-89.322998046875,15.16120026249412,152.5482],[-89.283935546875,15.19904205936912,229.0592],[-89.258105468749989,15.21112702030662,242.8089],[-89.203710937499991,15.225116278119117,92.9169],[-89.180834960937489,15.237176824994123,90.8668],[-89.174072265625,15.237176824994123,109.6518],[-89.161865234375,15.22467682499412,192.4454],[-89.139404296875,15.229120184369123,111.9077],[-89.084716796875,15.25690338749412,73.3981]]}}