{"type":"Feature","properties":{"GID_2":"GTM.13.13_1","GID_0":"GTM","country":"Guatemala","GID_1":"GTM.13_1","province":"Quezaltenango","NL_NAME_1":"NA","county":"Olintepeque","VARNAME_2":"NA","NL_NAME_2":"NA","TYPE_2":"Municipio","ENGTYPE_2":"Municipality","CC_2":"NA","HASC_2":"NA","name":"Olintepeque.county"},
"geometry":{"type": "MultiPolygon","coordinates": [[[[-91.5489,14.8698,2426.1021],[-91.5443,14.864,2424.0918],[-91.5347,14.8621,2371.8281],[-91.5205,14.8681,2383.4797],[-91.5004,14.8643,2383.0459],[-91.4952,14.8701,2378.8936],[-91.4935,14.8782,2335.9282],[-91.4988,14.8828,2334.7952],[-91.5051,14.8933,2416.7517],[-91.5156,14.9155,2727.8386],[-91.5175,14.9229,2698.1208],[-91.5265,14.9108,2773.9854],[-91.5331,14.905,2814.5085],[-91.5378,14.9041,2794.5227],[-91.5493,14.9114,2846.366],[-91.5594,14.9079,3051.8667],[-91.5724,14.8979,2900.272],[-91.5776,14.8975,2894.5798],[-91.5794,14.8916,2539.6187],[-91.5713,14.891,2638.8628],[-91.567,14.8814,2395.8552],[-91.5621,14.8791,2455.8418],[-91.554,14.879,2447.626],[-91.5511,14.8769,2446.5554],[-91.5489,14.8698,2426.1021]]]]}}