{"type": "Feature","bbox": [-90.6921,14.5547,-90.6319,14.5899],"geometry": {"type": "MultiPolygon","coordinates": [[[[-90.6319,14.563,1752.2991],[-90.6367,14.5652,1861.9211],[-90.6399,14.5698,1848.1384],[-90.6424,14.5786,1873.3716],[-90.6584,14.5826,2026.9847],[-90.6674,14.5899,2131.5271],[-90.6686,14.5873,2160.542],[-90.6715,14.5859,2156.3818],[-90.6836,14.5872,2303.7195],[-90.6829,14.5781,1897.6678],[-90.6921,14.5646,1736.9861],[-90.6921,14.5602,1885.199],[-90.6713,14.5572,1978.8849],[-90.6536,14.5588,1825.0862],[-90.6492,14.5547,1749.723],[-90.644,14.5548,1696.7527],[-90.632,14.5601,1706.4922],[-90.6319,14.563,1752.2991]]]]}
,"properties": {"GID_2": "GTM.16.12_1","GID_0": "GTM","country": "Guatemala","GID_1": "GTM.16_1","province": "Sacatepéquez","NL_NAME_1": "NA","county": "SantaLucíaMilpasAltas","VARNAME_2": "NA","NL_NAME_2": "NA","TYPE_2": "Municipio","ENGTYPE_2": "Municipality","CC_2": "NA","HASC_2": "NA","name": "Santa_Lucía_Milpas_Altas.county","area_km2": 15.55444,"hist_schema_id": "Elevation0-9000","hist_area_km2": {"1650": 0.04104,"1675": 0.08209,"1700": 0.10261,"1725": 0.16417,"1750": 0.24625,"1775": 0.32834,"1800": 0.63615,"1825": 0.90292,"1850": 0.92343,"1875": 1.21071,"1900": 1.08758,"1925": 1.12862,"1950": 2.48298,"1975": 2.77027,"2000": 0.84131,"2025": 0.71819,"2050": 0.65662,"2075": 0.59506,"2100": 0.24623,"2125": 0.14363,"2150": 0.12311,"2175": 0.06156,"2200": 0.02052,"2225": 0.02052,"2250": 0.02052}}}