{"type":"Feature","properties":{"GID_2":"GTM.19.3_1","GID_0":"GTM","country":"Guatemala","GID_1":"GTM.19_1","province":"Sololá","NL_NAME_1":"NA","county":"Nahualá","VARNAME_2":"NA","NL_NAME_2":"NA","TYPE_2":"Municipio","ENGTYPE_2":"Municipality","CC_2":"NA","HASC_2":"NA","name":"Nahualá.county"},
"geometry":{"type": "MultiPolygon","coordinates": [[[[-91.4452,14.7584,3334.1411],[-91.4467,14.7414,3420.8877],[-91.448,14.7401,3470.2441],[-91.4616,14.7385,3113.7756],[-91.4728,14.7248,3245.3906],[-91.4824,14.7205,3216.6384],[-91.4867,14.7155,3092.0122],[-91.4887,14.6848,1977.3474],[-91.4819,14.6604,1381.0935],[-91.4802,14.6374,1081.0244],[-91.4908,14.6261,923.5366],[-91.5066,14.6015,719.2163],[-91.4834,14.5949,704.0027],[-91.4815,14.6026,764.1238],[-91.4531,14.6334,978.7562],[-91.4374,14.6427,1064.9199],[-91.4305,14.6518,1111.2625],[-91.4133,14.6534,978.6093],[-91.4115,14.6549,1005.3994],[-91.4105,14.657,1013.7756],[-91.4144,14.6655,1179.0872],[-91.4214,14.6705,1213.9916],[-91.423,14.6736,1199.0107],[-91.4238,14.6925,1598.0076],[-91.4187,14.7061,1918.7327],[-91.4159,14.7231,2482.5891],[-91.416,14.7262,2562.1594],[-91.4199,14.7297,2476.7158],[-91.4193,14.7383,2674.2078],[-91.4223,14.7482,2619.1653],[-91.3905,14.7841,2810.3306],[-91.3831,14.8027,2646.2234],[-91.3717,14.816,2557.3772],[-91.3644,14.8199,2774.0205],[-91.3598,14.8204,2613.1123],[-91.3512,14.8164,2660.0928],[-91.3462,14.8167,2838.02],[-91.334,14.8264,2556.2756],[-91.3299,14.8268,2521.7673],[-91.3261,14.825,2401.3257],[-91.3227,14.8213,2441.895],[-91.3163,14.8037,2232.4587],[-91.3189,14.7898,2285.8218],[-91.3183,14.7845,2390.0366],[-91.3086,14.7822,2436.9014],[-91.3024,14.7697,2486.5679],[-91.2927,14.774,2512.9397],[-91.2914,14.7801,2489.8057],[-91.3011,14.8003,2559.4875],[-91.3002,14.8041,2693.2856],[-91.2973,14.807,2779.2708],[-91.2754,14.8137,2482.4004],[-91.2641,14.8221,2595.0396],[-91.2594,14.8215,2546.3516],[-91.2519,14.8118,2381.1213],[-91.2346,14.808,2348.1917],[-91.2326,14.8066,2271.9036],[-91.2291,14.7969,2387.3984],[-91.2164,14.7982,2308.6289],[-91.2152,14.8035,2373.126],[-91.2445,14.825,2449.656],[-91.2531,14.8342,2607.0527],[-91.2583,14.8363,2629.2073],[-91.2731,14.8584,2946.897],[-91.2869,14.8588,2929.2275],[-91.2977,14.8676,2910.2776],[-91.3478,14.8644,2970.2808],[-91.3627,14.8512,2987.675],[-91.3629,14.8477,2989.0737],[-91.4036,14.821,3197.6978],[-91.4069,14.8006,3050.3657],[-91.444,14.7637,3302.5735],[-91.4452,14.7584,3334.1411]]]]}}