{"type": "Feature","bbox": [-92.1334,14.7788,-92.0148,14.9003],"geometry": {"type": "MultiPolygon","coordinates": [[[[-92.0751,14.78,88.0776],[-92.0713,14.7788,85.1593],[-92.0723,14.7849,95.3709],[-92.0775,14.7941,104.4541],[-92.0641,14.7891,96.3149],[-92.0569,14.7941,144.2703],[-92.052,14.7944,159.5036],[-92.048,14.7917,123.6903],[-92.0372,14.7995,237.1713],[-92.049,14.8061,166.8012],[-92.0456,14.8171,268.1735],[-92.0463,14.8201,264.7795],[-92.0517,14.8239,194.5014],[-92.0484,14.8315,235.2734],[-92.0369,14.8323,299.8951],[-92.0303,14.841,329.3839],[-92.0285,14.8466,356.1129],[-92.0289,14.864,400.2325],[-92.0334,14.8719,424.4783],[-92.0227,14.8754,449.7469],[-92.0182,14.879,468.1488],[-92.0148,14.891,516.6741],[-92.019,14.9003,521.6716],[-92.044,14.8949,404.0424],[-92.0508,14.8972,328.0385],[-92.0572,14.8972,317.4102],[-92.081,14.8756,251.5217],[-92.0857,14.8701,232.2675],[-92.0884,14.8575,219.6727],[-92.0985,14.847,189.043],[-92.1006,14.8405,178.6708],[-92.1139,14.8181,121.4528],[-92.1334,14.7897,78.4509],[-92.1299,14.7908,79.1633],[-92.1255,14.7979,92.1359],[-92.1191,14.8004,104.8411],[-92.1138,14.7877,94.0548],[-92.105,14.7869,98.8029],[-92.104,14.7883,102.5486],[-92.105,14.7973,114.2127],[-92.0955,14.7942,107.6974],[-92.0751,14.78,88.0776]]]]}
,"properties": {"GID_2": "GTM.17.2_1","GID_0": "GTM","country": "Guatemala","GID_1": "GTM.17_1","province": "SanMarcos","NL_NAME_1": "NA","county": "Catarina","VARNAME_2": "NA","NL_NAME_2": "NA","TYPE_2": "Municipio","ENGTYPE_2": "Municipality","CC_2": "NA","HASC_2": "NA","name": "Catarina.county","area_km2": 81.40632,"hist_schema_id": "Elevation0-9000","hist_area_km2": {"75": 0.328,"100": 7.03125,"125": 10.39254,"150": 8.75231,"175": 7.7681,"200": 6.96845,"225": 5.69751,"250": 5.4719,"275": 5.49223,"300": 5.34861,"325": 4.69272,"350": 3.01234,"375": 2.88929,"400": 2.21305,"425": 2.04907,"450": 1.59825,"475": 0.88108,"500": 0.51226,"525": 0.18441,"550": 0.10245,"575": 0.02049}}}