{"type":"Feature","properties":{"GID_2":"GTM.18.14_1","GID_0":"GTM","country":"Guatemala","GID_1":"GTM.18_1","province":"SantaRosa","NL_NAME_1":"NA","county":"Taxisco","VARNAME_2":"NA","NL_NAME_2":"NA","TYPE_2":"Municipio","ENGTYPE_2":"Municipality","CC_2":"NA","HASC_2":"NA","name":"Taxisco.county"},
"geometry":{"type": "MultiPolygon","coordinates": [[[[-90.6172,14.0138,7.935],[-90.6242,14.0017,7.9932],[-90.6229,13.9215,0.0],[-90.5793,13.9151,2.5718],[-90.5349,13.9057,6.71],[-90.5296,13.9029,0.0],[-90.4999,13.8951,1.3513],[-90.4993,13.8938,1.3513],[-90.4882,13.8915,3.8795],[-90.4737,13.886,2.4804],[-90.4731,13.8918,6.8345],[-90.468,13.9005,7.0033],[-90.4681,13.9069,7.0869],[-90.4655,13.9131,8.9178],[-90.4594,13.9081,7.4064],[-90.4546,13.9087,8.2792],[-90.4454,13.8987,1.5419],[-90.4435,13.9005,2.1976],[-90.4349,13.8959,11.7381],[-90.4336,13.8976,9.6621],[-90.4348,13.9043,5.8167],[-90.4414,13.9109,4.131],[-90.4384,13.9157,6.2563],[-90.4313,13.9155,6.4675],[-90.4175,13.9324,15.8358],[-90.4202,13.9364,18.143],[-90.4325,13.9422,16.3776],[-90.4384,13.9469,15.7661],[-90.4467,13.9598,20.485],[-90.4502,13.9589,16.2739],[-90.4545,13.9642,19.6086],[-90.4627,13.9648,11.361],[-90.4636,13.9792,17.9825],[-90.4658,13.9876,19.6567],[-90.4637,13.9946,26.4899],[-90.4558,13.9968,28.2791],[-90.4512,14.0025,32.0794],[-90.441,14.026,50.9801],[-90.4424,14.0305,55.8242],[-90.4415,14.0356,77.3758],[-90.4372,14.0385,83.8855],[-90.4384,14.0463,112.8755],[-90.4348,14.0568,158.1239],[-90.4358,14.0755,288.5289],[-90.4323,14.0786,312.699],[-90.4355,14.1001,515.7866],[-90.4332,14.1134,689.2324],[-90.446,14.1148,697.6083],[-90.4495,14.1125,673.7142],[-90.4511,14.1141,705.7502],[-90.4468,14.1252,843.2242],[-90.4315,14.132,1029.5878],[-90.4294,14.1299,1030.4358],[-90.4305,14.1177,801.5978],[-90.4157,14.1129,706.5972],[-90.4128,14.1377,1320.6221],[-90.4148,14.1421,1251.472],[-90.4276,14.1473,1644.2334],[-90.4291,14.1519,1823.2329],[-90.429,14.1594,1773.0281],[-90.437,14.1589,1604.6311],[-90.4494,14.1463,1700.8448],[-90.4547,14.1626,1287.0947],[-90.4574,14.1627,1211.4268],[-90.4619,14.1689,1051.8406],[-90.4674,14.1637,1142.7336],[-90.4736,14.1681,961.9139],[-90.4748,14.1713,1068.5472],[-90.4763,14.1719,1153.1531],[-90.4793,14.1697,1032.2388],[-90.486,14.1713,895.915],[-90.4886,14.166,874.0139],[-90.4936,14.1643,888.4011],[-90.497,14.1659,1005.2102],[-90.5006,14.1706,1000.6944],[-90.5061,14.1683,1006.7889],[-90.5168,14.1734,918.489],[-90.5196,14.1722,950.7987],[-90.5238,14.1742,991.8387],[-90.5296,14.1804,1044.8148],[-90.5489,14.1719,642.438],[-90.5666,14.1565,366.5303],[-90.591,14.158,238.2264],[-90.5934,14.1371,175.519],[-90.5665,14.1338,254.2241],[-90.564,14.1258,195.2113],[-90.5551,14.1245,221.7338],[-90.554,14.1222,224.7412],[-90.5546,14.1008,122.8078],[-90.5616,14.0982,86.7123],[-90.5659,14.1005,83.7151],[-90.5747,14.0992,50.4355],[-90.5839,14.0935,28.6617],[-90.5898,14.0919,22.5959],[-90.5919,14.083,25.4651],[-90.5894,14.0787,20.4828],[-90.5903,14.0705,19.8486],[-90.6172,14.0695,16.7296],[-90.6193,14.0168,9.9888],[-90.6172,14.0138,7.935]]]]}}