{"type":"Feature","properties":{"GID_2":"GTM.1.7_1","GID_0":"GTM","country":"Guatemala","GID_1":"GTM.1_1","province":"AltaVerapaz","NL_NAME_1":"NA","county":"SanCristóbalVerapaz","VARNAME_2":"NA","NL_NAME_2":"NA","TYPE_2":"Municipio","ENGTYPE_2":"Municipality","CC_2":"NA","HASC_2":"NA","name":"San_Cristóbal_Verapaz.county"},
"geometry":{"type": "MultiPolygon","coordinates": [[[[-90.6031,15.507,388.7356],[-90.6084,15.4975,472.386],[-90.6163,15.498,419.6889],[-90.625,15.4855,661.6917],[-90.634,15.4827,717.2682],[-90.646,15.4637,801.0117],[-90.6459,15.4455,680.7169],[-90.6552,15.4337,1062.6815],[-90.6629,15.4314,886.9447],[-90.6674,15.4353,543.7993],[-90.672,15.4367,589.4436],[-90.6992,15.4405,523.8611],[-90.6993,15.4376,670.2936],[-90.704,15.429,1125.8789],[-90.7116,15.4204,902.8625],[-90.7127,15.4141,646.5295],[-90.7094,15.4119,767.415],[-90.7115,15.4008,740.6427],[-90.708,15.3838,637.1313],[-90.7029,15.3805,691.7358],[-90.7021,15.3773,566.6108],[-90.6942,15.3719,755.1345],[-90.6913,15.3632,771.3132],[-90.6798,15.359,656.8081],[-90.6745,15.3593,619.4191],[-90.6661,15.3542,835.1277],[-90.6559,15.3548,587.5032],[-90.6455,15.3469,845.4229],[-90.6244,15.3459,627.0426],[-90.6084,15.3399,952.9136],[-90.6018,15.3408,746.213],[-90.5955,15.3394,887.1432],[-90.5933,15.3421,718.5914],[-90.5864,15.3409,803.3554],[-90.5821,15.3426,686.7762],[-90.5764,15.3401,884.7673],[-90.5679,15.3395,777.813],[-90.5633,15.3412,644.0347],[-90.5561,15.3372,806.4232],[-90.552,15.3389,743.7488],[-90.5449,15.3378,805.1891],[-90.5291,15.3394,747.0662],[-90.5107,15.3355,720.0165],[-90.5053,15.3306,828.422],[-90.4994,15.3326,729.5953],[-90.4802,15.3221,878.0152],[-90.4759,15.3019,877.0857],[-90.4838,15.2898,1044.3302],[-90.4849,15.2832,1252.8912],[-90.4755,15.2843,1467.894],[-90.455,15.2811,1480.053],[-90.4463,15.2823,1424.127],[-90.4422,15.2996,1902.3555],[-90.444,15.3238,1591.0374],[-90.4415,15.3281,1521.2444],[-90.4403,15.326,1551.2737],[-90.4375,15.3293,1500.6395],[-90.4441,15.3536,1423.8423],[-90.4492,15.3515,1469.1826],[-90.448,15.3562,1441.9233],[-90.4491,15.3744,1384.6292],[-90.4319,15.3917,1452.479],[-90.4277,15.3992,1445.6428],[-90.428,15.4011,1474.2922],[-90.4329,15.403,1457.522],[-90.4384,15.4103,1439.3649],[-90.4804,15.4199,1526.7101],[-90.4815,15.4253,1606.8499],[-90.4792,15.4295,1553.6624],[-90.4782,15.4431,1766.1804],[-90.4614,15.4595,1480.947],[-90.4591,15.4636,1389.8748],[-90.4591,15.4675,1451.0917],[-90.4622,15.4668,1442.5234],[-90.47,15.4715,1532.2657],[-90.471,15.4748,1624.3224],[-90.473,15.4754,1648.3463],[-90.4792,15.4719,1687.0035],[-90.5112,15.4782,1799.1187],[-90.5139,15.4872,1598.8708],[-90.5162,15.4876,1557.4418],[-90.5287,15.4785,1692.092],[-90.5352,15.4776,1546.9478],[-90.5459,15.4804,1442.9353],[-90.5653,15.4917,736.2311],[-90.5685,15.492,642.5579],[-90.5758,15.4891,640.4785],[-90.6031,15.507,388.7356]]]]}}