{"type": "Feature","bbox": [-91.784,14.1257,-91.5646,14.6225],"geometry": {"type": "MultiPolygon","coordinates": [[[[-91.7831,14.1924,3.6109],[-91.7779,14.1951,5.0215],[-91.7787,14.1924,4.2029],[-91.784,14.1904,3.268],[-91.7832,14.189,3.268],[-91.7482,14.1732,0.0],[-91.7446,14.1743,0.4808],[-91.7438,14.171,2.0822],[-91.7407,14.1687,1.6008],[-91.7379,14.1693,4.3716],[-91.7363,14.1682,4.5894],[-91.7368,14.1662,2.0859],[-91.7312,14.1629,0.0],[-91.7299,14.1629,2.6245],[-91.7304,14.1649,3.0],[-91.7285,14.1646,7.2739],[-91.729,14.1621,3.7793],[-91.724,14.1593,1.5056],[-91.7226,14.1613,5.0173],[-91.7179,14.1596,2.3893],[-91.7174,14.1585,2.8959],[-91.7199,14.1587,1.6996],[-91.7204,14.1571,1.6996],[-91.7018,14.1451,1.7463],[-91.699,14.1454,4.0461],[-91.6979,14.1429,2.8202],[-91.6926,14.1418,4.087],[-91.6918,14.1388,4.193],[-91.6746,14.1279,2.6189],[-91.6707,14.1288,11.2391],[-91.6663,14.1257,4.5519],[-91.6642,14.1276,8.1307],[-91.6638,14.1321,3.4624],[-91.6678,14.1353,6.65],[-91.6674,14.1382,4.122],[-91.6577,14.1497,6.4391],[-91.658,14.1528,7.695],[-91.6545,14.1561,4.0747],[-91.6558,14.1591,3.5955],[-91.6529,14.1619,7.213],[-91.6498,14.1694,6.7682],[-91.6465,14.1693,8.1599],[-91.6441,14.1736,9.3435],[-91.648,14.1747,8.3675],[-91.645,14.1786,11.3431],[-91.6474,14.1796,16.5702],[-91.6467,14.1815,11.1126],[-91.6435,14.1829,9.3042],[-91.6442,14.1917,8.7711],[-91.6392,14.1947,10.468],[-91.636,14.1945,12.8966],[-91.6359,14.1978,10.5973],[-91.628,14.2042,10.8663],[-91.6235,14.2165,12.9605],[-91.6234,14.2205,15.0496],[-91.6251,14.2214,13.1124],[-91.6229,14.2343,16.5805],[-91.6252,14.2382,16.8767],[-91.6235,14.2431,18.0405],[-91.6269,14.2439,28.7982],[-91.6257,14.2559,25.2261],[-91.6273,14.2607,39.5705],[-91.6256,14.2626,19.9527],[-91.625,14.2688,28.9439],[-91.6231,14.2707,22.2453],[-91.6239,14.2737,23.081],[-91.6205,14.2731,22.0889],[-91.6222,14.2757,33.2357],[-91.6199,14.2791,22.7451],[-91.6215,14.2813,33.851],[-91.6205,14.2843,33.851],[-91.6159,14.2862,25.0615],[-91.6172,14.2903,33.1103],[-91.6161,14.2912,45.2182],[-91.6138,14.2893,33.2709],[-91.6118,14.2989,57.1663],[-91.6089,14.2998,33.4805],[-91.6087,14.3022,42.7146],[-91.6124,14.3056,58.3629],[-91.6088,14.3094,39.6988],[-91.6088,14.3121,45.2628],[-91.6064,14.313,37.1399],[-91.6063,14.3166,61.6616],[-91.6026,14.3169,43.7745],[-91.5964,14.3225,43.379],[-91.5991,14.3269,53.2903],[-91.5966,14.3292,41.4092],[-91.5971,14.3321,45.9235],[-91.5946,14.3373,69.7206],[-91.5913,14.3376,42.5061],[-91.5904,14.3394,46.6353],[-91.5937,14.341,46.0872],[-91.5964,14.3404,58.3721],[-91.6005,14.3431,69.415],[-91.6005,14.3472,62.3467],[-91.5979,14.3496,59.6652],[-91.6015,14.3547,76.8364],[-91.601,14.3572,78.7338],[-91.5983,14.3595,57.1776],[-91.5995,14.3611,83.741],[-91.5934,14.3767,79.257],[-91.5977,14.3872,91.0807],[-91.5901,14.3963,99.3568],[-91.5916,14.3977,100.0009],[-91.5911,14.4004,91.9975],[-91.5875,14.4035,96.5666],[-91.5852,14.4184,123.5215],[-91.5873,14.426,132.0344],[-91.5854,14.428,134.5317],[-91.582,14.4519,159.4229],[-91.584,14.4584,165.2919],[-91.5838,14.4777,198.7405],[-91.5818,14.4858,213.6372],[-91.5841,14.4882,218.8768],[-91.5854,14.5152,269.7838],[-91.591,14.5368,322.569],[-91.581,14.5573,390.6927],[-91.5801,14.5676,434.4911],[-91.573,14.5818,498.9909],[-91.5721,14.5971,577.5318],[-91.5706,14.6041,613.0089],[-91.566,14.6105,667.8101],[-91.5646,14.6225,721.1575],[-91.5713,14.618,695.9305],[-91.5903,14.5968,528.8281],[-91.5969,14.5768,428.6365],[-91.5991,14.5526,363.8715],[-91.6067,14.5369,299.1872],[-91.6171,14.5254,268.9774],[-91.6216,14.4968,207.1902],[-91.6248,14.4927,202.8072],[-91.6239,14.4883,200.4662],[-91.6254,14.4838,191.6778],[-91.6291,14.4804,184.1952],[-91.6329,14.4704,171.5802],[-91.6374,14.4524,161.0608],[-91.6542,14.4321,125.1389],[-91.6581,14.4297,109.9175],[-91.6595,14.4139,119.9019],[-91.6622,14.4096,106.4541],[-91.6714,14.4037,89.0458],[-91.6733,14.4,92.3766],[-91.6818,14.392,92.2419],[-91.6794,14.3874,85.3372],[-91.6805,14.3758,80.4259],[-91.6768,14.3734,75.0094],[-91.6859,14.3465,64.0258],[-91.7013,14.3225,50.5655],[-91.7109,14.3112,43.6283],[-91.7323,14.2958,36.7613],[-91.7397,14.2787,30.6102],[-91.7538,14.261,25.4147],[-91.7551,14.2615,25.4147],[-91.7532,14.2494,17.9794],[-91.7593,14.2398,17.98],[-91.7537,14.2246,14.917],[-91.7566,14.2181,13.7215],[-91.7762,14.2018,5.9862],[-91.7831,14.1924,3.6109]]]]}
,"properties": {"GID_2": "GTM.15.5_1","GID_0": "GTM","country": "Guatemala","GID_1": "GTM.15_1","province": "Retalhuleu","NL_NAME_1": "NA","county": "SanAndrésVillaSeca","VARNAME_2": "NA","NL_NAME_2": "NA","TYPE_2": "Municipio","ENGTYPE_2": "Municipality","CC_2": "NA","HASC_2": "NA","name": "San_Andrés_Villa_Seca.county","area_km2": 433.6006,"hist_schema_id": "Elevation0-9000","hist_area_km2": {"0": 69.0486,"25": 116.628,"50": 76.901,"75": 47.7361,"100": 33.7624,"125": 22.0535,"150": 13.0994,"175": 11.9896,"200": 7.4929,"225": 5.5834,"250": 6.1578,"275": 4.2692,"300": 2.3192,"325": 1.6419,"350": 1.2519,"375": 1.4365,"400": 1.6212,"425": 1.4364,"450": 1.3953,"475": 1.2517,"500": 1.1696,"525": 1.1901,"550": 0.8823,"575": 0.8412,"600": 0.7386,"625": 0.4309,"650": 0.5129,"675": 0.4719,"700": 0.2462,"725": 0.041}}}