{"type": "Feature","bbox": [-91.6282,15.134,-91.3682,15.3424],"geometry": {"type": "MultiPolygon","coordinates": [[[[-91.5269,15.3424,1861.1746],[-91.5471,15.335,1917.6013],[-91.5515,15.3315,2052.6619],[-91.5714,15.322,1978.3683],[-91.5804,15.3255,1946.1259],[-91.593,15.3153,2249.6707],[-91.6051,15.3129,2220.7981],[-91.608,15.3046,2373.3528],[-91.6059,15.2995,2269.6958],[-91.6063,15.2952,2128.6301],[-91.6142,15.286,2095.3352],[-91.6282,15.2425,1747.3718],[-91.6227,15.2345,1671.405],[-91.5805,15.2333,2002.6521],[-91.5692,15.2244,2194.0305],[-91.52,15.2056,1879.7032],[-91.5115,15.1455,2084.0],[-91.4662,15.134,2031.7045],[-91.3882,15.1373,1767.527],[-91.3815,15.2107,1612.1967],[-91.3721,15.2126,1660.4978],[-91.3714,15.2483,1852.1357],[-91.3756,15.2562,2026.0173],[-91.3695,15.2678,2086.5112],[-91.3682,15.2794,1927.0873],[-91.3761,15.2862,1909.7139],[-91.3846,15.2996,1932.8522],[-91.3811,15.304,2048.418],[-91.3802,15.3118,2212.4045],[-91.3869,15.3208,2167.4556],[-91.4007,15.3255,2113.7849],[-91.4144,15.3255,2077.1216],[-91.4453,15.3313,2021.0269],[-91.461,15.3318,1963.5454],[-91.4691,15.329,1929.6331],[-91.4944,15.3333,1869.9851],[-91.5123,15.3336,1862.5601],[-91.5269,15.3424,1861.1746]]]]}
,"properties": {"GID_2": "GTM.8.10_1","GID_0": "GTM","country": "Guatemala","GID_1": "GTM.8_1","province": "Huehuetenango","NL_NAME_1": "NA","county": "Malacatancito","VARNAME_2": "NA","NL_NAME_2": "NA","TYPE_2": "Municipio","ENGTYPE_2": "Municipality","CC_2": "NA","HASC_2": "NA","name": "Malacatancito.county","area_km2": 438.2297,"hist_schema_id": "Elevation0-9000","hist_area_km2": {"1575": 0.0409,"1600": 0.7774,"1625": 1.7798,"1650": 2.9869,"1675": 6.7306,"1700": 12.6837,"1725": 17.8187,"1750": 21.6449,"1775": 23.0775,"1800": 22.1165,"1825": 24.919,"1850": 29.3572,"1875": 42.178,"1900": 27.5554,"1925": 23.7501,"1950": 21.0701,"1975": 18.6967,"2000": 16.5897,"2025": 20.904,"2050": 16.67,"2075": 18.0197,"2100": 17.9582,"2125": 10.5539,"2150": 9.7558,"2175": 10.1031,"2200": 7.1171,"2225": 5.5218,"2250": 3.5584,"2275": 1.4315,"2300": 1.2066,"2325": 0.6135,"2350": 0.4908,"2375": 0.2863,"2400": 0.184,"2425": 0.0818}}}