{"type": "Feature","bbox": [-89.6926,14.3848,-89.4938,14.5633],"geometry": {"type": "MultiPolygon","coordinates": [[[[-89.4976,14.4062,539.6552],[-89.5039,14.4124,573.9727],[-89.5151,14.4353,529.79],[-89.5014,14.4436,558.4025],[-89.4964,14.4484,602.412],[-89.4948,14.4576,609.1358],[-89.4964,14.461,571.1056],[-89.4938,14.4699,594.8177],[-89.497,14.476,601.0816],[-89.4953,14.4777,653.6097],[-89.4951,14.4825,630.1589],[-89.5089,14.4917,611.1494],[-89.5035,14.4971,638.0262],[-89.516,14.5016,678.2175],[-89.5137,14.5087,705.4799],[-89.5188,14.5142,693.3385],[-89.6198,14.5114,889.0947],[-89.6149,14.5514,1081.2092],[-89.6396,14.5633,1589.5098],[-89.6771,14.5364,870.8611],[-89.6711,14.5259,875.0772],[-89.6693,14.5186,879.7045],[-89.6926,14.5075,852.0551],[-89.6902,14.4895,908.3827],[-89.6881,14.4874,907.7777],[-89.6884,14.4789,934.976],[-89.6807,14.4706,986.9937],[-89.6771,14.4481,1005.7457],[-89.6701,14.4384,970.3536],[-89.6716,14.4288,1023.2191],[-89.6659,14.4263,968.1225],[-89.6563,14.4264,887.9224],[-89.6546,14.4236,880.7749],[-89.6436,14.4196,893.4457],[-89.6198,14.4181,847.76],[-89.6148,14.4122,787.6255],[-89.6189,14.4091,779.0089],[-89.6156,14.4029,720.9166],[-89.6127,14.4033,713.6404],[-89.6058,14.3941,666.5444],[-89.6036,14.3948,670.5538],[-89.6012,14.3861,628.1657],[-89.5968,14.3848,606.6246],[-89.5735,14.396,677.0476],[-89.5722,14.4115,744.4742],[-89.5677,14.4202,652.2073],[-89.535,14.4212,639.3741],[-89.5365,14.4171,610.6377],[-89.5263,14.4006,604.5764],[-89.5306,14.3888,496.7667],[-89.5227,14.3864,494.8503],[-89.5209,14.3886,477.401],[-89.5152,14.3883,500.2315],[-89.509,14.3968,565.8676],[-89.4976,14.4062,539.6552]]]]}
,"properties": {"GID_2": "GTM.11.1_1","GID_0": "GTM","country": "Guatemala","GID_1": "GTM.11_1","province": "Jutiapa","NL_NAME_1": "NA","county": "AguaBlanca","VARNAME_2": "NA","NL_NAME_2": "NA","TYPE_2": "Municipio","ENGTYPE_2": "Municipality","CC_2": "NA","HASC_2": "NA","name": "Agua_Blanca.county","area_km2": 247.6911,"hist_schema_id": "Elevation0-9000","hist_area_km2": {"475": 0.534,"500": 2.3,"525": 2.4026,"550": 3.1005,"575": 3.7574,"600": 4.5785,"625": 6.1799,"650": 9.4854,"675": 10.7584,"700": 9.8961,"725": 8.9106,"750": 7.5144,"775": 6.3236,"800": 8.4383,"825": 8.0482,"850": 13.3045,"875": 22.4386,"900": 36.9514,"925": 22.4587,"950": 16.5669,"975": 11.6809,"1000": 7.9446,"1025": 5.2552,"1050": 3.4898,"1075": 2.5659,"1100": 1.7447,"1125": 2.0115,"1150": 1.4367,"1175": 1.0467,"1200": 0.6567,"1225": 0.6362,"1250": 0.5336,"1275": 0.5746,"1300": 0.4104,"1325": 0.3078,"1350": 0.3078,"1375": 0.3078,"1400": 0.2052,"1425": 0.1847,"1450": 0.2668,"1475": 0.1847,"1500": 0.7593,"1525": 0.2463,"1550": 0.2873,"1575": 0.2873,"1600": 0.2873,"1625": 0.1026,"1650": 0.0205}}}