{"type": "Feature","id": "1959","bbox": [-89.66137,15.07128,-88.22092,15.96963],"geometry": {"type": "Polygon","coordinates": [[[-88.22092,15.72565,0.0],[-88.22094,15.72565,0.0],[-88.22155,15.7259,0.0],[-88.25634,15.74038,0.0],[-88.3004,15.77782,0.0],[-88.31102,15.78242,0.0],[-88.34484,15.81196,0.0],[-88.44791,15.85871,0.9107],[-88.50023,15.90107,0.0],[-88.52123,15.91275,5.4349],[-88.55028,15.94233,1.3491],[-88.56184,15.94904,0.0],[-88.5902,15.961,3.3708],[-88.60546,15.96963,0.0],[-88.61986,15.95327,0.0],[-88.60757,15.93842,19.478],[-88.56452,15.91498,11.3703],[-88.55769,15.90656,17.5569],[-88.55101,15.89517,0.0],[-88.54328,15.88516,16.3449],[-88.52481,15.87702,16.5802],[-88.51195,15.86758,0.0],[-88.48884,15.84675,17.4298],[-88.50304,15.84138,0.0],[-88.53213,15.84683,0.0],[-88.54406,15.83926,15.8848],[-88.55028,15.83926,2.529],[-88.55065,15.84247,9.1051],[-88.55028,15.85293,0.0],[-88.55769,15.85293,0.0],[-88.55671,15.83735,21.6991],[-88.54906,15.81367,8.8617],[-88.55028,15.79829,14.3265],[-88.55606,15.7895,12.1339],[-88.5655,15.78095,6.1334],[-88.57433,15.76996,6.9652],[-88.5782,15.75389,0.5552],[-88.58218,15.74502,10.6485],[-88.59118,15.74356,0.0],[-88.60045,15.74457,0.0],[-88.60546,15.74307,0.0],[-88.60558,15.73554,0.0],[-88.60237,15.7309,3.2935],[-88.59899,15.72736,5.1106],[-88.5987,15.72321,4.5033],[-88.59634,15.72215,6.0784],[-88.5952,15.71467,0.9374],[-88.59838,15.70612,8.4718],[-88.60924,15.70209,0.0],[-88.63622,15.70209,0.0],[-88.6383,15.70881,0.0],[-88.62597,15.75389,0.0],[-88.7268,15.81517,15.9956],[-88.7495,15.81879,0.0],[-88.75329,15.83979,0.0],[-88.78734,15.85908,0.0],[-88.83161,15.86864,19.3033],[-88.8662,15.86034,10.059],[-88.90001,15.88784,0.0],[-88.91397,15.89395,4.5045],[-88.95188,15.87965,61.5567],[-89.04032,15.90172,15.9813],[-89.07239,15.90151,19.0894],[-89.10091,15.89681,2.0562],[-89.17745,15.90027,10.1937],[-89.19577,15.89293,1.3848],[-89.20483,15.89242,2.7697],[-89.21654,15.88864,5.2421],[-89.226,15.88404,6.0736],[-89.22824,15.88084,5.6443],[-89.23651,15.89391,163.3966],[-89.23602,15.90649,5.0599],[-89.23669,15.90709,5.6921],[-89.23742,15.90774,5.5582],[-89.24253,15.91151,11.5881],[-89.26599,15.91474,86.428],[-89.358,15.91293,97.4826],[-89.36953,15.90161,130.541],[-89.37593,15.88523,94.0913],[-89.37777,15.87831,86.029],[-89.37896,15.875,86.3026],[-89.38066,15.87164,82.2157],[-89.38459,15.86789,88.679],[-89.39635,15.86128,87.5881],[-89.42376,15.8258,89.3148],[-89.43397,15.81795,89.5956],[-89.45332,15.81604,104.5749],[-89.45686,15.81428,105.5139],[-89.45931,15.81232,130.3154],[-89.46438,15.80325,223.6625],[-89.46536,15.80059,188.9365],[-89.47753,15.77919,151.9919],[-89.48141,15.77428,145.5459],[-89.48495,15.7716,156.4822],[-89.49538,15.767,178.2509],[-89.5121,15.7556,224.1397],[-89.5173,15.75312,191.9476],[-89.52766,15.75002,209.1629],[-89.53063,15.74795,224.5025],[-89.53269,15.74545,200.5541],[-89.53492,15.74043,157.5706],[-89.59791,15.65463,559.2566],[-89.65403,15.57771,483.0147],[-89.66137,15.56089,237.2818],[-89.65863,15.56011,248.2176],[-89.65419,15.55753,128.0481],[-89.65222,15.5559,145.5627],[-89.65021,15.55375,186.8303],[-89.64876,15.55202,115.911],[-89.64496,15.54595,121.9913],[-89.62284,15.52295,71.5511],[-89.61496,15.51148,147.0264],[-89.6062,15.50215,247.0894],[-89.5931,15.49055,38.6607],[-89.58956,15.4851,28.6634],[-89.58814,15.48123,235.0689],[-89.59631,15.46849,322.3539],[-89.59755,15.46614,235.0062],[-89.59941,15.46107,505.2755],[-89.6023,15.44999,148.4785],[-89.60465,15.44526,39.8362],[-89.60602,15.44327,32.4808],[-89.60775,15.44123,28.0524],[-89.60959,15.43952,26.4655],[-89.61166,15.43802,25.1101],[-89.63062,15.42924,76.9751],[-89.63667,15.42477,64.0117],[-89.6383,15.42291,50.6601],[-89.64726,15.30571,29.3727],[-89.64705,15.29069,147.1013],[-89.6462,15.28726,150.2092],[-89.64209,15.27762,413.0941],[-89.63972,15.27325,343.1828],[-89.63305,15.26439,671.7261],[-89.62739,15.25486,543.0007],[-89.62654,15.2507,624.9442],[-89.62662,15.24556,665.2618],[-89.62979,15.22907,899.8096],[-89.63005,15.22359,971.3292],[-89.62979,15.21925,1043.5647],[-89.62788,15.21406,1307.7009],[-89.62344,15.20465,1276.8054],[-89.60551,15.1799,1934.2354],[-89.56466,15.18455,2222.0483],[-89.5498,15.18776,1524.1426],[-89.43131,15.22638,1336.0284],[-89.31428,15.27212,1142.2195],[-89.28819,15.29106,890.1329],[-89.27372,15.29803,742.4661],[-89.25052,15.30289,761.4184],[-89.21987,15.29994,377.7961],[-89.20987,15.29762,250.1019],[-89.18659,15.28535,715.3618],[-89.18372,15.28349,645.7032],[-89.18052,15.28077,515.7964],[-89.17556,15.27561,383.6187],[-89.17321,15.27217,466.2514],[-89.17161,15.26904,631.7092],[-89.17083,15.26625,368.5978],[-89.17037,15.25987,170.9184],[-89.17259,15.23483,95.3298],[-89.17375,15.22832,88.6189],[-89.17463,15.22607,88.6629],[-89.17711,15.2216,86.3668],[-89.17879,15.21959,97.1567],[-89.18057,15.21801,136.2898],[-89.18468,15.21525,186.5304],[-89.19721,15.21039,214.7084],[-89.1983,15.20633,286.7056],[-89.19819,15.19969,176.9305],[-89.19039,15.16791,196.2842],[-89.19003,15.16171,173.9066],[-89.19065,15.1521,187.7784],[-89.18915,15.13639,332.7274],[-89.18321,15.10817,349.6742],[-89.18124,15.10259,406.9928],[-89.16179,15.07986,433.6278],[-89.15742,15.07686,437.754],[-89.15019,15.07376,572.2968],[-89.14747,15.07169,602.038],[-89.14694,15.07128,602.038],[-89.14052,15.07639,744.5867],[-89.10983,15.09146,883.0303],[-89.00828,15.1244,444.2873],[-88.97343,15.14039,165.2739],[-88.84703,15.2353,1114.6899],[-88.7609,15.29996,703.9159],[-88.6742,15.36506,1092.6462],[-88.58738,15.4303,924.6388],[-88.50002,15.4959,663.3613],[-88.50002,15.49595,663.3613],[-88.46743,15.52074,518.4139],[-88.39899,15.5728,19.1518],[-88.35256,15.6169,5.9963],[-88.3223,15.66726,4.6295],[-88.31667,15.6746,3.7046],[-88.29559,15.67501,4.4854],[-88.2797,15.68075,4.32],[-88.265,15.6886,3.285],[-88.24776,15.69568,1.4735],[-88.24159,15.68824,2.0245],[-88.23492,15.70158,3.5487],[-88.23575,15.71243,1.5111],[-88.23262,15.72142,1.3111],[-88.22092,15.72565,0.0]]]}
,"properties": {"ISO3166-1-Alpha-3": "GTM","country": "Guatemala","fill": "#FF0","name": "Izabal","area_km2": 8666.665,"hist_schema_id": "Elevation0-9000","hist_area_km2": {"0": 2193.441,"25": 1094.44,"50": 769.61,"75": 498.474,"100": 294.271,"125": 224.539,"150": 222.29,"175": 191.303,"200": 169.985,"225": 160.496,"250": 155.309,"275": 147.326,"300": 144.623,"325": 144.499,"350": 138.333,"375": 130.333,"400": 121.757,"425": 114.346,"450": 106.399,"475": 99.372,"500": 97.763,"525": 98.605,"550": 97.521,"575": 95.699,"600": 95.573,"625": 96.102,"650": 95.507,"675": 88.038,"700": 79.926,"725": 75.7,"750": 70.632,"775": 61.195,"800": 58.232,"825": 50.1,"850": 46.546,"875": 43.256,"900": 37.476,"925": 30.736,"950": 26.08,"975": 22.831,"1000": 19.971,"1025": 15.497,"1050": 14.107,"1075": 12.575,"1100": 11.063,"1125": 9.243,"1150": 9.141,"1175": 7.607,"1200": 7.832,"1225": 6.667,"1250": 6.3,"1275": 5.482,"1300": 4.971,"1325": 4.685,"1350": 4.705,"1375": 4.439,"1400": 3.867,"1425": 3.682,"1450": 3.376,"1475": 2.864,"1500": 2.455,"1525": 2.107,"1550": 1.8,"1575": 1.698,"1600": 1.718,"1625": 1.453,"1650": 1.248,"1675": 1.248,"1700": 1.412,"1725": 0.941,"1750": 0.593,"1775": 0.491,"1800": 0.573,"1825": 0.246,"1850": 0.327,"1875": 0.225,"1900": 0.164,"1925": 0.205,"1950": 0.123,"1975": 0.143,"2000": 0.164,"2100": 0.184}}}