{"type": "Feature","bbox": [-89.6615,15.0703,-88.2257,15.9665],"geometry": {"type": "MultiPolygon","coordinates": [[[[-88.8824,15.2095,1184.6716],[-88.8262,15.2552,602.1324],[-88.8182,15.2571,508.9272],[-88.7982,15.2673,431.8242],[-88.6838,15.3349,988.424],[-88.6849,15.3363,1033.8336],[-88.6418,15.3715,725.5755],[-88.6015,15.4126,1055.3496],[-88.5827,15.4244,996.3629],[-88.5782,15.4222,1022.192],[-88.5682,15.4275,929.2911],[-88.541,15.4531,966.9798],[-88.4131,15.5596,167.7998],[-88.3548,15.604,7.8357],[-88.3287,15.6351,6.7197],[-88.3175,15.6538,3.4839],[-88.3192,15.6592,4.2],[-88.3188,15.6695,2.8958],[-88.312,15.672,5.3191],[-88.3079,15.6792,5.7202],[-88.3004,15.6704,4.354],[-88.2811,15.6753,3.523],[-88.2739,15.6826,4.7769],[-88.2688,15.6839,2.1029],[-88.2609,15.6826,5.2498],[-88.2561,15.6839,1.3159],[-88.2507,15.6887,2.595],[-88.2484,15.6878,2.5633],[-88.2427,15.691,2.8022],[-88.2426,15.6949,4.6839],[-88.239,15.6962,2.4462],[-88.2383,15.7116,4.6443],[-88.245,15.7205,4.1677],[-88.226,15.723,0.6847],[-88.2343,15.7238,0.2538],[-88.2379,15.7221,0.3087],[-88.2343,15.7246,0.2538],[-88.229,15.7246,0.0],[-88.2504,15.7299,0.3195],[-88.2626,15.7365,3.9214],[-88.2701,15.7415,0.5665],[-88.2693,15.7429,0.1385],[-88.289,15.759,1.8148],[-88.294,15.7654,0.0],[-88.306,15.7732,1.8782],[-88.3076,15.7749,1.4598],[-88.3071,15.7774,0.0],[-88.3121,15.781,0.0],[-88.3821,15.8232,0.7563],[-88.3957,15.8279,4.608],[-88.4015,15.8318,2.1523],[-88.4054,15.8321,0.543],[-88.4057,15.8343,0.0],[-88.4362,15.8493,1.4557],[-88.4376,15.8515,0.4983],[-88.4926,15.8885,5.3362],[-88.5085,15.9018,3.4759],[-88.539,15.9332,0.0],[-88.5546,15.946,0.0],[-88.5829,15.9607,1.2916],[-88.599,15.9649,1.1637],[-88.6146,15.9665,3.3466],[-88.6224,15.9643,0.4215],[-88.6185,15.9479,0.0],[-88.6143,15.9396,0.0],[-88.6085,15.934,3.2259],[-88.5976,15.9338,6.8692],[-88.5882,15.9218,0.0],[-88.5765,15.9204,0.0],[-88.5749,15.9171,0.0],[-88.564,15.9113,9.5471],[-88.5601,15.9015,0.7129],[-88.549,15.8924,0.0],[-88.5479,15.8776,0.0],[-88.5443,15.866,0.6382],[-88.541,15.8665,1.6477],[-88.5437,15.8693,2.3662],[-88.5418,15.8715,1.7291],[-88.5418,15.8743,0.0],[-88.5449,15.874,0.0],[-88.5471,15.8807,6.0457],[-88.5404,15.8754,0.0],[-88.534,15.8765,0.0],[-88.5246,15.8724,6.0717],[-88.5107,15.8699,10.4393],[-88.511,15.8571,0.7076],[-88.509,15.8557,1.3118],[-88.5035,15.8565,1.3733],[-88.4965,15.8549,0.0],[-88.4918,15.8504,5.4122],[-88.4926,15.8424,1.0372],[-88.4949,15.8382,9.3188],[-88.4999,15.8354,4.5589],[-88.5026,15.8399,1.7745],[-88.5049,15.8396,0.0],[-88.5021,15.834,6.095],[-88.499,15.8321,3.0272],[-88.4715,15.8338,11.4121],[-88.4687,15.8293,6.8126],[-88.4707,15.8218,5.9906],[-88.4776,15.8215,5.9021],[-88.4821,15.8251,5.6827],[-88.4726,15.8299,5.4705],[-88.4721,15.8332,6.9175],[-88.4993,15.8307,1.6398],[-88.5043,15.8335,3.418],[-88.5062,15.8371,0.0],[-88.5226,15.8415,0.0],[-88.5304,15.8415,4.7704],[-88.5379,15.8474,0.0],[-88.5437,15.8493,0.0],[-88.5471,15.8457,4.9261],[-88.5468,15.8418,6.3622],[-88.5524,15.8374,6.8683],[-88.5496,15.8432,1.9654],[-88.5537,15.8451,3.718],[-88.5604,15.8526,8.4566],[-88.5604,15.8551,5.3447],[-88.5624,15.8571,0.9917],[-88.5604,15.8601,0.0],[-88.5612,15.861,0.0],[-88.5626,15.859,0.0],[-88.5643,15.8538,0.0],[-88.5646,15.8276,0.0],[-88.5621,15.8215,1.9878],[-88.5576,15.8193,0.0],[-88.5565,15.821,4.5798],[-88.5579,15.8251,7.6418],[-88.5629,15.8296,6.7337],[-88.5599,15.8299,6.8831],[-88.5546,15.8196,1.814],[-88.5543,15.8124,0.0],[-88.5626,15.7932,0.4877],[-88.5663,15.7893,0.0],[-88.5685,15.7821,0.0],[-88.5846,15.7618,0.0],[-88.5846,15.759,0.0],[-88.581,15.7557,2.4989],[-88.579,15.7562,1.689],[-88.5793,15.7604,0.0],[-88.5757,15.7593,0.0],[-88.5796,15.7501,4.1012],[-88.5882,15.7421,0.0],[-88.5921,15.7415,1.2505],[-88.596,15.7432,0.6943],[-88.6012,15.7415,1.9081],[-88.6021,15.7382,0.0],[-88.6057,15.7351,0.0],[-88.6035,15.7201,0.0],[-88.6001,15.7154,0.0],[-88.5954,15.7135,0.0],[-88.5951,15.709,2.6541],[-88.6029,15.7065,2.3244],[-88.6032,15.7054,7.3406],[-88.5993,15.7043,4.617],[-88.6001,15.7021,6.2777],[-88.601,15.7035,6.2777],[-88.6043,15.7035,9.5666],[-88.6096,15.6996,0.0],[-88.6154,15.699,0.0],[-88.6201,15.6949,1.1118],[-88.6251,15.6951,0.4131],[-88.6268,15.6976,0.0],[-88.6296,15.6979,0.0],[-88.6299,15.6949,34.5765],[-88.6329,15.6932,44.7617],[-88.6351,15.6935,7.5884],[-88.6371,15.6971,0.0],[-88.6421,15.6957,0.0],[-88.6451,15.6974,7.7014],[-88.6471,15.7015,15.5661],[-88.6449,15.7046,1.6346],[-88.6476,15.7093,25.2549],[-88.6457,15.7157,3.1456],[-88.641,15.7168,0.0],[-88.6399,15.7193,2.591],[-88.6354,15.719,0.0],[-88.6368,15.724,4.5306],[-88.6321,15.7274,0.0],[-88.6321,15.729,0.0],[-88.6343,15.7299,8.5808],[-88.6335,15.7321,4.7719],[-88.6299,15.7326,4.8407],[-88.6254,15.731,0.0],[-88.6254,15.7346,0.0],[-88.6293,15.7363,1.8664],[-88.6338,15.7426,0.0],[-88.6315,15.7463,1.6229],[-88.6279,15.7465,4.9869],[-88.6276,15.7418,0.0],[-88.6249,15.741,0.0],[-88.6243,15.7471,0.0],[-88.6276,15.7538,0.0],[-88.6379,15.7557,0.5888],[-88.6515,15.7615,4.0179],[-88.6651,15.7726,4.1682],[-88.6771,15.7785,4.8711],[-88.6785,15.7815,0.0],[-88.6915,15.7879,2.4752],[-88.7151,15.8029,9.9782],[-88.7235,15.8099,1.9157],[-88.7268,15.8171,0.0],[-88.7312,15.8171,0.0],[-88.7343,15.8132,6.4758],[-88.7401,15.8101,10.0453],[-88.7451,15.8101,2.171],[-88.7485,15.8132,0.0],[-88.7532,15.8129,2.7824],[-88.756,15.8154,1.6041],[-88.749,15.8221,0.0],[-88.7476,15.8301,1.6458],[-88.7776,15.8476,1.8658],[-88.7957,15.8613,3.1277],[-88.8165,15.8654,29.0777],[-88.8218,15.871,2.5584],[-88.829,15.8737,6.4837],[-88.8299,15.8713,0.0],[-88.8371,15.8646,0.8715],[-88.8526,15.8665,6.3289],[-88.8621,15.8607,0.0],[-88.869,15.8612,2.2808],[-88.8729,15.864,0.0],[-88.8771,15.861,2.2712],[-88.8807,15.861,2.8683],[-88.8943,15.8754,16.9436],[-88.9126,15.9042,0.0],[-88.9242,15.8982,14.3691],[-88.94,15.8934,13.648],[-88.9498,15.8927,12.5741],[-88.9685,15.8969,13.1693],[-88.985,15.8985,10.9043],[-88.9975,15.9049,13.7291],[-89.0011,15.9046,15.4293],[-89.0122,15.8985,10.0589],[-89.0164,15.8988,5.3968],[-89.0199,15.9079,15.097],[-89.0238,15.9112,8.7449],[-89.0338,15.915,5.7164],[-89.0424,15.914,5.8615],[-89.0477,15.907,8.2663],[-89.0517,15.9184,18.2722],[-89.0543,15.92,14.4346],[-89.0569,15.9192,9.7128],[-89.0586,15.9163,10.7165],[-89.0574,15.9117,16.9147],[-89.059,15.9076,9.7627],[-89.0585,15.9032,17.9991],[-89.063,15.9056,8.9251],[-89.0628,15.9004,19.0312],[-89.0659,15.9013,4.1096],[-89.0738,15.91,2.7443],[-89.0744,15.9004,17.7428],[-89.0773,15.9001,2.0843],[-89.0783,15.902,3.9497],[-89.0786,15.8976,3.0697],[-89.0814,15.8973,6.509],[-89.0883,15.9099,3.2054],[-89.0928,15.9122,13.426],[-89.102,15.9119,5.4264],[-89.1109,15.9089,9.1468],[-89.1084,15.9031,1.0355],[-89.1091,15.9013,2.8151],[-89.1131,15.9022,4.4378],[-89.113,15.8986,2.291],[-89.1196,15.9017,10.6753],[-89.1269,15.9006,4.7336],[-89.1341,15.9068,2.586],[-89.1443,15.8989,2.4486],[-89.1502,15.8972,4.6262],[-89.1606,15.9011,10.3341],[-89.1731,15.9118,1.7677],[-89.1776,15.9129,2.2099],[-89.1804,15.9121,6.191],[-89.1824,15.9036,4.9009],[-89.1901,15.9035,3.3001],[-89.213,15.8952,2.8421],[-89.2181,15.8976,140.4482],[-89.2191,15.9024,41.291],[-89.2216,15.9026,37.1431],[-89.2273,15.8984,8.297],[-89.2291,15.9057,77.6424],[-89.2441,15.9151,8.6738],[-89.253,15.9137,73.3052],[-89.2627,15.917,25.6489],[-89.2699,15.913,22.0071],[-89.2819,15.9133,18.8681],[-89.287,15.9117,22.4295],[-89.2945,15.9146,23.7685],[-89.31,15.9147,81.9847],[-89.3144,15.9166,57.1578],[-89.322,15.9125,86.8516],[-89.329,15.9131,74.0341],[-89.3353,15.9173,78.3146],[-89.3641,15.9145,110.1922],[-89.3724,15.9035,111.9059],[-89.3759,15.887,87.7157],[-89.3784,15.8822,86.8735],[-89.3857,15.8795,84.4631],[-89.3832,15.8768,88.1783],[-89.3778,15.8756,88.6591],[-89.3773,15.8727,84.4625],[-89.3879,15.8709,82.88],[-89.3854,15.8662,88.1207],[-89.3899,15.8605,83.9179],[-89.395,15.8657,85.1115],[-89.3984,15.8648,93.6469],[-89.4076,15.8491,91.3901],[-89.4102,15.8509,87.895],[-89.4129,15.8497,86.5254],[-89.4172,15.8387,90.0101],[-89.4132,15.835,88.2357],[-89.4145,15.8332,88.6679],[-89.4233,15.8311,93.796],[-89.4258,15.8248,89.6851],[-89.4313,15.8253,89.0334],[-89.434,15.8213,91.8432],[-89.4422,15.8167,89.9449],[-89.451,15.8184,129.9708],[-89.4633,15.8128,175.8559],[-89.4644,15.8149,114.9063],[-89.4671,15.8155,123.8776],[-89.47,15.8134,112.6555],[-89.473,15.8154,124.4371],[-89.4757,15.8146,118.2246],[-89.4774,15.8076,136.7826],[-89.4732,15.8057,139.052],[-89.476,15.7984,164.3858],[-89.4725,15.7904,225.2609],[-89.4741,15.7859,142.6671],[-89.4778,15.7844,129.9917],[-89.4813,15.7852,170.0515],[-89.4823,15.7822,136.6275],[-89.4868,15.7794,131.6371],[-89.4919,15.7824,212.2603],[-89.495,15.7817,154.9067],[-89.5037,15.7709,142.9205],[-89.5071,15.7698,165.8948],[-89.5126,15.7686,142.6091],[-89.5139,15.7709,156.5393],[-89.5166,15.7689,162.1153],[-89.5175,15.7705,171.3175],[-89.5211,15.7701,158.5154],[-89.5217,15.7714,165.6685],[-89.525,15.7674,149.6431],[-89.5292,15.7699,169.4462],[-89.5317,15.7626,154.5592],[-89.5394,15.7571,173.3554],[-89.5412,15.7534,188.2772],[-89.536,15.739,154.4411],[-89.5405,15.7367,155.1572],[-89.5407,15.7311,217.3428],[-89.5438,15.7281,237.0271],[-89.5438,15.7231,198.1764],[-89.5475,15.7206,188.5557],[-89.544,15.7146,232.5255],[-89.5467,15.7107,196.6194],[-89.5508,15.7084,199.8507],[-89.6615,15.5662,387.8179],[-89.6042,15.5026,269.6172],[-89.6148,15.479,667.9951],[-89.6207,15.4765,671.2108],[-89.6239,15.4707,786.8317],[-89.6244,15.4649,746.7547],[-89.6315,15.4638,666.0125],[-89.6384,15.4535,475.7795],[-89.6437,15.4524,473.2382],[-89.6401,15.4464,369.4344],[-89.6446,15.4375,365.984],[-89.6417,15.4261,143.6017],[-89.6385,15.4225,57.1277],[-89.6366,15.4124,31.8981],[-89.6309,15.4032,10.5798],[-89.6348,15.3856,10.5875],[-89.6284,15.385,10.4892],[-89.6335,15.3793,11.2598],[-89.6272,15.3762,9.4996],[-89.631,15.3719,11.2158],[-89.6282,15.3687,13.7714],[-89.6297,15.366,10.774],[-89.6356,15.3709,11.2421],[-89.6366,15.3673,11.8226],[-89.6235,15.2744,693.8684],[-89.6279,15.2714,728.161],[-89.6287,15.2665,634.0729],[-89.6207,15.2541,603.5236],[-89.6268,15.2353,689.3124],[-89.6266,15.23,754.2134],[-89.6336,15.2153,1106.9993],[-89.626,15.203,1341.3423],[-89.6229,15.1899,1519.7922],[-89.6262,15.1798,1965.8229],[-89.6243,15.1753,1928.2128],[-89.6119,15.1619,2514.574],[-89.611,15.1589,2447.1523],[-89.5655,15.1763,2079.8459],[-89.562,15.1823,2134.2051],[-89.5587,15.1827,1993.3823],[-89.55,15.1755,1895.6031],[-89.5361,15.1735,1824.6672],[-89.5155,15.1768,1860.7883],[-89.5025,15.1844,1881.7196],[-89.4652,15.1962,1816.5408],[-89.4176,15.2163,1830.4553],[-89.408,15.2222,1319.3618],[-89.3965,15.2394,1301.2753],[-89.3936,15.2359,1322.8071],[-89.3912,15.2378,1212.5054],[-89.3901,15.244,1269.715],[-89.3808,15.2625,986.4315],[-89.3757,15.2687,938.652],[-89.3645,15.2725,942.7521],[-89.3564,15.2772,1069.8495],[-89.3399,15.2751,1296.3038],[-89.3311,15.2785,1070.3207],[-89.321,15.2721,1087.2489],[-89.3109,15.2737,1109.2449],[-89.3062,15.2728,1159.2632],[-89.3038,15.2739,1064.371],[-89.2983,15.2866,897.8541],[-89.2945,15.2918,944.8735],[-89.2722,15.2936,812.2362],[-89.2623,15.2918,667.6015],[-89.2543,15.2991,767.0629],[-89.2481,15.2976,773.0639],[-89.25,15.2883,810.6207],[-89.2484,15.2842,735.0401],[-89.2444,15.2836,661.9464],[-89.2325,15.2963,324.1799],[-89.2281,15.2965,354.0994],[-89.2221,15.2921,281.9246],[-89.2185,15.287,421.1176],[-89.2173,15.2802,439.196],[-89.2135,15.2749,710.1196],[-89.1997,15.2778,700.6981],[-89.1871,15.2834,689.5095],[-89.1842,15.2818,601.5813],[-89.1833,15.272,672.5642],[-89.18,15.27,629.0696],[-89.1724,15.2696,631.7092],[-89.1701,15.2114,83.6237],[-89.1743,15.2059,104.2684],[-89.2041,15.1921,103.2369],[-89.2138,15.1842,110.0484],[-89.2084,15.1799,158.0025],[-89.1959,15.1797,207.7443],[-89.1965,15.1776,207.7406],[-89.1916,15.1755,225.7723],[-89.1936,15.1687,190.1884],[-89.1893,15.168,196.4881],[-89.1879,15.1594,183.0522],[-89.1858,15.1581,188.097],[-89.1859,15.1502,217.5205],[-89.1778,15.1455,297.3105],[-89.1749,15.1381,345.9618],[-89.1776,15.1353,354.4658],[-89.1746,15.1334,532.7686],[-89.1752,15.1297,445.0454],[-89.1733,15.1274,405.0121],[-89.1747,15.1159,289.4083],[-89.1813,15.1076,402.4319],[-89.1742,15.0997,523.9933],[-89.1699,15.0885,545.2271],[-89.1633,15.0834,508.4327],[-89.1628,15.0798,433.6278],[-89.1589,15.0803,476.6645],[-89.1564,15.0764,519.7113],[-89.1479,15.0703,621.4858],[-89.0484,15.1057,533.4534],[-88.9671,15.1371,229.8875],[-88.8824,15.2095,1184.6716]]],
[[[-88.2257,15.7232,0.6847],[-88.226,15.7232,0.6847],[-88.226,15.723,0.6847],[-88.2257,15.7232,0.6847]]]]}
,"properties": {"GID_1": "GTM.9_1","GID_0": "GTM","country": "Guatemala","province": "Izabal","VARNAME_1": "NA","NL_NAME_1": "NA","TYPE_1": "Departamento","ENGTYPE_1": "Department","CC_1": "NA","HASC_1": "GT.IZ","ISO_1": "GT-18","name": "Izabal.province","area_km2": 8805.208,"hist_schema_id": "Elevation0-9000","hist_area_km2": {"0": 2191.286,"25": 1106.449,"50": 770.424,"75": 499.838,"100": 296.001,"125": 226.66,"150": 228.39,"175": 195.878,"200": 172.7,"225": 161.168,"250": 154.98,"275": 147.447,"300": 145.174,"325": 145.275,"350": 139.805,"375": 131.826,"400": 123.127,"425": 115.736,"450": 108.138,"475": 100.803,"500": 99.542,"525": 100.773,"550": 99.791,"575": 98.399,"600": 98.027,"625": 98.27,"650": 97.756,"675": 90.799,"700": 82.952,"725": 79.094,"750": 73.454,"775": 63.322,"800": 60.154,"825": 52.594,"850": 48.57,"875": 44.953,"900": 39.704,"925": 32.76,"950": 27.879,"975": 24.691,"1000": 21.728,"1025": 17.398,"1050": 15.661,"1075": 13.863,"1100": 11.676,"1125": 9.775,"1150": 9.448,"1175": 8.18,"1200": 8.548,"1225": 7.302,"1250": 6.894,"1275": 6.096,"1300": 5.81,"1325": 5.442,"1350": 5.79,"1375": 5.831,"1400": 5.524,"1425": 5.115,"1450": 4.746,"1475": 4.276,"1500": 4.01,"1525": 3.723,"1550": 3.294,"1575": 3.233,"1600": 3.028,"1625": 2.578,"1650": 2.189,"1675": 2.639,"1700": 2.476,"1725": 1.944,"1750": 1.555,"1775": 1.555,"1800": 1.514,"1825": 1.289,"1850": 1.105,"1875": 1.289,"1900": 1.084,"1925": 1.248,"1950": 1.085,"1975": 0.839,"2000": 1.125,"2025": 0.941,"2050": 0.778,"2075": 0.532,"2100": 0.696,"2125": 0.552,"2150": 0.573,"2175": 0.45,"2200": 0.573,"2225": 0.491,"2250": 0.532,"2275": 0.45,"2300": 0.266,"2325": 0.368,"2350": 0.246,"2375": 0.143,"2400": 0.184,"2425": 0.246,"2450": 0.184,"2475": 0.368,"2500": 0.143}}}