{"type":"Feature","properties":{"featurecla":"River","scalerank":8,"rivernum":715,"dissolve":"715River","name":"Motagua2","name_alt":null,"note":null,"min_zoom":7.0,"strokeweig":0.25,"name_en":"Motagua","min_label":8.0},
"geometry":{"type": "LineString","coordinates": [[-89.084716796875,15.25690338749412,73.3981],[-89.0712890625,15.26239655155662,74.6828],[-89.060546875,15.26410553593162,71.2612],[-89.053515624999989,15.26056549686912,69.0],[-89.051123046874991,15.250262762494117,71.9966],[-89.038330078125,15.259051824994117,70.4607],[-89.030517578125,15.258075262494117,68.0102],[-89.023535156249991,15.253192449994117,68.216],[-89.013598632812489,15.250262762494117,67.036],[-89.002539062499991,15.25702545780662,63.5],[-88.968603515624991,15.294940496869117,59.7075],[-88.92919921875,15.307635809369117,54.5],[-88.920751953124991,15.311639715619123,53.5],[-88.917724609375,15.320184637494123,57.5593],[-88.916064453124989,15.332538153119117,51.693],[-88.916748046875,15.344745184369117,52.4407],[-88.920751953124991,15.352655340619123,51.2842],[-88.913623046874989,15.357538153119123,49.8428],[-88.910400390625,15.360956121869123,50.8355],[-88.907153320312489,15.36627838749412,52.3909],[-88.911474609374991,15.369159246869117,50.258],[-88.911791992187489,15.37018463749412,50.258],[-88.913989257812489,15.373797918744117,58.5028],[-88.88037109375,15.38068268436912,49.8711],[-88.8662109375,15.38056061405662,46.5414],[-88.8662109375,15.38678619999412,48.082],[-88.868505859374991,15.39130280155662,45.9501],[-88.868994140624991,15.392450262494123,46.0],[-88.868017578124991,15.39435455936912,45.9171],[-88.8662109375,15.40106842655662,50.7872],[-88.8544921875,15.393573309369117,44.9561],[-88.85009765625,15.39777252811912,44.25],[-88.84765625,15.40790436405662,46.0893],[-88.841967773437489,15.41815827030662,42.6187],[-88.831347656249989,15.42340729374412,41.0],[-88.821386718749991,15.42584869999412,47.1967],[-88.817138671875,15.430194403119117,40.7896],[-88.823974609375,15.441424871869117,41.7219],[-88.812744140625,15.44928619999412,39.3787],[-88.815185546875,15.485370184369117,35.2977],[-88.804736328124989,15.50409577030662,36.4861],[-88.789306640625,15.510272528119117,33.6489],[-88.766162109374989,15.51386139530662,32.974],[-88.743408203125,15.51422760624412,30.6668],[-88.72900390625,15.51093170780662,30.0539],[-88.71826171875,15.51959869999412,30.4553],[-88.701513671874991,15.525897528119117,29.0632],[-88.683203124999991,15.52814362186912,29.0323],[-88.667529296874989,15.52460358280662,28.4029],[-88.673754882812489,15.531366278119123,32.0085],[-88.673754882812489,15.537616278119117,25.5],[-88.658447265625,15.539178778119123,25.5183],[-88.639990234374991,15.543329168744123,25.0913],[-88.623217773437489,15.54987213749412,27.0109],[-88.612890624999991,15.558710028119123,32.2051],[-88.60546875,15.558710028119123,34.2424],[-88.5986328125,15.55280182499412,31.0809],[-88.579394531249989,15.549579168744117,23.3207],[-88.571337890624989,15.545038153119123,23.3542],[-88.568457031249991,15.549579168744117,26.0771],[-88.563769531249989,15.551874090619123,25.0963],[-88.5576171875,15.552362371869123,23.789],[-88.55029296875,15.551288153119117,30.299],[-88.554931640625,15.54315827030662,22.7408],[-88.547534179687489,15.54181549686912,30.2671],[-88.509765625,15.54718659061912,18.7289],[-88.500415039062489,15.54743073124412,17.8017],[-88.488818359374989,15.545038153119123,18.5507],[-88.491943359375,15.551629949994123,17.6812],[-88.496264648437489,15.573016668744117,19.6337],[-88.488818359374989,15.573016668744117,20.7083],[-88.481127929687489,15.566913153119117,15.3753],[-88.476123046874989,15.57001373905662,19.0206],[-88.474169921874989,15.57941315311912,17.9353],[-88.475756835937489,15.59223053593162,23.6252],[-88.47119140625,15.58942291874412,23.5597],[-88.468310546874989,15.58600494999412,13.7448],[-88.462158203125,15.58600494999412,15.7935],[-88.464599609375,15.59284088749412,16.4533],[-88.468310546874989,15.59967682499412,17.2733],[-88.462744140624991,15.600702215619123,11.5],[-88.462255859374991,15.60236237186912,17.1922],[-88.462158203125,15.60651276249412,18.6389],[-88.458666992187489,15.604266668744117,18.5815],[-88.451513671874991,15.601678778119123,13.6257],[-88.447802734374989,15.59967682499412,11.8379],[-88.441577148437489,15.611932684369123,11.8972],[-88.429785156249991,15.623163153119123,12.4272],[-88.416748046875,15.62946198124412,15.9641],[-88.406835937499991,15.62702057499412,13.1803],[-88.398779296874991,15.63825104374412,9.3961],[-88.378027343749991,15.65521881718162,8.3205],[-88.372729492187489,15.667987371869117,7.3037],[-88.368945312499989,15.66608307499412,6.3925],[-88.361865234374989,15.663446356244123,6.8612],[-88.358447265624989,15.661151434369117,4.9939],[-88.365893554687489,15.67475006718162,6.6524],[-88.352392578124991,15.678827215619123,8.5025],[-88.341650390624991,15.68024323124412,5.5404],[-88.330859374999989,15.678827215619123,4.9137],[-88.317480468749991,15.67475006718162,4.6472],[-88.317480468749991,15.67475006718162,4.6472],[-88.317480468749991,15.67475006718162,4.6472],[-88.317480468749991,15.67475006718162,4.6472],[-88.317480468749991,15.67475006718162,4.6472],[-88.29638671875,15.67523834843162,4.4854],[-88.280444335937489,15.680926824994117,3.9961],[-88.265722656249991,15.688836981244123,3.1883],[-88.248583984374989,15.69586823124412,1.4735],[-88.242358398437489,15.68842194218162,2.0245],[-88.235766601562489,15.70172760624412,3.527],[-88.236499023437489,15.71259186405662,1.5111],[-88.2333984375,15.72162506718162,3.3715],[-88.221533203124991,15.72589752811912,0.0]]}}