{"type":"Feature","properties":{"GID_2":"GTM.4.3_1","GID_0":"GTM","country":"Guatemala","GID_1":"GTM.4_1","province":"Chiquimula","NL_NAME_1":"NA","county":"ConcepciónLasMinas","VARNAME_2":"NA","NL_NAME_2":"NA","TYPE_2":"Municipio","ENGTYPE_2":"Municipality","CC_2":"NA","HASC_2":"NA","name":"Concepción_Las_Minas.county"},
"geometry":{"type": "MultiPolygon","coordinates": [[[[-89.3498,14.4226,2141.8704],[-89.3503,14.463,1628.5557],[-89.3641,14.4649,1769.3149],[-89.3714,14.4721,1938.2552],[-89.3832,14.4715,1812.1792],[-89.3872,14.4794,1768.198],[-89.3881,14.4863,1847.5789],[-89.3827,14.5156,1857.3479],[-89.3894,14.5269,1646.7916],[-89.3869,14.5471,1248.7751],[-89.4176,14.5702,1251.7747],[-89.426,14.5713,1185.9413],[-89.4327,14.5697,999.6671],[-89.4376,14.5548,879.8566],[-89.4425,14.5507,867.1026],[-89.4465,14.55,918.8353],[-89.4575,14.5528,815.0532],[-89.4699,14.548,783.1329],[-89.4787,14.5485,807.2365],[-89.4851,14.5543,798.0488],[-89.4938,14.5546,804.4688],[-89.4995,14.5531,894.8864],[-89.5044,14.5557,970.2285],[-89.506,14.5542,839.975],[-89.5082,14.5354,836.432],[-89.5095,14.5345,783.4534],[-89.5124,14.5359,794.2033],[-89.5154,14.5242,869.4523],[-89.5303,14.5248,765.1217],[-89.5397,14.523,738.6379],[-89.543,14.519,710.7717],[-89.5372,14.5136,664.4968],[-89.5188,14.5142,693.3385],[-89.5137,14.5087,705.4799],[-89.516,14.5016,678.2175],[-89.5035,14.4971,638.0262],[-89.5089,14.4917,611.1494],[-89.4951,14.4825,630.1589],[-89.4953,14.4777,653.6097],[-89.497,14.476,601.0816],[-89.4938,14.4699,594.8177],[-89.4964,14.461,571.1056],[-89.4948,14.4576,609.1358],[-89.4964,14.4484,602.412],[-89.5014,14.4436,558.4025],[-89.5151,14.4353,529.79],[-89.5039,14.4124,573.9727],[-89.4976,14.4062,539.6552],[-89.4842,14.4185,588.2779],[-89.4795,14.4186,602.1415],[-89.4737,14.4219,640.489],[-89.467,14.4287,637.7766],[-89.4375,14.4181,802.134],[-89.4367,14.4134,785.1899],[-89.4317,14.4107,871.0547],[-89.4255,14.4116,986.2239],[-89.4119,14.4219,1160.1373],[-89.4048,14.4308,1177.3999],[-89.401,14.433,1392.7573],[-89.399,14.4407,1364.1353],[-89.3954,14.4461,1309.627],[-89.3887,14.4475,1307.2751],[-89.3859,14.4506,1475.783],[-89.3821,14.4475,1570.2662],[-89.3831,14.4286,2038.5885],[-89.3782,14.4312,1798.8049],[-89.3752,14.4306,1764.2052],[-89.361,14.4197,2281.9602],[-89.3563,14.4186,2321.3608],[-89.3498,14.4226,2141.8704]]]]}}