{"type": "Feature","bbox": [-92.1643,14.1912,-91.6585,14.5892],"geometry": {"type": "MultiPolygon","coordinates": [[[[-92.050299999999993,14.5653,12.4217],[-92.0587,14.5605,17.5739],[-92.0608,14.5573,9.3304],[-92.08,14.5481,8.7582],[-92.0817,14.5409,7.592],[-92.1052,14.5304,5.5234],[-92.1044,14.5267,5.4388],[-92.109,14.5228,5.5103],[-92.1088,14.5161,3.6016],[-92.1151,14.5096,2.3521],[-92.1146,14.5044,3.2972],[-92.1179,14.5033,6.8799],[-92.1197,14.5066,5.0853],[-92.1232,14.5046,2.1757],[-92.1246,14.508,6.6895],[-92.133,14.5102,12.0826],[-92.1344,14.508,4.6514],[-92.1393,14.507,10.9274],[-92.1425,14.5036,3.903],[-92.1437,14.5009,17.782],[-92.1428,14.4937,12.9431],[-92.1525,14.4903,16.7048],[-92.159,14.4911,18.8587],[-92.1643,14.4863,0.6843],[-92.1321,14.4654,4.8876],[-92.1049,14.4421,0.8119],[-92.0987,14.4388,0.7785],[-92.099,14.441,0.5],[-92.1038,14.4429,0.8119],[-92.1099,14.4507,8.3808],[-92.1079,14.451,1.4019],[-92.1021,14.4429,0.5],[-92.094,14.4421,4.4123],[-92.0935,14.4399,2.2939],[-92.0965,14.4401,2.4557],[-92.0965,14.439,2.4557],[-92.089,14.4346,3.7733],[-92.0843,14.4265,0.0],[-92.0548,14.4051,1.162],[-92.0497,14.4088,6.9886],[-92.039,14.4073,12.8183],[-92.0364,14.4083,9.4605],[-92.0269,14.4056,18.899],[-92.0198,14.4061,6.3703],[-92.0166,14.4089,4.6538],[-92.0125,14.4076,6.7176],[-92.0047,14.4088,6.5388],[-92.0032,14.4131,6.6802],[-92.0005,14.4144,5.9381],[-91.9964,14.4122,1.6449],[-91.9799,14.4107,6.7463],[-91.9757,14.4125,12.6479],[-91.971,14.4088,16.0357],[-91.9626,14.4104,8.0577],[-91.9609,14.4087,6.1696],[-91.957,14.4085,14.1185],[-91.948,14.4168,18.7607],[-91.9403,14.4134,15.6901],[-91.9318,14.4155,17.9371],[-91.9311,14.4177,24.0997],[-91.9267,14.4196,19.6078],[-91.9194,14.4172,25.9293],[-91.9141,14.4187,23.8092],[-91.9011,14.4256,35.8989],[-91.8913,14.4226,34.7528],[-91.8833,14.4293,43.1744],[-91.8785,14.4294,41.7791],[-91.873,14.4324,46.3283],[-91.868,14.4306,50.3191],[-91.8631,14.4313,50.3682],[-91.8609,14.4349,49.7805],[-91.8542,14.4343,52.545],[-91.8401,14.4391,58.5395],[-91.8334,14.421,58.0305],[-91.8275,14.4211,66.7055],[-91.8254,14.417,56.7875],[-91.8014,14.3971,59.0272],[-91.7898,14.3919,64.7183],[-91.7918,14.3804,60.1196],[-91.7939,14.379,58.5925],[-91.7993,14.3817,57.2747],[-91.8006,14.3782,56.2552],[-91.8073,14.3743,50.5068],[-91.8074,14.3556,40.5732],[-91.7931,14.3552,47.3488],[-91.7925,14.3487,45.7729],[-91.7942,14.3419,42.1898],[-91.7817,14.323,35.1058],[-91.7767,14.3027,35.031],[-91.7874,14.2858,27.6241],[-91.795,14.2795,23.5073],[-91.8111,14.2745,16.2128],[-91.8284,14.2276,2.5455],[-91.8104,14.2118,2.1742],[-91.8071,14.2143,2.2098],[-91.8079,14.2085,2.9755],[-91.8021,14.2032,0.9462],[-91.8026,14.2018,0.0],[-91.8004,14.2018,3.4012],[-91.7946,14.1962,0.0],[-91.786,14.1912,1.4862],[-91.7831,14.1924,3.6109],[-91.7762,14.2018,5.9862],[-91.7566,14.2181,13.7215],[-91.7537,14.2246,14.917],[-91.7593,14.2398,17.98],[-91.7532,14.2494,17.9794],[-91.7551,14.2615,25.4147],[-91.7538,14.261,25.4147],[-91.7397,14.2787,30.6102],[-91.7323,14.2958,36.7613],[-91.7358,14.3141,42.8639],[-91.7353,14.3347,49.1293],[-91.727,14.3494,57.6944],[-91.7225,14.3525,60.669],[-91.7188,14.3627,69.0649],[-91.7094,14.3711,73.3408],[-91.6964,14.3778,79.0414],[-91.6891,14.3914,88.1903],[-91.6847,14.4171,106.3866],[-91.6794,14.428,118.3039],[-91.6792,14.4386,123.841],[-91.6755,14.4427,124.6579],[-91.6752,14.4523,139.0723],[-91.6819,14.4686,150.1543],[-91.6634,14.4929,192.3858],[-91.6585,14.5177,222.8346],[-91.6601,14.5334,250.7601],[-91.6665,14.5553,279.5148],[-91.6692,14.5892,323.8819],[-91.6771,14.5835,296.2051],[-91.689,14.5636,246.3259],[-91.7199,14.5403,192.4857],[-91.723,14.5244,180.8489],[-91.7208,14.5218,178.5302],[-91.7287,14.5173,171.3618],[-91.7305,14.5148,163.1049],[-91.7281,14.5108,154.2529],[-91.7425,14.5105,135.2249],[-91.7455,14.5129,129.4555],[-91.7551,14.5063,130.5408],[-91.7699,14.5003,109.5477],[-91.7819,14.4981,100.3932],[-91.7857,14.4948,102.0474],[-91.789,14.4993,97.7198],[-91.8109,14.496,83.1614],[-91.8139,14.4973,82.0136],[-91.8164,14.4959,66.7403],[-91.8212,14.498,69.0877],[-91.8261,14.4943,66.68],[-91.833,14.4949,56.9968],[-91.8381,14.4991,71.4406],[-91.8513,14.5012,56.4784],[-91.8564,14.5056,57.3162],[-91.8718,14.5112,48.6379],[-91.874,14.5152,46.5139],[-91.8781,14.5153,51.666],[-91.8862,14.5088,46.162],[-91.8892,14.5117,49.3649],[-91.9118,14.5107,35.9407],[-91.9178,14.5176,34.8515],[-91.9289,14.5196,28.1564],[-91.9372,14.5246,34.9998],[-91.9433,14.5246,34.7931],[-91.9475,14.5213,28.1014],[-91.9687,14.5346,24.7018],[-91.9711,14.5339,20.5406],[-91.972,14.5368,26.7661],[-91.9755,14.5387,24.4893],[-91.9968,14.5381,28.2917],[-92.007,14.5458,24.3832],[-92.0253,14.5505,15.2369],[-92.036,14.5594,13.391],[-92.050299999999993,14.5653,12.4217]]]]}
,"properties": {"GID_2": "GTM.15.4_1","GID_0": "GTM","country": "Guatemala","GID_1": "GTM.15_1","province": "Retalhuleu","NL_NAME_1": "NA","county": "Retalhuleu","VARNAME_2": "NA","NL_NAME_2": "NA","TYPE_2": "Municipio","ENGTYPE_2": "Municipality","CC_2": "NA","HASC_2": "NA","name": "Retalhuleu.county","area_km2": 778.1562,"hist_schema_id": "Elevation0-9000","hist_area_km2": {"0": 186.924,"25": 207.4091,"50": 113.7413,"75": 99.5073,"100": 58.7015,"125": 38.0425,"150": 20.2204,"175": 14.9435,"200": 14.0803,"225": 10.1799,"250": 7.1214,"275": 4.3916,"300": 2.4624,"325": 0.4309}}}