{"type":"Feature","properties":{"GID_2":"GTM.18.10_1","GID_0":"GTM","country":"Guatemala","GID_1":"GTM.18_1","province":"SantaRosa","NL_NAME_1":"NA","county":"SanRafaélLasFlores","VARNAME_2":"NA","NL_NAME_2":"NA","TYPE_2":"Municipio","ENGTYPE_2":"Municipality","CC_2":"NA","HASC_2":"NA","name":"San_Rafaél_Las_Flores.county"},
"geometry":{"type": "MultiPolygon","coordinates": [[[[-90.2441,14.4716,1935.0724],[-90.2416,14.4731,1926.2051],[-90.2324,14.4689,1828.9846],[-90.2323,14.4663,1785.5573],[-90.227,14.463,1691.8768],[-90.2254,14.4576,1613.7117],[-90.2224,14.4562,1513.0743],[-90.2151,14.462,1507.52],[-90.2118,14.4583,1576.4529],[-90.2076,14.4472,1445.576],[-90.2075,14.4326,1423.3844],[-90.2013,14.4283,1334.1356],[-90.1993,14.4246,1408.6555],[-90.1721,14.4104,1331.4607],[-90.1621,14.4073,1551.4966],[-90.1493,14.4099,1697.0402],[-90.1436,14.4138,1408.0],[-90.1427,14.4126,1408.0],[-90.1066,14.4199,1408.0],[-90.1048,14.4239,1546.3257],[-90.1059,14.4239,1586.9918],[-90.1016,14.4266,1722.713],[-90.0967,14.435,1927.4429],[-90.0871,14.4426,1994.0505],[-90.0872,14.447,1998.9872],[-90.0838,14.4538,1964.2225],[-90.1111,14.4711,1742.8865],[-90.1141,14.4938,1846.9154],[-90.1436,14.5004,2005.5714],[-90.2345,14.4791,1979.2938],[-90.2441,14.4716,1935.0724]]]]}}