{"type": "Feature","bbox": [-91.5722,14.5882,-91.5262,14.6632],"geometry": {"type": "MultiPolygon","coordinates": [[[[-91.5722,14.5895,535.6836],[-91.5657,14.5911,550.1277],[-91.5515,14.5882,579.7529],[-91.5458,14.5899,592.1697],[-91.5471,14.5948,618.1957],[-91.5453,14.6026,656.4987],[-91.5317,14.623,812.2312],[-91.5311,14.6349,896.2291],[-91.5262,14.6463,999.4359],[-91.5265,14.6513,1049.7927],[-91.5336,14.6632,1091.1442],[-91.5414,14.6568,1017.4542],[-91.5464,14.6556,986.7996],[-91.563,14.6302,774.4124],[-91.566,14.6105,667.8101],[-91.5706,14.6041,613.0089],[-91.5722,14.5895,535.6836]]]]}
,"properties": {"GID_2": "GTM.20.5_1","GID_0": "GTM","country": "Guatemala","GID_1": "GTM.20_1","province": "Suchitepéquez","NL_NAME_1": "NA","county": "PuebloNuevo","VARNAME_2": "NA","NL_NAME_2": "NA","TYPE_2": "Municipio","ENGTYPE_2": "Municipality","CC_2": "NA","HASC_2": "NA","name": "Pueblo_Nuevo.county","area_km2": 22.05404,"hist_schema_id": "Elevation0-9000","hist_area_km2": {"550": 0.32829,"575": 1.27213,"600": 1.31315,"625": 1.25157,"650": 1.14896,"675": 1.37462,"700": 1.16943,"725": 1.57972,"750": 1.33351,"775": 1.29246,"800": 1.2309,"825": 1.08728,"850": 1.04624,"875": 0.96416,"900": 1.0462,"925": 0.759,"950": 1.04618,"975": 0.6359,"1000": 0.67693,"1025": 0.61538,"1050": 0.53332,"1075": 0.30768,"1100": 0.04102}}}