{"type":"Feature","properties":{"GID_2":"GTM.19.16_1","GID_0":"GTM","country":"Guatemala","GID_1":"GTM.19_1","province":"Sololá","NL_NAME_1":"NA","county":"SantaCruzLaLaguna","VARNAME_2":"NA","NL_NAME_2":"NA","TYPE_2":"Municipio","ENGTYPE_2":"Municipality","CC_2":"NA","HASC_2":"NA","name":"Santa_Cruz_La_Laguna.county"},
"geometry":{"type": "MultiPolygon","coordinates": [[[[-91.1931,14.7409,1565.4955],[-91.1941,14.7495,2122.2988],[-91.2028,14.7619,2325.3994],[-91.212,14.758,2475.0054],[-91.2188,14.75,1976.8107],[-91.2353,14.75,2467.8184],[-91.2412,14.748,2362.1831],[-91.2469,14.7396,1754.51],[-91.2501,14.7311,1953.188],[-91.2433,14.7267,1561.8732],[-91.2427,14.7289,1562.5383],[-91.2441,14.73,1592.2736],[-91.2412,14.7319,1563.4492],[-91.2354,14.732,1599.1255],[-91.2325,14.7291,1615.0872],[-91.2305,14.7318,1588.2822],[-91.2252,14.7326,1673.5973],[-91.2202,14.7376,1579.1742],[-91.2127,14.7373,1658.3778],[-91.2084,14.7422,1647.6467],[-91.2042,14.7413,1576.438],[-91.1982,14.743,1603.9663],[-91.1954,14.7403,1575.5962],[-91.1931,14.7409,1565.4955]]]]}}