{"type":"Feature","properties":{"GID_2":"GTM.7.16_1","GID_0":"GTM","country":"Guatemala","GID_1":"GTM.7_1","province":"Guatemala","NL_NAME_1":"NA","county":"VillaNueva","VARNAME_2":"NA","NL_NAME_2":"NA","TYPE_2":"Municipio","ENGTYPE_2":"Municipality","CC_2":"NA","HASC_2":"NA","name":"Villa_Nueva.county"},
"geometry":{"type": "MultiPolygon","coordinates": [[[[-90.5823,14.4782,1188.0],[-90.5733,14.4912,1307.2913],[-90.565,14.5097,1272.7693],[-90.5656,14.5251,1247.7052],[-90.5575,14.529,1256.5444],[-90.5531,14.5274,1295.6486],[-90.5493,14.5298,1269.1742],[-90.5482,14.5334,1301.0974],[-90.5575,14.5434,1354.943],[-90.5549,14.5484,1399.4409],[-90.5558,14.5555,1409.0083],[-90.5621,14.5591,1387.062],[-90.56,14.565,1408.6882],[-90.5627,14.58,1464.2035],[-90.5603,14.5865,1479.4763],[-90.5636,14.5888,1476.7141],[-90.5713,14.5765,1448.7795],[-90.5726,14.5684,1416.984],[-90.575,14.5657,1395.2175],[-90.5748,14.5586,1333.6107],[-90.5769,14.5546,1306.3832],[-90.5808,14.5562,1368.6626],[-90.5838,14.5697,1433.7924],[-90.5873,14.5729,1451.1898],[-90.5847,14.5816,1431.9448],[-90.5935,14.5884,1549.907],[-90.6029,14.5903,1533.4583],[-90.6051,14.5854,1562.1399],[-90.6099,14.5872,1643.2131],[-90.6172,14.5862,1702.6567],[-90.6225,14.5882,1914.3229],[-90.6221,14.5795,1753.8357],[-90.6319,14.563,1752.2991],[-90.632,14.5601,1706.4922],[-90.644,14.5548,1696.7527],[-90.6492,14.5547,1749.723],[-90.6549,14.5389,1950.4281],[-90.6396,14.5294,1645.6323],[-90.6184,14.5225,1449.564],[-90.6101,14.5027,1435.385],[-90.6096,14.4933,1327.4767],[-90.6058,14.4874,1188.0],[-90.5823,14.4782,1188.0]]]]}}