{"type": "Feature","bbox": [-90.9074,13.9648,-90.7065,14.2423],"geometry": {"type": "MultiPolygon","coordinates": [[[[-90.8826,14.2364,108.0479],[-90.89,14.226,100.73],[-90.8916,14.2151,97.31],[-90.8869,14.209,88.4265],[-90.8858,14.201,86.5668],[-90.8881,14.1956,88.2975],[-90.8935,14.1904,78.2566],[-90.8915,14.1849,74.375],[-90.8924,14.1801,72.25],[-90.899,14.1754,75.2816],[-90.8983,14.1686,70.8184],[-90.8958,14.1652,67.5],[-90.8962,14.1597,66.0],[-90.8981,14.1535,67.8325],[-90.9025,14.1469,61.375],[-90.9068,14.1081,49.0],[-90.9041,14.0893,45.7073],[-90.9068,14.0877,43.25],[-90.9074,14.0854,42.8944],[-90.901,14.0668,38.2165],[-90.9022,14.062,39.1832],[-90.9008,14.0595,38.1838],[-90.9007,14.0458,35.1502],[-90.8966,14.0347,31.3635],[-90.8986,14.034,31.8026],[-90.9033,14.0235,29.2417],[-90.8983,14.0184,27.2948],[-90.8973,14.0086,25.8191],[-90.8634,14.0061,22.8107],[-90.8611,14.0018,21.5424],[-90.8315,14.0004,18.1657],[-90.8291,13.9973,18.0282],[-90.8263,13.997,17.0112],[-90.8195,14.0024,17.6696],[-90.7963,14.005,15.9655],[-90.7918,14.0034,16.2661],[-90.7849,13.9979,15.4962],[-90.7616,13.9879,11.0805],[-90.7637,13.9741,8.4916],[-90.7633,13.9664,8.4985],[-90.7599,13.9648,7.1365],[-90.755,13.9664,6.6],[-90.7526,13.9703,7.9035],[-90.7433,13.9726,6.8959],[-90.7325,14.0067,9.2106],[-90.7239,14.0146,9.2381],[-90.7148,14.0311,10.567],[-90.7067,14.0658,16.2853],[-90.7065,14.0687,16.8813],[-90.7088,14.0725,21.1971],[-90.7074,14.0746,18.4176],[-90.7079,14.0784,22.4004],[-90.7101,14.0782,20.5921],[-90.7112,14.0824,19.4581],[-90.7136,14.0841,20.5157],[-90.7115,14.0896,22.2493],[-90.7181,14.0996,32.9535],[-90.7197,14.0977,32.1112],[-90.727,14.1043,42.5329],[-90.7311,14.1036,38.6953],[-90.7318,14.1048,40.9406],[-90.7328,14.1143,52.1529],[-90.7309,14.1331,65.8293],[-90.7337,14.1487,81.2642],[-90.739,14.1572,98.0341],[-90.7552,14.1676,105.2581],[-90.7718,14.1887,134.2983],[-90.7727,14.1916,132.9734],[-90.7682,14.1933,133.2067],[-90.7693,14.1988,147.2984],[-90.7812,14.2007,143.3699],[-90.782,14.2053,146.3781],[-90.7851,14.2096,154.0758],[-90.7827,14.2137,159.4568],[-90.8101,14.2232,157.9568],[-90.8079,14.2293,168.7218],[-90.8035,14.2306,173.0892],[-90.8027,14.237,181.1658],[-90.8168,14.2423,182.1967],[-90.825,14.231,159.7206],[-90.8262,14.2329,157.8772],[-90.8373,14.2266,143.5973],[-90.8472,14.2133,122.6633],[-90.8497,14.2186,118.4602],[-90.8668,14.2315,121.9046],[-90.8774,14.2383,111.5625],[-90.8826,14.2364,108.0479]]]]}
,"properties": {"GID_2": "GTM.6.6_1","GID_0": "GTM","country": "Guatemala","GID_1": "GTM.6_1","province": "Escuintla","NL_NAME_1": "NA","county": "Masagua","VARNAME_2": "NA","NL_NAME_2": "NA","TYPE_2": "Municipio","ENGTYPE_2": "Municipality","CC_2": "NA","HASC_2": "NA","name": "Masagua.county","area_km2": 450.0257,"hist_schema_id": "Elevation0-9000","hist_area_km2": {"0": 18.9674,"25": 176.7007,"50": 96.9542,"75": 67.1458,"100": 50.5886,"125": 24.5832,"150": 12.2086,"175": 2.8772}}}