{"type": "Feature","bbox": [-90.9917,14.5738,-90.8953,14.6885],"geometry": {"type": "MultiPolygon","coordinates": [[[[-90.897,14.5829,2366.3359],[-90.904,14.6037,2633.5796],[-90.9019,14.6107,2503.5146],[-90.8953,14.6193,2272.3303],[-90.9033,14.6277,2191.2407],[-90.9149,14.6532,2065.5054],[-90.9138,14.6547,2031.4629],[-90.9162,14.6642,2037.9391],[-90.9196,14.6646,2079.5957],[-90.9235,14.662,2094.9717],[-90.9331,14.6629,2090.0122],[-90.9362,14.6682,2115.5894],[-90.9336,14.6721,2118.8892],[-90.9351,14.6765,2125.8667],[-90.943,14.6803,2134.1692],[-90.9443,14.6877,2144.718],[-90.9529,14.6885,2158.6731],[-90.9527,14.6836,2150.252],[-90.9589,14.6773,2162.2886],[-90.9661,14.6777,2213.9075],[-90.9699,14.6848,2220.2141],[-90.9817,14.6848,2181.2808],[-90.9826,14.6814,2183.8474],[-90.9877,14.6822,2108.3848],[-90.9908,14.6804,2136.9041],[-90.9917,14.6651,2188.8557],[-90.9733,14.6585,2105.5146],[-90.962,14.6453,2142.2847],[-90.9582,14.6486,2059.6824],[-90.9558,14.6482,2063.6655],[-90.95,14.6395,1954.1022],[-90.9559,14.6277,1907.822],[-90.9545,14.6186,1885.2493],[-90.9505,14.6141,1872.308],[-90.9516,14.6085,1914.2336],[-90.9483,14.6038,1750.9012],[-90.9499,14.5918,1607.6747],[-90.942,14.5871,1731.0488],[-90.9378,14.5756,1614.4136],[-90.9198,14.5738,1924.6992],[-90.9142,14.5784,2063.3826],[-90.9099,14.5783,2144.8616],[-90.897,14.5829,2366.3359]]]]}
,"properties": {"GID_2": "GTM.3.6_1","GID_0": "GTM","country": "Guatemala","GID_1": "GTM.3_1","province": "Chimaltenango","NL_NAME_1": "NA","county": "Patzicía","VARNAME_2": "NA","NL_NAME_2": "NA","TYPE_2": "Municipio","ENGTYPE_2": "Municipality","CC_2": "NA","HASC_2": "NA","name": "Patzicía.county","area_km2": 63.88241,"hist_schema_id": "Elevation0-9000","hist_area_km2": {"1575": 0.06156,"1600": 0.04104,"1625": 0.22571,"1650": 0.26675,"1675": 0.30778,"1700": 0.38986,"1725": 0.36933,"1750": 0.43089,"1775": 0.41038,"1800": 0.53349,"1825": 0.63607,"1850": 0.90279,"1875": 0.67709,"1900": 0.63606,"1925": 0.65658,"1950": 1.02587,"1975": 1.0874,"2000": 1.12843,"2025": 1.39512,"2050": 2.27722,"2075": 3.26187,"2100": 8.63619,"2125": 14.09251,"2150": 7.22051,"2175": 3.61042,"2200": 2.89252,"2225": 2.4616,"2250": 1.72319,"2275": 1.45654,"2300": 0.73855,"2325": 0.73861,"2350": 0.7181,"2375": 0.63603,"2400": 0.41034,"2425": 0.4719,"2450": 0.32828,"2475": 0.32827,"2500": 0.24621,"2525": 0.20517,"2550": 0.06155,"2575": 0.08207,"2600": 0.04103,"2625": 0.06155}}}