{"type": "Feature","bbox": [-90.3914,14.1879,-90.1986,14.3309],"geometry": {"type": "MultiPolygon","coordinates": [[[[-90.1988,14.3225,1747.3397],[-90.2063,14.3273,1704.1953],[-90.2148,14.3225,1644.2124],[-90.2391,14.3282,1275.1698],[-90.2375,14.3221,1308.3159],[-90.2435,14.3173,1351.6443],[-90.2479,14.3167,1282.9244],[-90.2535,14.309,1069.7393],[-90.2574,14.2992,986.1876],[-90.2692,14.3033,844.8599],[-90.2699,14.3053,911.7739],[-90.2796,14.3071,909.2321],[-90.2808,14.3099,938.6998],[-90.2887,14.3072,873.4989],[-90.2925,14.3108,923.4771],[-90.2944,14.316,965.6873],[-90.2905,14.3199,975.5621],[-90.2913,14.3266,1095.7997],[-90.3005,14.3309,909.556],[-90.3076,14.3267,1095.519],[-90.3107,14.3307,1155.0735],[-90.3129,14.3309,1229.1812],[-90.3224,14.3275,1302.7769],[-90.3422,14.3097,1214.6962],[-90.3403,14.3067,1185.0602],[-90.3429,14.3023,1232.0967],[-90.3437,14.2857,1220.2935],[-90.3331,14.2813,1031.9814],[-90.3345,14.2742,956.7766],[-90.3307,14.2606,855.2729],[-90.3511,14.248,755.4553],[-90.3532,14.2479,771.6945],[-90.3545,14.2523,902.6953],[-90.3558,14.252,886.6711],[-90.3568,14.244,755.0461],[-90.3642,14.2346,814.6815],[-90.387,14.2308,1179.2091],[-90.3914,14.2181,1216.1309],[-90.3884,14.2051,806.9601],[-90.3765,14.2023,774.2007],[-90.3706,14.1979,675.4663],[-90.3602,14.1994,639.3075],[-90.3498,14.1963,561.686],[-90.3368,14.196,497.594],[-90.3346,14.1941,529.8325],[-90.3343,14.1903,531.4446],[-90.3255,14.1879,916.0963],[-90.3112,14.1988,1109.6014],[-90.3077,14.1958,895.2646],[-90.2972,14.198,1138.1447],[-90.2995,14.2021,1039.5322],[-90.2992,14.2065,975.9137],[-90.2971,14.206,980.7372],[-90.2955,14.2087,975.8169],[-90.2887,14.2317,678.8939],[-90.2837,14.2387,978.7273],[-90.2696,14.2365,1050.3615],[-90.2626,14.2394,1148.9631],[-90.2576,14.2344,1157.8469],[-90.2398,14.2349,1213.8669],[-90.2382,14.2328,1202.9182],[-90.2371,14.2058,942.4399],[-90.2405,14.1967,1088.9377],[-90.2319,14.1937,1066.723],[-90.231,14.1981,964.8715],[-90.2131,14.1997,874.9017],[-90.2106,14.2024,807.3046],[-90.2073,14.212,1026.6198],[-90.2073,14.2202,1130.4343],[-90.2045,14.2239,1134.7668],[-90.2055,14.2266,1144.4902],[-90.214,14.2291,1197.1791],[-90.2177,14.2329,1099.766],[-90.2275,14.2527,775.9393],[-90.2266,14.256,769.9428],[-90.2067,14.2642,899.6824],[-90.2021,14.2727,911.0747],[-90.2059,14.2961,1176.9845],[-90.1986,14.3096,1408.8948],[-90.2002,14.32,1601.6455],[-90.1988,14.3225,1747.3397]]]]}
,"properties": {"GID_2": "GTM.18.4_1","GID_0": "GTM","country": "Guatemala","GID_1": "GTM.18_1","province": "SantaRosa","NL_NAME_1": "NA","county": "Cuilapa","VARNAME_2": "NA","NL_NAME_2": "NA","TYPE_2": "Municipio","ENGTYPE_2": "Municipality","CC_2": "NA","HASC_2": "NA","name": "Cuilapa.county","area_km2": 188.4335,"hist_schema_id": "Elevation0-9000","hist_area_km2": {"500": 1.151,"525": 2.343,"550": 3.3501,"575": 4.0487,"600": 4.768,"625": 5.6722,"650": 5.0351,"675": 4.6857,"700": 4.3157,"725": 6.8433,"750": 9.9872,"775": 9.6786,"800": 7.48,"825": 7.3359,"850": 6.4934,"875": 6.8633,"900": 6.4112,"925": 7.0276,"950": 7.4797,"975": 7.6647,"1000": 6.6782,"1025": 6.822,"1050": 6.5343,"1075": 6.226,"1100": 6.0616,"1125": 5.8766,"1150": 5.4657,"1175": 6.0206,"1200": 4.1712,"1225": 2.5273,"1250": 2.0546,"1275": 1.5614,"1300": 1.4382,"1325": 1.0273,"1350": 0.8629,"1375": 0.7396,"1400": 0.5752,"1425": 0.5958,"1450": 0.452,"1475": 0.3287,"1500": 0.3698,"1525": 0.3082,"1550": 0.3698,"1575": 0.452,"1600": 0.3903,"1625": 0.3082,"1650": 0.3698,"1675": 0.2671,"1700": 0.226,"1725": 0.2876,"1750": 0.2054,"1775": 0.0411,"1800": 0.1027,"1825": 0.0411,"1850": 0.0205,"1875": 0.0205}}}