{"type": "Feature","bbox": [-90.4175,14.4678,-90.2447,14.6231],"geometry": {"type": "MultiPolygon","coordinates": [[[[-90.3793,14.4946,1594.9332],[-90.377,14.4895,1511.0981],[-90.3745,14.4884,1507.668],[-90.3656,14.4939,1440.8464],[-90.3657,14.4966,1466.9813],[-90.3605,14.4964,1557.8892],[-90.3537,14.5029,1611.0684],[-90.337,14.4961,1501.6566],[-90.3359,14.4856,1492.2327],[-90.3326,14.4809,1594.0787],[-90.3308,14.4678,1286.4771],[-90.3276,14.4682,1289.9982],[-90.3244,14.4754,1411.3812],[-90.3221,14.476,1376.5499],[-90.3191,14.4807,1452.2709],[-90.3147,14.482,1460.7205],[-90.314,14.4964,1847.0579],[-90.3028,14.5119,1918.0225],[-90.2978,14.5133,1923.17],[-90.2954,14.5186,1915.2461],[-90.2892,14.5212,1876.4811],[-90.2778,14.5175,1845.9375],[-90.2628,14.5479,2086.5405],[-90.2512,14.5489,1721.7319],[-90.2591,14.5622,2079.0674],[-90.2677,14.6026,1584.993],[-90.2447,14.6213,1474.1646],[-90.2488,14.6216,1593.4836],[-90.2539,14.6186,1702.6859],[-90.2627,14.6176,1858.439],[-90.2677,14.6128,1745.3882],[-90.2769,14.6147,1923.7029],[-90.3098,14.6127,2106.4534],[-90.3185,14.6076,2195.6587],[-90.3183,14.6102,2178.9001],[-90.3394,14.615,2317.4333],[-90.3412,14.61,2185.5496],[-90.3583,14.6189,1824.1779],[-90.3596,14.6231,1813.0282],[-90.3904,14.6145,1454.9629],[-90.4073,14.6134,1421.415],[-90.4108,14.6068,1517.2039],[-90.4024,14.5876,1646.5076],[-90.4017,14.57,1724.3357],[-90.4092,14.566,1729.3461],[-90.415,14.5661,1779.5156],[-90.4175,14.5553,1755.9873],[-90.4161,14.5481,1753.4385],[-90.4048,14.5359,1718.2261],[-90.3907,14.5338,1717.578],[-90.3806,14.5237,1750.1353],[-90.3811,14.5073,1760.4285],[-90.3835,14.5023,1812.2777],[-90.3793,14.4946,1594.9332]]]]}
,"properties": {"GID_2": "GTM.7.9_1","GID_0": "GTM","country": "Guatemala","GID_1": "GTM.7_1","province": "Guatemala","NL_NAME_1": "NA","county": "SanJoséPinula","VARNAME_2": "NA","NL_NAME_2": "NA","TYPE_2": "Municipio","ENGTYPE_2": "Municipality","CC_2": "NA","HASC_2": "NA","name": "San_José_Pinula.county","area_km2": 187.6471,"hist_schema_id": "Elevation0-9000","hist_area_km2": {"1275": 0.0821,"1300": 0.1026,"1325": 0.1437,"1350": 0.1026,"1375": 0.1437,"1400": 0.3078,"1425": 0.8824,"1450": 1.8672,"1475": 2.4625,"1500": 3.3448,"1525": 3.1192,"1550": 3.776,"1575": 3.6529,"1600": 4.1658,"1625": 4.5763,"1650": 6.4847,"1675": 6.9774,"1700": 8.0857,"1725": 10.8359,"1750": 8.8044,"1775": 3.961,"1800": 3.735,"1825": 4.1454,"1850": 3.2425,"1875": 3.4476,"1900": 3.6735,"1925": 3.7759,"1950": 3.8991,"1975": 4.1248,"2000": 3.6323,"2025": 4.1657,"2050": 4.412,"2075": 4.9044,"2100": 6.423,"2125": 7.7363,"2150": 6.7718,"2175": 6.6282,"2200": 5.8894,"2225": 6.3409,"2250": 5.2123,"2275": 4.5146,"2300": 4.9454,"2325": 3.6321,"2350": 2.8113,"2375": 1.9289,"2400": 1.58,"2425": 1.0055,"2450": 0.3488,"2475": 0.3283,"2500": 0.2463,"2525": 0.1847,"2550": 0.0821}}}