{"type": "Feature","bbox": [-89.9217,16.2903,-89.1613,16.9405],"geometry": {"type": "MultiPolygon","coordinates": [[[[-89.1613,16.8239,433.0445],[-89.1624,16.8236,421.8074],[-89.1623,16.825,433.0445],[-89.3481,16.8248,195.5887],[-89.3484,16.9405,157.1112],[-89.551,16.9265,315.8572],[-89.5514,16.6569,288.4594],[-89.7344,16.6545,196.1524],[-89.7317,16.6577,202.5499],[-89.732,16.6594,175.24],[-89.739,16.6547,157.8741],[-89.7425,16.6542,151.6022],[-89.7869,16.6542,151.191],[-89.7845,16.6563,153.6884],[-89.7865,16.6577,152.5979],[-89.7922,16.6545,147.4259],[-89.9204,16.6542,135.011],[-89.9217,16.5008,146.7618],[-89.8765,16.4417,200.752],[-89.9075,16.2903,140.1301],[-89.8982,16.2955,140.682],[-89.894,16.2997,140.0578],[-89.8918,16.2987,141.5614],[-89.8913,16.3002,144.1351],[-89.8906,16.2992,144.1351],[-89.8832,16.3039,142.4076],[-89.8797,16.3043,143.8061],[-89.8818,16.3083,144.7292],[-89.8799,16.3096,145.5231],[-89.88,16.3135,145.8802],[-89.8844,16.3144,149.2806],[-89.8872,16.3236,146.8729],[-89.887,16.3266,142.4063],[-89.8851,16.3284,145.0354],[-89.8796,16.3298,147.1208],[-89.8778,16.3281,146.5193],[-89.8756,16.33,150.4017],[-89.8746,16.3287,148.3706],[-89.8686,16.3305,173.8121],[-89.8656,16.327,164.3134],[-89.8596,16.329,190.7298],[-89.8574,16.3276,172.3532],[-89.8494,16.342,165.844],[-89.8445,16.3415,190.4413],[-89.8415,16.343,196.2805],[-89.8415,16.3495,195.3138],[-89.8372,16.3495,178.3958],[-89.8332,16.3555,190.2462],[-89.8248,16.3625,179.1705],[-89.1788,16.5116,575.5002],[-89.1674,16.6786,606.5527],[-89.171,16.6786,583.4801],[-89.1613,16.8239,433.0445]]]]}
,"properties": {"GID_2": "GTM.12.1_1","GID_0": "GTM","country": "Guatemala","GID_1": "GTM.12_1","province": "Petén","NL_NAME_1": "NA","county": "Dolores","VARNAME_2": "NA","NL_NAME_2": "NA","TYPE_2": "Municipio","ENGTYPE_2": "Municipality","CC_2": "NA","HASC_2": "NA","name": "Dolores.county","area_km2": 3027.125,"hist_schema_id": "Elevation0-9000","hist_area_km2": {"125": 4.999,"150": 129.062,"175": 315.347,"200": 407.063,"225": 358.289,"250": 256.349,"275": 190.729,"300": 181.073,"325": 205.861,"350": 164.741,"375": 153.048,"400": 140.667,"425": 122.307,"450": 113.821,"475": 78.804,"500": 48.245,"525": 34.549,"550": 24.591,"575": 21.847,"600": 21.705,"625": 16.361,"650": 11.911,"675": 7.765,"700": 6.159,"725": 3.964,"750": 3.537,"775": 2.216,"800": 1.687,"825": 0.366,"850": 0.061}}}