{"type": "Feature","bbox": [-90.8139,14.6184,-90.7534,14.7316],"geometry": {"type": "MultiPolygon","coordinates": [[[[-90.8126,14.6184,1764.1072],[-90.7907,14.6242,1680.5103],[-90.7828,14.632,1775.8973],[-90.7775,14.6271,1754.7562],[-90.7782,14.6342,1747.0988],[-90.7747,14.6401,1779.1458],[-90.7684,14.6429,1785.9569],[-90.7635,14.6505,1957.4154],[-90.7592,14.6619,1974.8699],[-90.7708,14.6902,1746.8354],[-90.766,14.7094,1631.8812],[-90.7625,14.7086,1640.1913],[-90.7593,14.711,1561.5529],[-90.7534,14.7219,1500.9165],[-90.7593,14.7316,1455.9072],[-90.764,14.7304,1492.4359],[-90.7685,14.7249,1589.9736],[-90.7796,14.7211,1614.0936],[-90.7847,14.7172,1620.5674],[-90.7941,14.6995,1778.7543],[-90.7989,14.6884,1786.46],[-90.802,14.6754,1766.63],[-90.8128,14.6597,1783.2104],[-90.8139,14.6465,1770.5222],[-90.8113,14.6264,1765.1848],[-90.8126,14.6184,1764.1072]]]]}
,"properties": {"GID_2": "GTM.3.4_1","GID_0": "GTM","country": "Guatemala","GID_1": "GTM.3_1","province": "Chimaltenango","NL_NAME_1": "NA","county": "ElTejar","VARNAME_2": "NA","NL_NAME_2": "NA","TYPE_2": "Municipio","ENGTYPE_2": "Municipality","CC_2": "NA","HASC_2": "NA","name": "El_Tejar.county","area_km2": 43.64743,"hist_schema_id": "Elevation0-9000","hist_area_km2": {"1375": 0.04101,"1400": 0.06152,"1425": 0.16405,"1450": 0.22556,"1475": 0.16405,"1500": 0.38962,"1525": 0.20506,"1550": 0.22557,"1575": 0.45114,"1600": 0.92279,"1625": 0.9228,"1650": 1.16892,"1675": 1.4766,"1700": 2.11253,"1725": 2.25612,"1750": 6.76917,"1775": 13.80457,"1800": 2.35872,"1825": 1.62037,"1850": 1.64089,"1875": 1.43582,"1900": 1.55888,"1925": 1.82555,"1950": 1.43586,"1975": 0.36923,"2000": 0.04103}}}