{"type": "Feature","id": "1943","bbox": [-92.10593,15.15597,-90.9948,16.06987],"geometry": {"type": "Polygon","coordinates": [[[-91.26272,15.62701,1713.9773],[-91.25941,15.62763,2009.5024],[-91.23241,15.64607,1132.599],[-91.22841,15.65163,1021.3245],[-91.22432,15.65253,1158.6658],[-91.21569,15.65331,836.4499],[-91.21205,15.65465,1226.4817],[-91.21003,15.65636,1195.5044],[-91.21084,15.65881,938.8677],[-91.21202,15.66049,797.038],[-91.21329,15.66708,943.701],[-91.19458,15.68457,746.6249],[-91.19226,15.68778,776.1992],[-91.12717,15.81596,386.5684],[-91.11743,15.83428,310.8049],[-90.9948,16.06987,194.9662],[-91.12691,16.06977,217.007],[-91.26479,16.06951,334.215],[-91.40261,16.0693,726.9376],[-91.54048,16.06915,1074.621],[-91.6784,16.06889,1523.2202],[-91.72378,16.06879,1622.6132],[-91.73985,16.06098,1552.5161],[-91.75189,16.04631,1322.5061],[-91.77447,16.00843,1107.8949],[-91.79297,15.97758,1081.1937],[-91.84168,15.89609,671.3491],[-91.91056,15.78095,650.1542],[-91.9896,15.64897,933.6301],[-92.06854,15.51694,1871.8501],[-92.10593,15.45447,896.2643],[-92.09977,15.43361,1004.9493],[-92.08246,15.4126,1243.4479],[-92.06755,15.40712,1012.2914],[-92.06502,15.39229,1324.2285],[-92.05523,15.2885,2267.3564],[-92.04407,15.28015,2300.7539],[-91.99298,15.2779,2564.2896],[-91.99025,15.28116,2542.7419],[-91.95658,15.31894,2072.0142],[-91.94288,15.32741,2426.7959],[-91.91025,15.32984,2403.3657],[-91.87994,15.34818,1852.2778],[-91.86291,15.35829,1714.897],[-91.85622,15.36069,1727.043],[-91.84961,15.36123,1681.0897],[-91.8408,15.35728,1763.5903],[-91.80682,15.33656,2220.6797],[-91.78563,15.33496,1978.7249],[-91.73111,15.34994,2119.9482],[-91.71574,15.35012,1473.5762],[-91.71499,15.34632,1483.4427],[-91.71008,15.33291,1649.4177],[-91.69595,15.30808,1666.7346],[-91.67939,15.28586,1642.1902],[-91.66094,15.26648,1865.9169],[-91.64117,15.25036,1826.3145],[-91.63127,15.24364,1712.9878],[-91.62128,15.23429,1730.917],[-91.61611,15.22088,1699.7518],[-91.5489,15.20401,2121.0635],[-91.54136,15.19806,2016.2708],[-91.54172,15.1883,1990.8484],[-91.53841,15.17897,2002.1018],[-91.51883,15.15597,2058.282],[-91.48519,15.15773,1960.8008],[-91.48141,15.15939,1964.5178],[-91.47705,15.16181,1849.6449],[-91.47645,15.16486,1902.8007],[-91.4742,15.19,1736.3652],[-91.47351,15.19266,1755.8223],[-91.46756,15.20388,1767.9656],[-91.45439,15.22269,1719.582],[-91.45082,15.22638,1739.1919],[-91.44578,15.22879,1723.2173],[-91.43581,15.2315,1644.6783],[-91.39248,15.24124,1842.2526],[-91.37692,15.25233,2020.7939],[-91.35279,15.26282,1815.9517],[-91.34111,15.26491,1733.3008],[-91.31535,15.26315,1676.0414],[-91.31086,15.27165,1419.9852],[-91.30287,15.2769,1514.5258],[-91.25949,15.28465,1345.5592],[-91.23683,15.29194,1457.4092],[-91.22776,15.29217,1385.7212],[-91.20329,15.28788,1318.2517],[-91.19451,15.28881,1286.0414],[-91.17908,15.29225,1446.6603],[-91.18404,15.31227,1657.8481],[-91.18978,15.3272,1494.7583],[-91.19078,15.33291,1713.3367],[-91.18218,15.36875,2220.6553],[-91.18438,15.38679,2170.2136],[-91.21202,15.39932,2115.2163],[-91.22474,15.40177,2444.7085],[-91.25393,15.39831,3034.7468],[-91.25962,15.39847,3110.3525],[-91.26357,15.39929,3123.4607],[-91.28238,15.41632,3214.7222],[-91.28858,15.42306,3230.6621],[-91.29437,15.43167,3232.9067],[-91.29858,15.44133,3243.1089],[-91.29977,15.44696,3291.2485],[-91.2998,15.45965,3098.1809],[-91.30055,15.4627,3032.4709],[-91.3022,15.46583,2954.8184],[-91.32222,15.48924,2913.1167],[-91.32525,15.49371,2919.4988],[-91.32628,15.49593,2966.1294],[-91.32765,15.49797,3045.9878],[-91.3299,15.50252,3267.572],[-91.33083,15.50515,3276.0479],[-91.3315,15.50784,3303.312],[-91.33222,15.51399,3075.3979],[-91.3322,15.51714,2985.7959],[-91.33176,15.52032,2957.2812],[-91.33114,15.52301,2858.4907],[-91.32917,15.52781,2795.2607],[-91.32354,15.5368,2711.9065],[-91.3222,15.56003,2282.8079],[-91.32116,15.56357,2117.3999],[-91.31881,15.56939,2150.5742],[-91.31556,15.57417,2189.9656],[-91.30974,15.58538,2399.7212],[-91.30713,15.59484,2056.0105],[-91.30569,15.60688,1794.5029],[-91.30341,15.61099,2094.6938],[-91.3006,15.61292,2027.8337],[-91.29747,15.61261,2003.0542],[-91.29367,15.61318,1920.7463],[-91.28949,15.6145,2119.8411],[-91.27721,15.62478,1854.7859],[-91.27489,15.62595,1822.2402],[-91.27218,15.62664,1791.9685],[-91.26913,15.62703,1771.3025],[-91.26272,15.62701,1713.9773]]]}
,"properties": {"ISO3166-1-Alpha-3": "GTM","country": "Guatemala","fill": "#F0F","name": "Huehuetenango","area_km2": 7318.314,"hist_schema_id": "Elevation0-9000","hist_area_km2": {"175": 10.229,"200": 59.137,"225": 103.94,"250": 75.971,"275": 53.619,"300": 40.005,"325": 28.199,"350": 21.57,"375": 16.168,"400": 13.661,"425": 11.805,"450": 12.703,"475": 14.517,"500": 14.742,"525": 13.804,"550": 13.374,"575": 13.68,"600": 13.58,"625": 20.432,"650": 37.526,"675": 64.849,"700": 49.214,"725": 72.427,"750": 67.041,"775": 53.982,"800": 48.227,"825": 50.717,"850": 52.043,"875": 49.799,"900": 49.876,"925": 51.164,"950": 49.023,"975": 48.269,"1000": 45.496,"1025": 48.392,"1050": 49.352,"1075": 52.105,"1100": 50.065,"1125": 50.309,"1150": 57.483,"1175": 58.063,"1200": 56.978,"1225": 64.119,"1250": 70.074,"1275": 69.59,"1300": 62.62,"1325": 65.036,"1350": 62.532,"1375": 62.671,"1400": 66.733,"1425": 67.654,"1450": 68.232,"1475": 64.601,"1500": 68.643,"1525": 68.847,"1550": 73.421,"1575": 75.578,"1600": 80.442,"1625": 77.981,"1650": 79.72,"1675": 81.733,"1700": 87.692,"1725": 94.096,"1750": 91.607,"1775": 91.492,"1800": 89.923,"1825": 95.692,"1850": 97.6,"1875": 113.674,"1900": 101.156,"1925": 98.434,"1950": 98.619,"1975": 99.533,"2000": 95.098,"2025": 98.519,"2050": 91.117,"2075": 90.567,"2100": 88.626,"2125": 78.627,"2150": 79.154,"2175": 80.335,"2200": 76.488,"2225": 72.584,"2250": 72.963,"2275": 70.51,"2300": 67.325,"2325": 67.12,"2350": 64.344,"2375": 62.852,"2400": 61.788,"2425": 62.093,"2450": 62.052,"2475": 58.092,"2500": 56.458,"2525": 54.169,"2550": 53.799,"2575": 52.144,"2600": 51.286,"2625": 50.386,"2650": 51.936,"2675": 48.998,"2700": 49.304,"2725": 47.426,"2750": 48.122,"2775": 49.608,"2800": 46.893,"2825": 47.222,"2850": 44.567,"2875": 39.138,"2900": 38.016,"2925": 36.386,"2950": 33.592,"2975": 32.535,"3000": 31.741,"3025": 29.819,"3050": 30.619,"3075": 30.766,"3100": 35.039,"3125": 35.509,"3150": 46.301,"3175": 39.374,"3200": 32.754,"3225": 36.084,"3250": 29.423,"3275": 25.397,"3300": 19.859,"3325": 17.876,"3350": 17.017,"3375": 16.629,"3400": 17.037,"3425": 17.322,"3450": 18.466,"3475": 13.422,"3500": 11.134,"3525": 10.726,"3550": 10.705,"3575": 10.889,"3600": 8.417,"3625": 6.108,"3650": 6.252,"3675": 5.435,"3700": 8.621,"3725": 7.947,"3750": 3.82,"3775": 1.41,"3800": 0.756,"3825": 0.102}}}