{"type": "Feature","bbox": [-92.1183,15.134,-90.9574,16.0743],"geometry": {"type": "MultiPolygon","coordinates": [[[[-91.6636,15.2926,2005.0183],[-91.6227,15.2345,1671.405],[-91.5805,15.2333,2002.6521],[-91.5692,15.2244,2194.0305],[-91.52,15.2056,1879.7032],[-91.5115,15.1455,2084.0],[-91.4662,15.134,2031.7045],[-91.3882,15.1373,1767.527],[-91.3815,15.2107,1612.1967],[-91.3721,15.2126,1660.4978],[-91.3613,15.2261,1614.38],[-91.3551,15.2296,1639.1677],[-91.347,15.2315,1642.7617],[-91.343,15.2344,1643.0432],[-91.3401,15.2331,1654.5209],[-91.3276,15.2343,1569.1865],[-91.3198,15.2494,1517.8359],[-91.3262,15.265,1529.2463],[-91.3214,15.272,1456.4347],[-91.3072,15.2733,1560.2327],[-91.2895,15.2809,1441.5643],[-91.2827,15.2806,1553.0009],[-91.2646,15.2683,1346.1176],[-91.2318,15.2848,1294.2942],[-91.2193,15.2863,1300.7395],[-91.196,15.2855,1236.8107],[-91.1887,15.2873,1276.5824],[-91.1843,15.3002,1634.7678],[-91.1838,15.3172,1465.3812],[-91.1782,15.3356,1756.3926],[-91.1638,15.3509,2053.5146],[-91.1582,15.3618,2235.5474],[-91.1466,15.3744,2633.9863],[-91.1598,15.3773,2627.7612],[-91.1645,15.3863,2353.5879],[-91.171,15.3911,2398.1243],[-91.2184,15.3876,2474.05],[-91.2472,15.3879,2961.7131],[-91.2796,15.4196,3189.6328],[-91.2927,15.4277,3223.0601],[-91.3126,15.4549,3311.8665],[-91.3152,15.4635,3217.4348],[-91.316,15.4722,3177.2029],[-91.3108,15.4766,2785.5073],[-91.3108,15.5037,2716.8931],[-91.3123,15.5083,2876.0059],[-91.3111,15.5112,2756.8176],[-91.3134,15.5208,2924.8962],[-91.3128,15.5357,2813.6892],[-91.3046,15.5593,2466.9578],[-91.2971,15.5684,2216.499],[-91.2816,15.5756,1962.6378],[-91.2629,15.5946,2344.2268],[-91.2755,15.6005,1980.6078],[-91.2751,15.6062,1876.4402],[-91.2576,15.6239,1712.2446],[-91.2398,15.626,1289.6827],[-91.2348,15.6247,1659.3298],[-91.2206,15.6371,1426.7952],[-91.2128,15.6519,1078.7408],[-91.2094,15.6554,1296.2278],[-91.1988,15.6567,1386.4363],[-91.1974,15.6672,663.1033],[-91.1906,15.6678,962.0894],[-91.1837,15.6656,796.1811],[-91.0995,15.8154,285.9011],[-91.0807,15.8451,303.3654],[-90.9574,16.0737,153.8566],[-91.0589,16.0723,227.3688],[-91.0593,16.0743,209.714],[-91.7314,16.074,1525.922],[-91.9568,15.6943,817.0747],[-92.1183,15.4188,1056.7264],[-92.1045,15.4016,1150.1534],[-92.0809,15.3934,1391.6815],[-92.077,15.2764,2633.085],[-92.0112,15.2621,2887.7319],[-91.9569,15.3192,2072.0142],[-91.9397,15.3185,2521.9417],[-91.8809,15.3616,1842.6699],[-91.8231,15.3278,2113.8892],[-91.7947,15.3287,2384.8057],[-91.764,15.3434,2218.7888],[-91.7498,15.3403,2266.2524],[-91.7447,15.3409,2181.2278],[-91.7415,15.3455,2302.1877],[-91.7309,15.3447,2028.2378],[-91.7293,15.3425,2040.079],[-91.7073,15.3369,1785.134],[-91.6988,15.3238,1907.7935],[-91.6821,15.3042,1815.8674],[-91.6636,15.2926,2005.0183]]]]}
,"properties": {"GID_1": "GTM.8_1","GID_0": "GTM","country": "Guatemala","province": "Huehuetenango","VARNAME_1": "NA","NL_NAME_1": "NA","TYPE_1": "Departamento","ENGTYPE_1": "Department","CC_1": "NA","HASC_1": "GT.HU","ISO_1": "GT-13","name": "Huehuetenango.province","area_km2": 7675.245,"hist_schema_id": "Elevation0-9000","hist_area_km2": {"150": 0.224,"175": 15.913,"200": 73.909,"225": 124.667,"250": 101.923,"275": 72.01,"300": 54.646,"325": 36.457,"350": 24.282,"375": 17.697,"400": 15.169,"425": 13.538,"450": 14.619,"475": 16.25,"500": 15.945,"525": 14.823,"550": 14.455,"575": 14.863,"600": 14.334,"625": 19.82,"650": 35.67,"675": 61.954,"700": 47.826,"725": 71.141,"750": 66.612,"775": 54.736,"800": 49.552,"825": 52.347,"850": 53.531,"875": 51.145,"900": 51.835,"925": 53.552,"950": 51.227,"975": 49.78,"1000": 47.149,"1025": 49.923,"1050": 51.068,"1075": 53.412,"1100": 50.373,"1125": 51.922,"1150": 59.117,"1175": 59.329,"1200": 57.98,"1225": 64.977,"1250": 71.647,"1275": 71.123,"1300": 64.541,"1325": 66.956,"1350": 65.086,"1375": 65.734,"1400": 69.918,"1425": 70.165,"1450": 70.948,"1475": 67.236,"1500": 71.482,"1525": 72.175,"1550": 77.342,"1575": 80.051,"1600": 85.978,"1625": 84.069,"1650": 86.444,"1675": 88.848,"1700": 95.973,"1725": 103.81,"1750": 103.101,"1775": 103.847,"1800": 103.586,"1825": 108.294,"1850": 110.407,"1875": 124.23,"1900": 109.707,"1925": 104.059,"1950": 102.014,"1975": 101.68,"2000": 97.695,"2025": 100.625,"2050": 92.773,"2075": 91.323,"2100": 89.34,"2125": 78.994,"2150": 79.296,"2175": 80.621,"2200": 76.835,"2225": 73.38,"2250": 74.026,"2275": 71.552,"2300": 68.572,"2325": 68.061,"2350": 65.223,"2375": 63.547,"2400": 62.361,"2425": 62.788,"2450": 62.522,"2475": 58.705,"2500": 57.439,"2525": 54.925,"2550": 54.719,"2575": 53.33,"2600": 52.145,"2625": 51.306,"2650": 53.041,"2675": 50.082,"2700": 50.204,"2725": 48.428,"2750": 49.43,"2775": 50.855,"2800": 48.058,"2825": 48.243,"2850": 45.732,"2875": 40.589,"2900": 38.956,"2925": 37.469,"2950": 34.328,"2975": 32.842,"3000": 31.884,"3025": 29.717,"3050": 30.803,"3075": 30.93,"3100": 35.386,"3125": 35.631,"3150": 46.546,"3175": 39.66,"3200": 32.958,"3225": 36.309,"3250": 29.034,"3275": 24.804,"3300": 19.307,"3325": 17.61,"3350": 16.956,"3375": 16.629,"3400": 17.037,"3425": 17.322,"3450": 18.466,"3475": 13.422,"3500": 11.134,"3525": 10.726,"3550": 10.705,"3575": 10.889,"3600": 8.417,"3625": 6.108,"3650": 6.252,"3675": 5.435,"3700": 8.621,"3725": 7.947,"3750": 3.82,"3775": 1.41,"3800": 0.756,"3825": 0.102}}}