{"type":"Feature","properties":{"featurecla":"River","scalerank":7,"rivernum":498,"dissolve":"498River","name":"Cuilco1","name_alt":null,"note":null,"min_zoom":6.0,"strokeweig":0.2,"name_en":"Cuilco","min_label":7.0},
"geometry":{"type": "LineString","coordinates": [[-91.641284179687489,15.250262762494117,1826.3145],[-91.660986328124991,15.266376043744117,1865.9169],[-91.679492187499989,15.28571198124412,1642.1902],[-91.696044921875,15.30792877811912,1666.7346],[-91.710205078125,15.332782293744117,1649.4177],[-91.715087890625,15.346210028119117,1483.4427],[-91.720068359374991,15.37116119999412,1520.8412],[-91.723193359374989,15.38056061405662,1473.8883],[-91.740234375,15.398456121869117,1454.7373],[-91.763037109374991,15.40485260624412,1661.0953],[-92.06005859375,15.404169012494123,1127.9775],[-92.08251953125,15.412469793744123,1243.4479],[-92.099902343749989,15.433465887494123,1004.9493],[-92.108984374999991,15.46430084843162,939.5013],[-92.115966796875,15.528436590619123,734.3903],[-92.1279296875,15.558710028119123,801.1437],[-92.150561523437489,15.58746979374412,826.7483],[-92.161376953125,15.60578034061912,1049.6233],[-92.158300781249991,15.61395905155662,684.1865],[-92.151611328125,15.62287018436912,659.2203],[-92.14990234375,15.64350006718162,661.8976],[-92.151660156249989,15.666376043744123,643.0045],[-92.155200195312489,15.682245184369123,616.0697],[-92.167089843749991,15.700702215619117,626.8896],[-92.216650390624991,15.750506903119117,702.4124],[-92.230322265624991,15.77130768436912,680.3291],[-92.232519531249991,15.787372137494117,564.4985],[-92.223193359374989,15.80390045780662,664.2971],[-92.202392578125,15.82623932499412,549.0823]]}}