{"type":"Feature","properties":{"featurecla":"River","scalerank":10,"rivernum":22188,"dissolve":"22188River","name":"Rio Azul","name_alt":null,"note":"ID is link back to CEC data","name_full":null,"min_zoom":6.0,"strokeweig":0.15,"uident":2080601,"min_label":7.0},
"geometry":{"type": "LineString","coordinates": [[-91.903920051166224,15.806097723431535,622.5377],[-91.899281379291224,15.787787176556535,650.8248],[-91.864857551166224,15.765977280723206,710.0981],[-91.836537238666224,15.772080796348206,752.1284],[-91.809437629291224,15.766465561973206,813.667],[-91.7709041006454,15.740830796348206,906.3356],[-91.762521939187067,15.716416733848206,1127.8118],[-91.736561652728724,15.690130926556535,1107.699],[-91.655344204812067,15.639268296348206,1629.0657],[-91.637928840228724,15.595241603639863,2377.0215],[-91.622141079812067,15.583766994264863,2131.9233],[-91.559193488666224,15.569606838014863,3446.29]]}}