{"type": "Feature","bbox": [-90.5073,14.5575,-90.4755,14.6216],"geometry": {"type": "MultiPolygon","coordinates": [[[[-90.4764,14.5864,1639.145],[-90.4841,14.5888,1545.3507],[-90.4887,14.5931,1548.8267],[-90.4898,14.5963,1510.0415],[-90.493,14.5972,1516.1812],[-90.4921,14.5994,1509.463],[-90.4892,14.6004,1493.1622],[-90.4914,14.6051,1500.4668],[-90.4959,14.6092,1462.553],[-90.494,14.6216,1425.859],[-90.4976,14.6211,1484.3202],[-90.5052,14.6147,1497.2853],[-90.5073,14.6097,1500.8796],[-90.5043,14.5963,1506.9855],[-90.5004,14.5879,1521.2393],[-90.4955,14.5814,1537.0864],[-90.4903,14.5787,1557.8342],[-90.4876,14.5795,1570.2266],[-90.4879,14.5764,1596.3336],[-90.4942,14.5748,1518.7139],[-90.4935,14.5612,1641.2332],[-90.4887,14.5575,1736.7407],[-90.4852,14.5593,1695.8857],[-90.4853,14.5668,1695.9222],[-90.4777,14.5681,1835.1665],[-90.4755,14.5814,1790.1853],[-90.4764,14.5864,1639.145]]]]}
,"properties": {"GID_2": "GTM.7.23_1","GID_0": "GTM","country": "Guatemala","GID_1": "GTM.7_1","province": "Guatemala","NL_NAME_1": "NA","county": "ZONA15","VARNAME_2": "NA","NL_NAME_2": "NA","TYPE_2": "Municipio","ENGTYPE_2": "Municipality","CC_2": "NA","HASC_2": "NA","name": "Z_O_N_A15.county","area_km2": 10.115672,"hist_schema_id": "Elevation0-9000","hist_area_km2": {"1425": 0.020516,"1450": 0.410325,"1475": 1.27204,"1500": 2.236401,"1525": 0.861776,"1550": 1.333728,"1575": 0.759215,"1600": 0.533516,"1625": 0.759248,"1650": 0.574574,"1675": 0.451446,"1700": 0.184683,"1725": 0.246244,"1750": 0.164161,"1775": 0.2052,"1800": 0.08208,"1825": 0.02052}}}