{"type":"Feature","properties":{"featurecla":"Lake","scalerank":5,"name":"Lago de Izabal","name_abb":"L. de Izabal","name_alt":null,"note":null,"delta":null,"dam_name":null,"year":-99,"admin":null,"min_zoom":4.7,"min_label":6.0},
"geometry":{"type": "Polygon","coordinates": [[[-88.83143608915563,15.764195878354343,4.6544],[-88.830258632647116,15.783329546617892,15.4473],[-88.840414195033148,15.790099921541923,17.714],[-88.853071852499809,15.78480136725355,0.0],[-88.85940068123314,15.767433883752801,0.0],[-88.8673485126657,15.75565931866754,0.0],[-88.8850103602936,15.74388475358225,1.7453],[-88.9035553003029,15.736231286276848,0.0],[-88.9207756017401,15.736820014531105,11.7573],[-88.921805876185061,15.732110188496989,5.5313],[-88.922394604439319,15.730932731988474,0.0],[-88.923719243011419,15.730932731988474,0.0],[-88.927693158727692,15.729460911352817,1.2192],[-88.936524082541638,15.723279264683043,9.4468],[-88.940497998257925,15.718275074521813,11.6914],[-88.941381090639311,15.71297652023344,0.0],[-88.941233908575754,15.705617417055151,0.0],[-88.94344163952924,15.695609036732662,5.9183],[-88.949034557944742,15.69207666720709,8.5221],[-88.956688025250159,15.690016118317175,11.6012],[-88.973466780496665,15.679419009740428,4.8702],[-88.989362443361784,15.67294299894354,0.0],[-88.996427182412944,15.667938808782282,0.0],[-89.003344739400532,15.659990977349736,4.0619],[-89.011292570833092,15.647333319883074,27.9902],[-89.066485844670282,15.597585782397829,1.4754],[-89.081498415153987,15.592287228109456,4.7904],[-89.098129988336936,15.589049222710997,5.4976],[-89.135367050419092,15.575508472862936,1.8074],[-89.153617626301255,15.572859195718763,2.1912],[-89.164361916941559,15.575508472862936,2.4376],[-89.175400571708991,15.584045032549767,12.174],[-89.18452585965008,15.586105581439682,21.2564],[-89.1926208731462,15.584045032549767,25.5699],[-89.206161622994259,15.574919744608678,4.2621],[-89.212196087600447,15.572859195718763,2.5065],[-89.235009307453154,15.569032462066048,10.9405],[-89.243251503012843,15.559024081743587,0.0],[-89.247225418729116,15.545483331895525,1.0854],[-89.25723379905159,15.531353853793206,0.2262],[-89.268714000009737,15.524583478869175,4.0853],[-89.279458290650041,15.522817294106375,1.2983],[-89.342305031792648,15.524583478869175,5.7241],[-89.364676705454656,15.518990560453659,5.0048],[-89.378364637366275,15.506038538859883,4.7139],[-89.390433566578679,15.491909060757564,8.7879],[-89.407506685952313,15.48307813694359,5.8698],[-89.407506685952313,15.476013397892444,7.0659],[-89.39676239531201,15.476602126146702,0.0],[-89.391463841023636,15.475424669638187,0.0],[-89.388961745943021,15.471303571858328,0.0],[-89.386312468798835,15.46306137629864,2.2801],[-89.380130822129075,15.46306137629864,0.0],[-89.3636464310097,15.468065566459899,0.0],[-89.343924034491877,15.461883919790125,0.0],[-89.332002287343045,15.449226262323464,0.0],[-89.3390670263942,15.435096784221145,2.9311],[-89.3390670263942,15.428915137551371,3.4422],[-89.3274396433725,15.417434936593253,0.0],[-89.331119194961644,15.406249099762249,7.3219],[-89.336859295440718,15.394180170549845,0.0],[-89.331707923215916,15.380639420701783,0.0],[-89.316989716859325,15.365332486090921,0.0],[-89.291085673671745,15.37534086641341,0.0],[-89.26518163048415,15.396535083566903,0.0],[-89.249727513809745,15.414785659449052,3.4283],[-89.25311270127176,15.415080023576195,2.2624],[-89.263415445721364,15.414785659449052,1.4596],[-89.263415445721364,15.421556034373083,0.0],[-89.177166756471777,15.408309648652164,0.0],[-89.147435979631481,15.408015284525021,0.0],[-89.117852384854757,15.415374387703309,0.0],[-89.089004700395847,15.429503865805628,0.0],[-88.997163092730773,15.50397798996994,0.0],[-88.989068079234642,15.507510359495541,0.0],[-88.989509625425342,15.540479141734266,0.0],[-88.991717356378828,15.556374804599386,0.0],[-89.0017257367013,15.589637950965255,1.0451],[-89.0026088290827,15.596113961762171,0.0],[-89.002756011146275,15.603178700813316,0.0],[-88.998782095429988,15.61024343986449,5.0043],[-88.984505435264111,15.629965836382297,1.619],[-88.985682891772626,15.633792570035013,2.6601],[-88.991128628124571,15.639091124323386,12.1758],[-88.987007530344727,15.650571325281533,2.7771],[-88.975380147323023,15.667938808782282,4.1893],[-88.968315408271863,15.670588085926482,2.4459],[-88.941233908575754,15.674709183706312,7.9639],[-88.935640990160252,15.681479558630343,5.7476],[-88.92916497936335,15.691487938952832,13.0732],[-88.921069965867233,15.697375221495463,0.0],[-88.900906023158711,15.687072477045859,5.6896],[-88.890603278709108,15.689133025935774,0.0],[-88.882508265212977,15.69619776498692,7.59],[-88.879123077750961,15.705617417055151,2.0791],[-88.87279424901763,15.716803253886155,0.0],[-88.842033197732377,15.748594579616366,2.2304],[-88.83143608915563,15.764195878354343,4.6544]]]}}