{"type":"Feature","properties":{"GID_2":"GTM.19.9_1","GID_0":"GTM","country":"Guatemala","GID_1":"GTM.19_1","province":"Sololá","NL_NAME_1":"NA","county":"SanLucasTolimán","VARNAME_2":"NA","NL_NAME_2":"NA","TYPE_2":"Municipio","ENGTYPE_2":"Municipality","CC_2":"NA","HASC_2":"NA","name":"San_Lucas_Tolimán.county"},
"geometry":{"type": "MultiPolygon","coordinates": [[[[-91.1096,14.6235,1445.3402],[-91.1149,14.628,1663.6838],[-91.1197,14.6296,1738.5419],[-91.1338,14.6316,1881.2826],[-91.1384,14.6348,1562.3849],[-91.1404,14.6332,1625.2522],[-91.1418,14.6339,1581.1647],[-91.14,14.638,1558.5419],[-91.1457,14.6393,1597.488],[-91.1421,14.643,1559.8036],[-91.1423,14.6529,1555.5],[-91.1446,14.6531,1555.5],[-91.1466,14.6562,1555.5],[-91.1522,14.6564,1556.469],[-91.1669,14.6409,1880.2747],[-91.1732,14.6289,2227.855],[-91.1829,14.5966,2704.5283],[-91.1808,14.5908,2912.9951],[-91.1752,14.5867,2692.1047],[-91.1688,14.577,2298.7896],[-91.1722,14.5572,1906.0552],[-91.1595,14.554,1480.1638],[-91.16,14.5582,1519.4214],[-91.1436,14.5513,1096.4547],[-91.1355,14.5454,991.7801],[-91.1294,14.5345,828.533],[-91.1283,14.5254,750.3679],[-91.1248,14.5231,729.2709],[-91.1241,14.5175,691.2962],[-91.1187,14.5153,708.13],[-91.116,14.5194,661.4567],[-91.1154,14.5287,694.7408],[-91.1137,14.5308,708.5952],[-91.1164,14.5416,754.7721],[-91.1136,14.5465,762.5967],[-91.1152,14.5549,859.8588],[-91.1131,14.5599,953.9763],[-91.1156,14.565,1004.9854],[-91.1134,14.5682,898.6932],[-91.1192,14.5739,1232.7507],[-91.1158,14.5814,1009.553],[-91.1173,14.5855,1154.6638],[-91.1107,14.5904,1157.6975],[-91.1091,14.5975,1173.825],[-91.1119,14.6026,1253.1681],[-91.1105,14.6107,1289.4001],[-91.1076,14.6165,1422.0168],[-91.1101,14.6203,1416.3335],[-91.1096,14.6235,1445.3402]]]]}}