{"type":"Feature","properties":{"GID_2":"GTM.11.7_1","GID_0":"GTM","country":"Guatemala","GID_1":"GTM.11_1","province":"Jutiapa","NL_NAME_1":"NA","county":"ElProgreso","VARNAME_2":"NA","NL_NAME_2":"NA","TYPE_2":"Municipio","ENGTYPE_2":"Municipality","CC_2":"NA","HASC_2":"NA","name":"El_Progreso.county"},
"geometry":{"type": "MultiPolygon","coordinates": [[[[-89.8943,14.4411,1286.0118],[-89.8936,14.4311,1470.4674],[-89.8882,14.4248,1174.0853],[-89.8845,14.4229,1142.4408],[-89.8892,14.4171,1110.4573],[-89.8921,14.4164,1199.9303],[-89.893,14.4057,1198.1874],[-89.885,14.3902,1179.5477],[-89.8805,14.3888,1199.4346],[-89.8765,14.3661,1051.5715],[-89.8713,14.3611,1036.2921],[-89.8662,14.3604,1057.54],[-89.8638,14.3287,946.7156],[-89.8484,14.3209,925.7353],[-89.845,14.3167,901.6078],[-89.8397,14.3033,845.819],[-89.8355,14.3005,839.7775],[-89.8264,14.3027,724.965],[-89.823,14.308,840.4371],[-89.8143,14.3119,745.9641],[-89.8179,14.3149,831.9487],[-89.8186,14.3191,843.7849],[-89.817,14.3323,900.9364],[-89.8187,14.3806,1049.788],[-89.8279,14.3925,1001.34],[-89.8267,14.3947,1044.0963],[-89.8228,14.3932,1082.2216],[-89.8213,14.3949,1149.9137],[-89.8222,14.4025,1156.8646],[-89.8133,14.4182,1117.3127],[-89.8148,14.4233,1207.5005],[-89.8119,14.4309,1283.2826],[-89.8122,14.4339,1352.4299],[-89.8184,14.4358,1217.0365],[-89.8252,14.4414,1220.939],[-89.8329,14.4386,1060.9387],[-89.8375,14.4402,1071.8726],[-89.8465,14.4512,980.2537],[-89.8481,14.4606,999.7485],[-89.8519,14.466,972.8413],[-89.8596,14.4698,970.4156],[-89.8652,14.4688,969.7435],[-89.8743,14.4709,965.6359],[-89.8834,14.464,999.9572],[-89.8888,14.4387,1286.8479],[-89.8943,14.4411,1286.0118]]]]}}