{"type": "Feature","bbox": [-90.5254,14.6262,-90.4939,14.6512],"geometry": {"type": "MultiPolygon","coordinates": [[[[-90.5213,14.6512,1484.8647],[-90.5254,14.6264,1518.9037],[-90.5238,14.6262,1526.5498],[-90.5226,14.6279,1520.7201],[-90.5204,14.6264,1516.4834],[-90.5151,14.6262,1502.8777],[-90.5117,14.6288,1496.9454],[-90.5112,14.6265,1485.115],[-90.5097,14.6274,1496.3948],[-90.5032,14.6332,1489.7852],[-90.5006,14.6388,1468.9236],[-90.4983,14.6392,1487.1802],[-90.4939,14.6439,1470.167],[-90.5057,14.6501,1480.5253],[-90.5117,14.6487,1489.7292],[-90.5213,14.6512,1484.8647]]]]}
,"properties": {"GID_2": "GTM.7.17_1","GID_0": "GTM","country": "Guatemala","GID_1": "GTM.7_1","province": "Guatemala","NL_NAME_1": "NA","county": "ZONA1","VARNAME_2": "NA","NL_NAME_2": "NA","TYPE_2": "Municipio","ENGTYPE_2": "Municipality","CC_2": "NA","HASC_2": "NA","name": "Z_O_N_A1.county","area_km2": 6.051612,"hist_schema_id": "Elevation0-9000","hist_area_km2": {"1450": 0.061542,"1475": 1.087213,"1500": 4.184846,"1525": 0.718011}}}