{"type":"Feature","properties":{"GID_2":"GTM.5.4_1","GID_0":"GTM","country":"Guatemala","GID_1":"GTM.5_1","province":"ElProgreso","NL_NAME_1":"NA","county":"SanAgustínAcasaguastlán","VARNAME_2":"NA","NL_NAME_2":"NA","TYPE_2":"Municipio","ENGTYPE_2":"Municipality","CC_2":"NA","HASC_2":"NA","name":"San_Agustín_Acasaguastlán.county"},
"geometry":{"type": "MultiPolygon","coordinates": [[[[-90.0023,15.0755,2579.1567],[-90.0087,15.0763,2576.2603],[-90.0169,15.066,2294.6802],[-90.0275,15.0627,2367.7295],[-90.0348,15.0568,2277.2327],[-90.045,15.0519,2476.6072],[-90.0501,15.0455,2509.4104],[-90.0618,15.0416,2401.4565],[-90.0685,15.0413,2558.7346],[-90.0735,15.028,1965.8906],[-90.0762,15.0152,1558.1581],[-90.0722,14.9997,1115.9943],[-90.0774,14.9849,1080.2816],[-90.0736,14.9728,1013.3087],[-90.0794,14.9518,758.8484],[-90.0875,14.9319,556.5333],[-90.0777,14.9106,289.0959],[-90.0628,14.9096,343.8819],[-90.06,14.9151,281.434],[-90.0523,14.9089,302.4295],[-90.0495,14.9087,373.2246],[-90.0396,14.9127,312.0866],[-90.0376,14.9115,321.9122],[-90.0351,14.9034,378.5968],[-90.0274,14.8952,353.8781],[-90.0117,14.8849,661.5822],[-90.0,14.8821,566.0535],[-89.9938,14.8832,537.291],[-89.9831,14.8896,615.8405],[-89.9812,14.8986,358.9893],[-89.9663,14.9097,258.5235],[-89.9493,14.9086,258.888],[-89.9332,14.917,252.2769],[-89.9187,14.9148,243.9671],[-89.9182,14.9254,364.8918],[-89.9162,14.9305,454.62],[-89.9217,14.9337,430.1949],[-89.9271,14.9301,326.7152],[-89.9284,14.9317,334.953],[-89.9256,14.9425,553.6158],[-89.9274,14.9478,708.5818],[-89.9265,14.9638,756.7692],[-89.931,14.97,804.7593],[-89.9136,14.993,1146.1548],[-89.9125,15.0031,1344.5737],[-89.9072,15.0181,1284.6693],[-89.9093,15.0364,1588.7059],[-89.9137,15.0473,1890.7051],[-89.9159,15.0606,2212.033],[-89.9174,15.0835,2867.5293],[-89.9326,15.0847,2735.1011],[-89.9463,15.0829,2577.5881],[-89.9647,15.0761,2242.1389],[-90.0023,15.0755,2579.1567]]]]}}