{"type": "Feature","bbox": [-90.4212,14.7339,-90.3231,14.8544],"geometry": {"type": "MultiPolygon","coordinates": [[[[-90.3236,14.8207,693.9515],[-90.3238,14.8299,976.5823],[-90.3272,14.8293,967.4711],[-90.3281,14.8322,869.2812],[-90.3314,14.8333,795.5396],[-90.339,14.8417,740.9026],[-90.3469,14.8442,678.9861],[-90.3476,14.846,687.4515],[-90.3551,14.8468,694.314],[-90.3596,14.8448,656.4291],[-90.3705,14.8472,647.2688],[-90.3779,14.8444,591.7253],[-90.3899,14.8437,576.0333],[-90.3945,14.8496,635.3808],[-90.401,14.8504,516.2699],[-90.4013,14.8544,494.582],[-90.4088,14.8466,560.8717],[-90.4128,14.8463,617.3832],[-90.4212,14.8339,690.2097],[-90.4192,14.8323,596.3513],[-90.4125,14.8326,704.0439],[-90.3999,14.8259,851.9581],[-90.3921,14.8251,864.6656],[-90.395,14.8174,754.033],[-90.3851,14.8143,882.7764],[-90.3863,14.7991,813.4557],[-90.379,14.7852,854.5485],[-90.3794,14.7828,883.4286],[-90.3973,14.7747,905.37],[-90.3984,14.7657,1020.1921],[-90.4032,14.7551,1137.1158],[-90.4007,14.7505,1085.2289],[-90.39,14.7466,1138.791],[-90.3869,14.7419,1039.4216],[-90.3763,14.7495,975.0281],[-90.3735,14.749,984.299],[-90.3755,14.7383,1123.5115],[-90.3732,14.7339,1242.7251],[-90.3699,14.7354,1123.3917],[-90.3658,14.744,1060.6185],[-90.3613,14.7464,1064.7479],[-90.3586,14.7529,994.1434],[-90.3553,14.7543,977.7946],[-90.3533,14.7643,853.6035],[-90.3537,14.7709,843.9253],[-90.346,14.7673,775.2163],[-90.3424,14.7554,877.3101],[-90.3396,14.7551,859.7277],[-90.3231,14.7449,907.5598],[-90.3278,14.7542,844.9606],[-90.3349,14.7596,807.0711],[-90.3344,14.7662,904.1216],[-90.3388,14.7765,749.5313],[-90.3388,14.7787,721.0967],[-90.3368,14.7795,781.9424],[-90.3373,14.7839,789.5015],[-90.3339,14.7877,730.0326],[-90.3341,14.7912,765.4581],[-90.3316,14.7952,820.99],[-90.3326,14.7977,908.7512],[-90.3386,14.8029,792.9966],[-90.3386,14.8057,666.4754],[-90.3353,14.8139,749.4109],[-90.3236,14.8207,693.9515]]]]}
,"properties": {"GID_2": "GTM.7.8_1","GID_0": "GTM","country": "Guatemala","GID_1": "GTM.7_1","province": "Guatemala","NL_NAME_1": "NA","county": "SanJosédelGolfo","VARNAME_2": "NA","NL_NAME_2": "NA","TYPE_2": "Municipio","ENGTYPE_2": "Municipality","CC_2": "NA","HASC_2": "NA","name": "San_Josédel_Golfo.county","area_km2": 71.41782,"hist_schema_id": "Elevation0-9000","hist_area_km2": {"475": 0.16395,"500": 0.61484,"525": 1.02474,"550": 1.49612,"575": 1.49613,"600": 1.43465,"625": 1.70112,"650": 1.51667,"675": 1.37319,"700": 1.51678,"725": 1.5988,"750": 1.92677,"775": 2.37778,"800": 3.34127,"825": 4.24331,"850": 4.87887,"875": 8.05651,"900": 7.13398,"925": 5.90381,"950": 4.67374,"975": 3.40287,"1000": 2.87005,"1025": 2.05,"1050": 2.27555,"1075": 1.82452,"1100": 1.02505,"1125": 0.59457,"1150": 0.32806,"1175": 0.14353,"1200": 0.16403,"1225": 0.22554,"1250": 0.0205,"1275": 0.0205}}}