{"type": "Feature","bbox": [-91.7872,15.5728,-91.6837,15.7556],"geometry": {"type": "MultiPolygon","coordinates": [[[[-91.7,15.6789,1430.9946],[-91.7002,15.6912,1708.9248],[-91.6887,15.7056,2154.522],[-91.6843,15.7134,2052.1902],[-91.6837,15.7329,1409.9955],[-91.6916,15.7364,1586.2052],[-91.6978,15.7362,1820.984],[-91.7081,15.7426,1497.7195],[-91.7184,15.7429,1139.6584],[-91.7246,15.7532,1287.7084],[-91.7317,15.7556,1164.7074],[-91.7303,15.7405,978.3019],[-91.7333,15.7294,1319.4222],[-91.7497,15.7248,837.7606],[-91.7554,15.7172,865.4277],[-91.7605,15.7074,1216.1425],[-91.7599,15.6982,1345.6722],[-91.7665,15.6929,1285.6843],[-91.7809,15.6687,1389.366],[-91.7872,15.6331,1119.9033],[-91.7835,15.6204,1038.415],[-91.7715,15.6087,1272.026],[-91.7689,15.5967,1614.2678],[-91.7659,15.5905,1692.1044],[-91.7668,15.5833,1431.1385],[-91.7599,15.5728,1468.3181],[-91.7536,15.5848,1904.738],[-91.7438,15.5913,1651.3005],[-91.7345,15.6134,1263.6584],[-91.7261,15.6282,1482.0942],[-91.7096,15.6336,1928.7161],[-91.6993,15.6393,2238.6279],[-91.7087,15.6476,1873.5739],[-91.7115,15.6595,1594.0779],[-91.7199,15.6659,1412.9023],[-91.7088,15.6765,1355.0482],[-91.7,15.6789,1430.9946]]]]}
,"properties": {"GID_2": "GTM.8.12_1","GID_0": "GTM","country": "Guatemala","GID_1": "GTM.8_1","province": "Huehuetenango","NL_NAME_1": "NA","county": "SanAntonioHuista","VARNAME_2": "NA","NL_NAME_2": "NA","TYPE_2": "Municipio","ENGTYPE_2": "Municipality","CC_2": "NA","HASC_2": "NA","name": "San_Antonio_Huista.county","area_km2": 112.11499,"hist_schema_id": "Elevation0-9000","hist_area_km2": {"825": 0.18369,"850": 0.26533,"875": 0.63273,"900": 0.89814,"925": 1.1023,"950": 1.42898,"975": 1.53101,"1000": 1.87808,"1025": 1.95969,"1050": 1.93931,"1075": 1.98012,"1100": 1.85775,"1125": 2.0414,"1150": 2.30684,"1175": 2.93979,"1200": 2.47018,"1225": 2.71518,"1250": 3.14383,"1275": 3.51126,"1300": 3.16418,"1325": 3.75615,"1350": 3.42948,"1375": 3.32757,"1400": 3.51119,"1425": 4.14412,"1450": 3.36842,"1475": 2.87849,"1500": 2.59268,"1525": 2.89892,"1550": 2.4089,"1575": 2.55192,"1600": 2.44982,"1625": 2.73562,"1650": 2.24559,"1675": 2.67437,"1700": 2.28651,"1725": 2.34775,"1750": 2.00066,"1775": 2.24567,"1800": 2.67423,"1825": 1.87814,"1850": 1.81692,"1875": 2.02102,"1900": 1.44937,"1925": 1.28604,"1950": 1.531,"1975": 1.20436,"2000": 1.34721,"2025": 1.00023,"2050": 0.93897,"2075": 0.79605,"2100": 0.57152,"2125": 0.61236,"2150": 0.63276,"2175": 0.38783,"2200": 0.06125,"2225": 0.02042,"2250": 0.06125,"2275": 0.02042}}}