{"type":"Feature","properties":{"GID_2":"GTM.17.19_1","GID_0":"GTM","country":"Guatemala","GID_1":"GTM.17_1","province":"SanMarcos","NL_NAME_1":"NA","county":"SanLorenzo","VARNAME_2":"NA","NL_NAME_2":"NA","TYPE_2":"Municipio","ENGTYPE_2":"Municipality","CC_2":"NA","HASC_2":"NA","name":"San_Lorenzo.county"},
"geometry":{"type": "MultiPolygon","coordinates": [[[[-91.7935,15.0334,2945.3433],[-91.7961,15.0259,2989.5723],[-91.7897,15.0185,2955.6338],[-91.7881,15.0118,2925.7515],[-91.7791,15.0048,2609.8926],[-91.7775,15.0083,2673.4456],[-91.7665,15.0054,2797.999],[-91.7567,14.9886,2705.3142],[-91.7319,14.9904,2732.4829],[-91.73,14.9948,2734.7478],[-91.7136,14.9995,2652.7131],[-91.7123,15.0056,2598.4526],[-91.7098,15.0057,2637.78],[-91.7082,15.0004,2678.7029],[-91.7062,14.9992,2618.5857],[-91.7003,15.005,2562.5706],[-91.6983,15.0105,2596.2197],[-91.7253,15.0448,2686.8062],[-91.7314,15.0469,2740.2437],[-91.7558,15.0462,2707.5881],[-91.7646,15.0482,2751.7295],[-91.7751,15.0423,2876.0591],[-91.7802,15.0346,2832.147],[-91.7843,15.0329,2883.906],[-91.7935,15.0334,2945.3433]]]]}}