{"type": "Feature","bbox": [-91.9771,15.214,-91.7498,15.3616],"geometry": {"type": "MultiPolygon","coordinates": [[[[-91.9771,15.2967,2156.0479],[-91.9701,15.2807,2048.8328],[-91.9609,15.2786,2132.178],[-91.9607,15.2678,2148.0251],[-91.9579,15.2651,2122.1956],[-91.955,15.2527,2453.0569],[-91.9476,15.2471,2650.6768],[-91.9406,15.2445,2809.5967],[-91.9345,15.2459,2810.1802],[-91.9245,15.2449,2845.6255],[-91.925,15.2385,3252.8818],[-91.9163,15.2175,3459.9463],[-91.9106,15.2201,3396.603],[-91.9028,15.2149,3345.9412],[-91.8991,15.2149,3288.6191],[-91.8974,15.2199,3215.7109],[-91.8942,15.2234,3180.3638],[-91.8779,15.2216,3114.2839],[-91.8738,15.2157,3109.6274],[-91.862,15.214,3031.8604],[-91.8493,15.2202,2985.6079],[-91.8355,15.233,2738.814],[-91.8333,15.2425,2765.7964],[-91.8225,15.2468,2523.8337],[-91.8019,15.2476,2542.731],[-91.7969,15.2513,2477.7554],[-91.7894,15.2628,2324.9258],[-91.7895,15.2671,2226.5696],[-91.7802,15.271,2322.7585],[-91.777,15.2778,2144.7969],[-91.7764,15.2806,2129.8765],[-91.78,15.2853,2174.2468],[-91.7798,15.2946,2497.5347],[-91.784,15.2969,2503.6694],[-91.7835,15.2983,2517.3999],[-91.7794,15.3007,2549.5376],[-91.7747,15.2997,2438.8289],[-91.7686,15.2949,2373.5281],[-91.7666,15.2989,2298.2214],[-91.7691,15.3105,2530.606],[-91.7579,15.3155,2222.7117],[-91.7551,15.3195,2068.8267],[-91.7645,15.3263,2051.2126],[-91.7643,15.3289,2040.2806],[-91.7498,15.3403,2266.2524],[-91.764,15.3434,2218.7888],[-91.7947,15.3287,2384.8057],[-91.8231,15.3278,2113.8892],[-91.8809,15.3616,1842.6699],[-91.9397,15.3185,2521.9417],[-91.9569,15.3192,2072.0142],[-91.9771,15.2967,2156.0479]]]]}
,"properties": {"GID_2": "GTM.17.4_1","GID_0": "GTM","country": "Guatemala","GID_1": "GTM.17_1","province": "SanMarcos","NL_NAME_1": "NA","county": "ConcepciónTutuapa","VARNAME_2": "NA","NL_NAME_2": "NA","TYPE_2": "Municipio","ENGTYPE_2": "Municipality","CC_2": "NA","HASC_2": "NA","name": "Concepción_Tutuapa.county","area_km2": 231.1893,"hist_schema_id": "Elevation0-9000","hist_area_km2": {"1550": 0.0409,"1575": 0.0409,"1600": 0.0818,"1625": 0.1227,"1650": 0.1022,"1675": 0.2045,"1700": 0.2045,"1725": 0.2045,"1750": 0.2249,"1775": 0.2863,"1800": 0.2658,"1825": 0.6134,"1850": 0.7361,"1875": 1.0428,"1900": 1.1451,"1925": 1.2882,"1950": 1.6767,"1975": 1.9222,"2000": 1.8608,"2025": 2.1471,"2050": 2.4335,"2075": 2.3312,"2100": 2.9856,"2125": 3.231,"2150": 3.7013,"2175": 3.3128,"2200": 3.6401,"2225": 3.8855,"2250": 3.865,"2275": 4.499,"2300": 4.3149,"2325": 4.7445,"2350": 4.7649,"2375": 4.8877,"2400": 4.5196,"2425": 5.6036,"2450": 4.9901,"2475": 4.7037,"2500": 5.4195,"2525": 5.8081,"2550": 6.708,"2575": 7.1989,"2600": 7.7306,"2625": 8.7737,"2650": 9.776,"2675": 8.1808,"2700": 7.1173,"2725": 5.6449,"2750": 4.7246,"2775": 4.8066,"2800": 4.3567,"2825": 3.8249,"2850": 4.0294,"2875": 4.1114,"2900": 6.6275,"2925": 6.1366,"2950": 5.2979,"2975": 4.7865,"3000": 5.7276,"3025": 3.3956,"3050": 3.1707,"3075": 2.1684,"3100": 2.7616,"3125": 1.2069,"3150": 0.9409,"3175": 0.8796,"3200": 0.6137,"3225": 0.5114,"3250": 0.6137,"3275": 0.4092,"3300": 0.3682,"3325": 0.266,"3350": 0.266,"3375": 0.1432,"3400": 0.0614}}}