{"type":"Feature","properties":{"GID_2":"GTM.3.11_1","GID_0":"GTM","country":"Guatemala","GID_1":"GTM.3_1","province":"Chimaltenango","NL_NAME_1":"NA","county":"SanMartínJilotepeque","VARNAME_2":"NA","NL_NAME_2":"NA","TYPE_2":"Municipio","ENGTYPE_2":"Municipality","CC_2":"NA","HASC_2":"NA","name":"San_Martín_Jilotepeque.county"},
"geometry":{"type": "MultiPolygon","coordinates": [[[[-90.6238,14.8836,732.0764],[-90.6292,14.8889,799.2715],[-90.6298,14.8919,861.6992],[-90.635,14.889099999999999,677.9962],[-90.6367,14.893,820.8892],[-90.6446,14.8928,801.0952],[-90.6496,14.8865,693.0349],[-90.6607,14.8903,701.2495],[-90.6777,14.9016,775.72],[-90.6808,14.9053,760.8476],[-90.6919,14.9113,837.1965],[-90.6939,14.9093,769.793],[-90.6974,14.9128,958.6554],[-90.7021,14.9088,844.5204],[-90.7049,14.9114,824.1188],[-90.7114,14.9133,928.023],[-90.7144,14.9165,952.2974],[-90.721,14.9177,885.924],[-90.7235,14.9163,891.6984],[-90.7265,14.918,959.7264],[-90.7307,14.9149,879.0208],[-90.7389,14.9168,885.8089],[-90.757,14.9289,1073.2103],[-90.7625,14.9258,988.1779],[-90.7689,14.9295,1013.3369],[-90.7842,14.9199,990.2023],[-90.7955,14.925,1074.8916],[-90.7969,14.9232,1026.0764],[-90.8088,14.9234,1067.0193],[-90.8122,14.9266,1107.6707],[-90.8154,14.9244,1079.7594],[-90.8185,14.9263,1151.4294],[-90.8217,14.9253,1112.9532],[-90.8264,14.9283,1171.0276],[-90.8458,14.9275,1189.1923],[-90.8476,14.9309,1289.2697],[-90.8527,14.9301,1139.8259],[-90.8577,14.9347,1255.4373],[-90.8682,14.9341,1306.7223],[-90.8732,14.9375,1237.7498],[-90.8761,14.9374,1253.994],[-90.8799,14.9338,1211.0453],[-90.8893,14.9364,1256.4846],[-90.9032,14.9322,1329.6808],[-90.9012,14.9275,1295.2911],[-90.904,14.9232,1417.7737],[-90.9045,14.919,1417.4846],[-90.9023,14.9055,1351.1819],[-90.8995,14.9059,1414.9586],[-90.9015,14.8997,1464.6476],[-90.9003,14.8955,1363.7488],[-90.8956,14.8941,1408.1736],[-90.8876,14.8848,1434.29],[-90.8907,14.8784,1582.0238],[-90.8825,14.8608,1558.3455],[-90.8675,14.8583,1608.615],[-90.8651,14.8567,1637.0079],[-90.8633,14.8512,1594.7673],[-90.8601,14.852,1595.3551],[-90.853,14.848,1592.4626],[-90.8563,14.8363,1679.4213],[-90.8545,14.8346,1641.0913],[-90.8551,14.8312,1718.8047],[-90.8519,14.8264,1763.0658],[-90.8536,14.8051,1827.5056],[-90.858,14.8009,1880.2758],[-90.8654,14.7759,2007.0525],[-90.8672,14.7594,2193.0029],[-90.8616,14.7488,2171.9878],[-90.8502,14.7386,2143.6206],[-90.8262,14.7262,1955.6107],[-90.8148,14.7243,1625.7781],[-90.8036,14.7328,1512.8926],[-90.7998,14.7312,1555.3872],[-90.7906,14.7384,1481.4248],[-90.7875,14.7375,1434.0052],[-90.7722,14.7437,1437.5858],[-90.7692,14.7481,1388.6979],[-90.7501,14.7477,1275.0913],[-90.7388,14.7594,1238.7618],[-90.7353,14.7609,1218.9043],[-90.7171,14.7769,1135.4111],[-90.7093,14.7778,1118.969],[-90.701,14.7925,1182.8579],[-90.6943,14.7933,1142.2274],[-90.6923,14.7975,1075.9866],[-90.6874,14.8007,1057.9073],[-90.6852,14.8053,1035.3054],[-90.6954,14.8161,976.8407],[-90.6923,14.8271,943.2753],[-90.6929,14.8332,961.3669],[-90.6803,14.8403,839.8954],[-90.6759,14.8458,800.1171],[-90.668,14.8465,849.4091],[-90.6636,14.8489,896.431],[-90.6605,14.8545,819.6389],[-90.6628,14.8579,755.8574],[-90.653,14.8639,770.4199],[-90.6469,14.8621,724.8156],[-90.6437,14.8659,727.6395],[-90.6374,14.8667,693.8165],[-90.6325,14.8724,761.2475],[-90.6264,14.873,755.8739],[-90.6231,14.8781,682.8208],[-90.6156,14.8776,669.3757],[-90.6238,14.8836,732.0764]]]]}}