{"type":"Feature","properties":{"GID_2":"GTM.1.5_1","GID_0":"GTM","country":"Guatemala","GID_1":"GTM.1_1","province":"AltaVerapaz","NL_NAME_1":"NA","county":"Lanquín","VARNAME_2":"NA","NL_NAME_2":"NA","TYPE_2":"Municipio","ENGTYPE_2":"Municipality","CC_2":"NA","HASC_2":"NA","name":"Lanquín.county"},
"geometry":{"type": "MultiPolygon","coordinates": [[[[-89.9955,15.5063,488.2992],[-89.984,15.5086,507.1482],[-89.9492,15.5053,788.8018],[-89.9443,15.5098,632.2367],[-89.9375,15.5047,626.7825],[-89.9298,15.505,291.7765],[-89.9315,15.5119,348.567],[-89.9276,15.5255,254.6162],[-89.9278,15.5362,258.8225],[-89.9338,15.5397,269.0199],[-89.9337,15.5419,270.1976],[-89.9264,15.5485,287.4166],[-89.9242,15.547,261.1702],[-89.9228,15.549,369.8247],[-89.9226,15.5557,529.7426],[-89.925299999999993,15.5601,331.6576],[-89.9249,15.566,255.9207],[-89.9147,15.5824,459.3924],[-89.9167,15.5946,807.29],[-89.9216,15.6041,1153.6648],[-89.9208,15.6081,1133.5905],[-89.9125,15.6202,1113.2139],[-89.9147,15.6244,1155.3887],[-89.9208,15.6246,1153.3197],[-89.9236,15.6371,1012.9263],[-89.9086,15.651,968.2014],[-89.9133,15.6593,976.5734],[-89.9239,15.6659,813.1914],[-89.9217,15.693,594.5516],[-89.9621,15.6721,644.1827],[-89.9664,15.6659,927.4532],[-89.972,15.6643,1058.6174],[-89.9757,15.6541,1083.3354],[-89.9791,15.6505,1090.1014],[-89.9948,15.6438,997.088],[-89.9991,15.6275,1123.2234],[-90.0217,15.6164,1009.6953],[-90.0399,15.6003,1141.2987],[-90.0481,15.5951,1171.5419],[-90.0575,15.5934,1192.3335],[-90.0651,15.5815,954.3943],[-90.05,15.5839,817.5702],[-90.0541,15.5683,857.2356],[-90.0682,15.5659,1148.748],[-90.0748,15.5589,1054.5835],[-90.074,15.5451,776.1198],[-90.0662,15.5401,701.5599],[-90.0738,15.5082,782.2562],[-90.0608,15.5047,731.4882],[-90.0582,15.5066,709.8959],[-90.0541,15.4984,501.2611],[-90.0337,15.5028,474.0916],[-90.0313,15.5069,503.986],[-90.0187,15.5081,583.0805],[-90.0151,15.5052,515.7177],[-90.0036,15.5096,502.783],[-89.9955,15.5063,488.2992]]]]}}