{"type": "Feature","bbox": [-90.9162,14.6193,-90.8148,14.7325],"geometry": {"type": "MultiPolygon","coordinates": [[[[-90.8148,14.7243,1625.7781],[-90.8262,14.7262,1955.6107],[-90.8392,14.7325,2099.0186],[-90.8484,14.7235,2049.7378],[-90.8538,14.7205,1985.8679],[-90.8607,14.7192,1996.5441],[-90.8627,14.7139,2083.5659],[-90.8596,14.6943,2033.4185],[-90.869,14.6939,1967.4189],[-90.8743,14.69,1846.2948],[-90.8844,14.6936,1840.014],[-90.8945,14.6928,1973.0826],[-90.8959,14.6959,1858.994],[-90.8995,14.6952,1865.3582],[-90.9005,14.6823,2001.1005],[-90.9085,14.6794,2041.2808],[-90.9105,14.6755,1980.6804],[-90.9109,14.6693,1996.5544],[-90.9162,14.6642,2037.9391],[-90.9138,14.6547,2031.4629],[-90.9149,14.6532,2065.5054],[-90.9033,14.6277,2191.2407],[-90.8953,14.6193,2272.3303],[-90.8758,14.6372,2073.0771],[-90.8718,14.6423,2065.7876],[-90.8711,14.6488,2014.6351],[-90.8636,14.6512,2015.3359],[-90.858,14.6648,1967.0272],[-90.8588,14.6748,1949.1277],[-90.8543,14.6792,1753.6625],[-90.852,14.6793,1774.0481],[-90.8503,14.6831,1762.4321],[-90.8486,14.6829,1762.4321],[-90.8426,14.6893,1785.4265],[-90.8403,14.7003,1731.712],[-90.8186,14.7119,1586.3218],[-90.8155,14.7183,1616.9724],[-90.8148,14.7243,1625.7781]]]]}
,"properties": {"GID_2": "GTM.3.16_1","GID_0": "GTM","country": "Guatemala","GID_1": "GTM.3_1","province": "Chimaltenango","NL_NAME_1": "NA","county": "Zaragoza","VARNAME_2": "NA","NL_NAME_2": "NA","TYPE_2": "Municipio","ENGTYPE_2": "Municipality","CC_2": "NA","HASC_2": "NA","name": "Zaragoza.county","area_km2": 50.82481,"hist_schema_id": "Elevation0-9000","hist_area_km2": {"1600": 0.04101,"1625": 0.08203,"1650": 0.14355,"1675": 0.22559,"1700": 0.32811,"1725": 0.47167,"1750": 0.49219,"1775": 0.79982,"1800": 1.06643,"1825": 1.27151,"1850": 2.31745,"1875": 2.25593,"1900": 2.44054,"1925": 2.64564,"1950": 2.74825,"1975": 3.03541,"2000": 4.02002,"2025": 6.15325,"2050": 7.50716,"2075": 4.55367,"2100": 2.64606,"2125": 1.88708,"2150": 1.49741,"2175": 0.90259,"2200": 0.36927,"2225": 0.34876,"2250": 0.24618,"2275": 0.20515,"2300": 0.08206,"2325": 0.04103}}}