{"type":"Feature","properties":{"GID_2":"GTM.13.18_1","GID_0":"GTM","country":"Guatemala","GID_1":"GTM.13_1","province":"Quezaltenango","NL_NAME_1":"NA","county":"SanCarlosSija","VARNAME_2":"NA","NL_NAME_2":"NA","TYPE_2":"Municipio","ENGTYPE_2":"Municipality","CC_2":"NA","HASC_2":"NA","name":"San_Carlos_Sija.county"},
"geometry":{"type": "MultiPolygon","coordinates": [[[[-91.5692,15.2244,2194.0305],[-91.5855,15.1714,1978.0591],[-91.6186,15.1533,2177.9468],[-91.6129,15.1407,2268.7334],[-91.6164,15.1187,2724.9634],[-91.6145,15.1162,2711.1707],[-91.6156,15.1104,2799.9233],[-91.614,15.1065,2738.3066],[-91.6085,15.1016,2743.5508],[-91.5967,15.0977,2984.7595],[-91.5942,15.0834,3190.4663],[-91.5739,15.0636,3075.4937],[-91.5733,15.0606,3043.2163],[-91.5827,15.0523,3115.4958],[-91.5882,15.052,3030.1504],[-91.5988,15.0571,2810.3369],[-91.6036,15.0567,2801.1196],[-91.6056,15.0531,2828.1912],[-91.6028,15.0446,2884.9836],[-91.6056,15.0407,2855.2395],[-91.6068,15.0295,2873.2935],[-91.6133,15.0235,2872.2292],[-91.6173,15.0013,2802.9426],[-91.6172,14.994,2722.7683],[-91.613,14.9902,2826.8147],[-91.6003,14.9927,2698.6992],[-91.601,14.9773,2742.8159],[-91.6063,14.9803,2753.04],[-91.6106,14.9788,2828.8818],[-91.613,14.9746,2948.2188],[-91.6115,14.9634,3066.3711],[-91.6143,14.9498,2966.7732],[-91.5959,14.9305,2575.1255],[-91.5713,14.9299,2714.5684],[-91.5651,14.9314,2728.665],[-91.5563,14.9275,2774.5708],[-91.5513,14.9277,2794.4236],[-91.5534,14.9384,2764.6045],[-91.5573,14.9382,2825.3225],[-91.5327,14.9581,2634.4861],[-91.5342,14.9608,2626.2966],[-91.5324,14.9644,2599.3628],[-91.5334,14.971,2602.4851],[-91.5401,14.9758,2626.3999],[-91.5485,15.1114,2628.4004],[-91.5115,15.1455,2084.0],[-91.52,15.2056,1879.7032],[-91.5692,15.2244,2194.0305]]]]}}