{"type": "Feature","bbox": [-92.0103,15.059,-91.8328,15.1949],"geometry": {"type": "MultiPolygon","coordinates": [[[[-91.95,15.1751,3354.335],[-91.9469,15.1711,3393.5818],[-91.9519,15.1689,3191.8325],[-91.9617,15.173,3345.3674],[-91.9624,15.18,3360.7983],[-91.9754,15.1804,3127.8809],[-91.965,15.1711,3400.9573],[-91.9653,15.1682,3333.4902],[-91.9784,15.1674,3254.4722],[-91.985,15.162,3010.2849],[-91.9907,15.162,2685.071],[-91.9999,15.1493,2265.5918],[-91.9991,15.1428,2260.4673],[-92.0046,15.1375,2024.7986],[-92.0038,15.1324,2004.4082],[-92.0103,15.1216,1776.5624],[-91.9924,15.1226,2152.6067],[-91.989,15.127,2300.4441],[-91.9814,15.125,2258.4646],[-91.9739,15.129,2226.4292],[-91.9674,15.1379,2560.6917],[-91.9587,15.1395,2446.4543],[-91.9512,15.1376,2360.9158],[-91.9495,15.1345,2325.3374],[-91.9554,15.1124,2145.7629],[-91.935,15.1092,2581.9941],[-91.9239,15.1117,2943.9761],[-91.9226,15.1166,2692.5649],[-91.9201,15.1194,2701.1279],[-91.9128,15.1236,2889.0093],[-91.9042,15.1201,3059.8091],[-91.9011,15.1198,3071.4773],[-91.8972,15.1238,3114.8301],[-91.884,15.1183,2908.209],[-91.8771,15.1199,3028.792],[-91.8723,15.116,3191.9712],[-91.8673,15.1054,3104.2815],[-91.8689,15.0987,3057.2104],[-91.8742,15.0971,2852.6865],[-91.8764,15.0903,2994.4678],[-91.868,15.0798,3035.8135],[-91.8708,15.0633,3150.2632],[-91.8595,15.059,3073.9282],[-91.8507,15.0619,2923.6641],[-91.8472,15.0651,2870.407],[-91.8354,15.0868,2725.4114],[-91.8328,15.0987,2631.6284],[-91.8409,15.1069,2722.1997],[-91.8568,15.1092,3017.094],[-91.8619,15.1131,3052.4016],[-91.8627,15.1217,3050.2578],[-91.8663,15.1326,2904.4307],[-91.8718,15.1393,2946.1118],[-91.8711,15.1408,2909.8555],[-91.8642,15.1367,2864.7192],[-91.8623,15.137,2835.6763],[-91.8603,15.1406,2763.5972],[-91.8633,15.1456,2793.9202],[-91.8695,15.1491,2757.791],[-91.8744,15.1479,2872.2336],[-91.8747,15.1499,2818.1619],[-91.8736,15.1519,2760.5593],[-91.8749,15.1551,2643.771],[-91.8644,15.1622,2662.2773],[-91.8778,15.1742,3099.3252],[-91.8898,15.193,3161.886],[-91.8929,15.1949,3232.4761],[-91.9066,15.1939,3542.1274],[-91.91,15.1834,3340.8306],[-91.9224,15.1754,3276.9636],[-91.9392,15.1739,3343.6143],[-91.9412,15.1787,3466.1782],[-91.9436,15.1792,3474.3999],[-91.95,15.1751,3354.335]]]]}
,"properties": {"GID_2": "GTM.17.9_1","GID_0": "GTM","country": "Guatemala","GID_1": "GTM.17_1","province": "SanMarcos","NL_NAME_1": "NA","county": "Ixchiguan","VARNAME_2": "NA","NL_NAME_2": "NA","TYPE_2": "Municipio","ENGTYPE_2": "Municipality","CC_2": "NA","HASC_2": "NA","name": "Ixchiguan.county","area_km2": 105.66858,"hist_schema_id": "Elevation0-9000","hist_area_km2": {"1750": 0.02047,"1850": 0.04094,"1900": 0.04094,"1925": 0.08187,"1950": 0.10234,"1975": 0.1228,"2000": 0.10234,"2025": 0.08187,"2050": 0.1228,"2075": 0.18421,"2100": 0.32748,"2125": 0.36841,"2150": 0.45029,"2175": 0.45028,"2200": 0.40935,"2225": 0.73682,"2250": 0.47075,"2275": 0.71634,"2300": 0.65495,"2325": 0.77776,"2350": 0.81868,"2375": 0.88009,"2400": 1.02337,"2425": 0.73681,"2450": 1.20756,"2475": 0.9824,"2500": 1.18708,"2525": 1.06426,"2550": 1.37129,"2575": 1.08474,"2600": 1.30987,"2625": 1.59639,"2650": 1.61687,"2675": 1.76018,"2700": 2.35375,"2725": 1.90342,"2750": 2.74262,"2775": 2.55847,"2800": 2.74258,"2825": 3.13157,"2850": 3.62269,"2875": 3.09063,"2900": 3.2544,"2925": 2.88601,"2950": 3.15192,"2975": 3.95013,"3000": 3.86828,"3025": 4.23667,"3050": 3.66354,"3075": 3.74538,"3100": 4.64587,"3125": 4.5024,"3150": 4.23629,"3175": 4.50239,"3200": 3.99066,"3225": 2.66042,"3250": 1.96456,"3275": 1.35063,"3300": 0.9413,"3325": 0.87991,"3350": 0.63435,"3375": 0.5525,"3400": 0.36833,"3425": 0.26601,"3450": 0.1637,"3475": 0.08185,"3500": 0.08185,"3525": 0.02046,"3550": 0.02046}}}