{"type":"Feature","properties":{"GID_2":"GTM.18.11_1","GID_0":"GTM","country":"Guatemala","GID_1":"GTM.18_1","province":"SantaRosa","NL_NAME_1":"NA","county":"SantaCruzNaranjo","VARNAME_2":"NA","NL_NAME_2":"NA","TYPE_2":"Municipio","ENGTYPE_2":"Municipality","CC_2":"NA","HASC_2":"NA","name":"Santa_Cruz_Naranjo.county"},
"geometry":{"type": "MultiPolygon","coordinates": [[[[-90.4351,14.3931,1121.3912],[-90.4303,14.3871,1129.1401],[-90.4308,14.3788,1172.1353],[-90.4257,14.3796,1108.3291],[-90.4241,14.3841,1148.8857],[-90.4224,14.3849,1148.8857],[-90.4169,14.3826,1128.1448],[-90.4147,14.3793,1102.9102],[-90.4131,14.3809,1118.687],[-90.404,14.3767,1142.8824],[-90.4025,14.3743,1120.6892],[-90.4018,14.3755,1138.0272],[-90.3981,14.3749,1128.5337],[-90.3797,14.3577,1295.755],[-90.3694,14.3518,1423.0215],[-90.3657,14.3438,1417.0892],[-90.3492,14.3375,1354.2327],[-90.3506,14.3387,1330.7563],[-90.3505,14.3581,1223.7603],[-90.3384,14.3642,1151.064],[-90.3376,14.3732,1043.4709],[-90.3347,14.3754,1025.8278],[-90.3271,14.3755,964.3857],[-90.3386,14.39,1031.2732],[-90.3436,14.3913,1041.1989],[-90.3503,14.4074,1103.0212],[-90.3578,14.4168,1146.7693],[-90.3695,14.423,1162.334],[-90.3884,14.4262,1276.8497],[-90.3915,14.4288,1237.2362],[-90.3942,14.4346,1301.2783],[-90.4014,14.4353,1418.41],[-90.4101,14.4448,1427.3481],[-90.4147,14.4468,1464.5565],[-90.4141,14.4373,1377.5883],[-90.4155,14.4338,1520.9045],[-90.4371,14.4128,1352.8667],[-90.4388,14.4093,1264.7485],[-90.4395,14.4041,1200.1112],[-90.4351,14.3931,1121.3912]]]]}}