{"type":"Feature","properties":{"GID_2":"GTM.12.4_1","GID_0":"GTM","country":"Guatemala","GID_1":"GTM.12_1","province":"Petén","NL_NAME_1":"NA","county":"MelchordeMencos","VARNAME_2":"NA","NL_NAME_2":"NA","TYPE_2":"Municipio","ENGTYPE_2":"Municipality","CC_2":"NA","HASC_2":"NA","name":"Melchorde_Mencos.county"},
"geometry":{"type": "MultiPolygon","coordinates": [[[[-89.1468,17.3295,162.1544],[-89.1469,17.8146,143.8647],[-89.342,17.8152,133.6704],[-89.3446,17.2544,169.9001],[-89.3475,17.0741,173.9104],[-89.3437,17.0749,178.9005],[-89.3415,17.0677,179.695],[-89.3447,17.0609,175.9446],[-89.348,17.0579,208.506],[-89.3481,16.8248,195.5887],[-89.1623,16.825,433.0445],[-89.1624,16.8236,421.8074],[-89.1613,16.8239,433.0445],[-89.1462,17.0498,106.1391],[-89.1468,17.3295,162.1544]]]]}}