{"type": "Feature","bbox": [-91.5322,14.489,-91.4649,14.5254],"geometry": {"type": "MultiPolygon","coordinates": [[[[-91.5322,14.489,229.4636],[-91.5209,14.4946,246.3816],[-91.5186,14.4931,241.4852],[-91.5025,14.496,253.7614],[-91.494,14.504,271.8074],[-91.4818,14.5038,273.0371],[-91.4798,14.5097,289.347],[-91.4767,14.5122,302.3513],[-91.4698,14.5124,305.4525],[-91.4662,14.5145,315.6044],[-91.4649,14.5174,321.84],[-91.4703,14.52,322.7395],[-91.5174,14.5254,333.6526],[-91.5205,14.523,328.0717],[-91.5322,14.489,229.4636]]]]}
,"properties": {"GID_2": "GTM.20.11_1","GID_0": "GTM","country": "Guatemala","GID_1": "GTM.20_1","province": "Suchitepéquez","NL_NAME_1": "NA","county": "SanGabriel","VARNAME_2": "NA","NL_NAME_2": "NA","TYPE_2": "Municipio","ENGTYPE_2": "Municipality","CC_2": "NA","HASC_2": "NA","name": "San_Gabriel.county","area_km2": 15.12761,"hist_schema_id": "Elevation0-9000","hist_area_km2": {"225": 0.14369,"250": 2.5864,"275": 4.18737,"300": 4.88509,"325": 3.22243,"350": 0.10262}}}