{"type": "Feature","bbox": [-91.0638,15.0269,-90.9648,15.1034],"geometry": {"type": "MultiPolygon","coordinates": [[[[-90.9648,15.0529,1966.343],[-90.9698,15.0696,2178.5415],[-90.972,15.0858,2088.2927],[-90.9814,15.1016,2170.2051],[-90.989,15.1021,2255.9185],[-91.001,15.0979,2195.7617],[-91.0191,15.1026,2283.9585],[-91.0478,15.1014,2115.2393],[-91.0545,15.1034,2031.2778],[-91.0638,15.0966,2119.7595],[-91.0614,15.064,2171.4473],[-91.0509,15.0598,2109.2615],[-91.0289,15.0394,1921.1915],[-91.0228,15.0269,1953.8933],[-91.0034,15.0373,1888.1968],[-90.9934,15.0325,1826.9863],[-90.9835,15.0427,1857.8058],[-90.9648,15.0529,1966.343]]]]}
,"properties": {"GID_2": "GTM.14.6_1","GID_0": "GTM","country": "Guatemala","GID_1": "GTM.14_1","province": "Quiché","NL_NAME_1": "NA","county": "Chinique","VARNAME_2": "NA","NL_NAME_2": "NA","TYPE_2": "Municipio","ENGTYPE_2": "Municipality","CC_2": "NA","HASC_2": "NA","name": "Chinique.county","area_km2": 63.54814,"hist_schema_id": "Elevation0-9000","hist_area_km2": {"1800": 0.06143,"1825": 0.38903,"1850": 1.4947,"1875": 2.78462,"1900": 5.38498,"1925": 5.05735,"1950": 2.51832,"1975": 1.86315,"2000": 2.08832,"2025": 2.12924,"2050": 2.74339,"2075": 3.64417,"2100": 3.93073,"2125": 3.3984,"2150": 3.33692,"2175": 3.64397,"2200": 3.21405,"2225": 2.86602,"2250": 2.45659,"2275": 2.55892,"2300": 2.49751,"2325": 2.37468,"2350": 1.51489,"2375": 1.04404,"2400": 0.40943,"2425": 0.1433}}}