{"type": "Feature","bbox": [-90.823,14.5411,-90.7853,14.5727],"geometry": {"type": "MultiPolygon","coordinates": [[[[-90.823,14.5567,1973.0737],[-90.8171,14.5411,1659.1414],[-90.8135,14.5436,1633.6572],[-90.7895,14.5439,1457.3909],[-90.7853,14.5552,1552.2192],[-90.788,14.5618,1798.8655],[-90.7936,14.5644,1999.3862],[-90.794,14.5681,2098.7056],[-90.8043,14.5727,1998.4681],[-90.8074,14.5664,2004.9658],[-90.8181,14.5547,1973.6858],[-90.823,14.5567,1973.0737]]]]}
,"properties": {"GID_2": "GTM.16.11_1","GID_0": "GTM","country": "Guatemala","GID_1": "GTM.16_1","province": "Sacatepéquez","NL_NAME_1": "NA","county": "SantaCatarinaBarahona","VARNAME_2": "NA","NL_NAME_2": "NA","TYPE_2": "Municipio","ENGTYPE_2": "Municipality","CC_2": "NA","HASC_2": "NA","name": "Santa_Catarina_Barahona.county","area_km2": 8.393403,"hist_schema_id": "Elevation0-9000","hist_area_km2": {"1450": 0.143659,"1475": 0.49254,"1500": 0.389924,"1525": 0.328356,"1550": 0.348877,"1575": 0.225741,"1600": 0.307829,"1625": 0.369398,"1650": 0.389919,"1675": 0.472003,"1700": 0.287304,"1725": 0.348868,"1750": 0.266783,"1775": 0.184697,"1800": 0.205218,"1825": 0.369398,"1850": 0.225741,"1875": 0.513046,"1900": 0.164173,"1925": 0.307815,"1950": 0.451464,"1975": 0.389902,"2000": 0.225731,"2025": 0.266776,"2050": 0.328335,"2075": 0.123128,"2100": 0.143648,"2125": 0.102606,"2150": 0.020521}}}