{"type":"Feature","properties":{"GID_2":"GTM.4.10_1","GID_0":"GTM","country":"Guatemala","GID_1":"GTM.4_1","province":"Chiquimula","NL_NAME_1":"NA","county":"SanJoséLaArada","VARNAME_2":"NA","NL_NAME_2":"NA","TYPE_2":"Municipio","ENGTYPE_2":"Municipality","CC_2":"NA","HASC_2":"NA","name":"San_José_La_Arada.county"},
"geometry":{"type": "MultiPolygon","coordinates": [[[[-89.6612,14.7549,1408.5938],[-89.6596,14.7476,1275.6038],[-89.6556,14.7428,1062.3263],[-89.6595,14.7289,972.5048],[-89.6612,14.705,626.1776],[-89.6555,14.7044,618.3239],[-89.6483,14.706,608.5172],[-89.6506,14.6742,854.2271],[-89.622,14.6832,942.8542],[-89.6063,14.6833,802.501],[-89.5947,14.6701,900.8301],[-89.593,14.6652,951.0081],[-89.5798,14.6649,906.3539],[-89.5775,14.666,906.7396],[-89.5645,14.6585,1163.7598],[-89.5531,14.6598,958.6947],[-89.5464,14.672,1125.8638],[-89.5447,14.6804,1037.8015],[-89.5463,14.6842,1089.0839],[-89.546,14.6911,1039.6566],[-89.5401,14.6977,989.0946],[-89.5282,14.7033,958.6542],[-89.5401,14.722,710.6425],[-89.5411,14.7267,581.8891],[-89.5381,14.732,579.1194],[-89.5396,14.7379,491.87],[-89.5445,14.7417,443.7454],[-89.5525,14.7447,395.31],[-89.5594,14.7383,419.4599],[-89.5617,14.7386,407.1039],[-89.5612,14.7477,385.2991],[-89.5996,14.7666,929.6064],[-89.6037,14.7592,1054.3235],[-89.6082,14.7587,1103.8113],[-89.6156,14.7543,840.1763],[-89.6612,14.7549,1408.5938]]]]}}