{"type":"Feature","properties":{"GID_2":"GTM.4.11_1","GID_0":"GTM","country":"Guatemala","GID_1":"GTM.4_1","province":"Chiquimula","NL_NAME_1":"NA","county":"SanJuanErmita","VARNAME_2":"NA","NL_NAME_2":"NA","TYPE_2":"Municipio","ENGTYPE_2":"Municipality","CC_2":"NA","HASC_2":"NA","name":"San_Juan_Ermita.county"},
"geometry":{"type": "MultiPolygon","coordinates": [[[[-89.4767,14.7296,549.3693],[-89.4649,14.7312,694.6841],[-89.4614,14.7213,909.1084],[-89.4643,14.7082,729.4723],[-89.4713,14.7033,928.5042],[-89.4675,14.6985,1168.8887],[-89.4632,14.696,1084.3984],[-89.4364,14.6955,1057.6376],[-89.4281,14.6984,1054.8849],[-89.4135,14.6929,1313.8549],[-89.3753,14.6921,1627.9913],[-89.3706,14.6959,1505.9402],[-89.3717,14.7024,1491.9491],[-89.3595,14.709,1271.4205],[-89.3611,14.7232,1102.9814],[-89.3791,14.7254,1121.7532],[-89.3792,14.7391,1269.0916],[-89.3851,14.7476,1380.8105],[-89.4022,14.7638,872.404],[-89.4026,14.7669,839.8954],[-89.4081,14.7668,667.7585],[-89.4132,14.77,622.6577],[-89.4102,14.7766,528.0829],[-89.4022,14.783,503.3453],[-89.4009,14.786,492.3447],[-89.4078,14.7864,579.8055],[-89.4102,14.7825,657.9557],[-89.4119,14.7827,657.9557],[-89.4235,14.7866,682.5554],[-89.4212,14.7896,645.1127],[-89.4265,14.7923,827.8564],[-89.4302,14.7889,881.8218],[-89.4308,14.7925,965.6915],[-89.4327,14.7918,977.5595],[-89.4352,14.7882,1029.3989],[-89.4561,14.7775,1178.2092],[-89.4493,14.7763,1076.9823],[-89.4589,14.7671,985.9311],[-89.4569,14.7645,923.7881],[-89.4488,14.7603,788.6114],[-89.445,14.7611,706.6067],[-89.4447,14.759,754.0892],[-89.4637,14.7423,735.8395],[-89.475,14.7357,596.8983],[-89.4767,14.7296,549.3693]]]]}}