{"type":"Feature","properties":{"GID_2":"GTM.6.11_1","GID_0":"GTM","country":"Guatemala","GID_1":"GTM.6_1","province":"Escuintla","NL_NAME_1":"NA","county":"SantaLucíaCotzumalguapa","VARNAME_2":"NA","NL_NAME_2":"NA","TYPE_2":"Municipio","ENGTYPE_2":"Municipality","CC_2":"NA","HASC_2":"NA","name":"Santa_Lucía_Cotzumalguapa.county"},
"geometry":{"type": "MultiPolygon","coordinates": [[[[-91.1007,14.4124,463.9526],[-91.1073,14.4099,436.7016],[-91.113,14.4043,381.01369999999997],[-91.1177,14.3982,412.7027],[-91.1213,14.3892,350.9797],[-91.1373,14.3746,267.7602],[-91.1319,14.3696,228.9707],[-91.1317,14.3622,231.0221],[-91.1254,14.357,258.9691],[-91.1293,14.342,192.5206],[-91.1275,14.3316,185.1374],[-91.1308,14.3213,169.3478],[-91.1379,14.3211,163.9867],[-91.1385,14.3146,151.2406],[-91.1425,14.3144,142.0369],[-91.1404,14.3108,172.1811],[-91.1455,14.3054,133.9366],[-91.1475,14.2983,149.6966],[-91.1453,14.2945,124.095],[-91.1463,14.2867,114.0437],[-91.1485,14.2827,117.3126],[-91.1536,14.2877,103.4698],[-91.1576,14.2851,116.9533],[-91.174,14.2884,109.4651],[-91.1719,14.2789,113.8869],[-91.1739,14.2754,95.469],[-91.1797,14.2713,91.6434],[-91.1924,14.2276,70.3595],[-91.1901,14.223,59.9128],[-91.1804,14.2242,72.6003],[-91.1797,14.2222,71.4472],[-91.1698,14.2209,62.4875],[-91.1698,14.2136,61.9817],[-91.1732,14.2114,63.8101],[-91.1741,14.2089,60.0196],[-91.1775,14.2112,57.6591],[-91.1809,14.2098,57.1275],[-91.1807,14.2001,62.0827],[-91.1779,14.2002,64.8159],[-91.1767,14.1941,60.2049],[-91.1781,14.191,64.3035],[-91.1738,14.1863,52.8451],[-91.1666,14.1828,53.086],[-91.1609,14.1865,55.3346],[-91.1307,14.1806,67.0275],[-91.1066,14.1664,67.2266],[-91.1068,14.1632,65.1904],[-91.0994,14.1613,64.7208],[-91.0816,14.1676,75.3894],[-91.0577,14.166,82.5587],[-91.055,14.1675,85.277],[-91.0534,14.1726,90.9197],[-91.0375,14.1726,86.9664],[-91.035,14.1932,111.2324],[-90.9853,14.1833,107.3628],[-90.9865,14.1979,123.9189],[-90.9843,14.2003,126.6523],[-90.9818,14.2117,147.7734],[-90.9842,14.2166,155.4682],[-90.9804,14.2347,192.8879],[-90.9874,14.247,213.8885],[-90.9866,14.261,238.4934],[-90.9895,14.2674,253.9552],[-90.9872,14.2767,274.1392],[-90.9812,14.2772,273.8934],[-90.9825,14.283,287.9337],[-90.9869,14.2829,287.1018],[-90.991,14.2874,298.5076],[-91.0022,14.2904,301.0054],[-91.0179,14.3169,338.8582],[-90.9906,14.3434,455.5121],[-90.99,14.3476,476.6436],[-90.9827,14.3525,498.365],[-90.9779,14.3699,581.6981],[-90.973,14.3734,603.7499],[-90.9774,14.3975,679.6422],[-90.9759,14.409,769.0482],[-90.9798,14.4116,749.5961],[-90.9821,14.4193,818.5004],[-90.9889,14.4202,851.176],[-90.9879,14.4288,908.8459],[-90.9949,14.4313,894.7598],[-90.9974,14.4297,878.4337],[-90.9992,14.433,883.1234],[-90.9967,14.4368,923.4116],[-90.9986,14.4392,909.973],[-91.0084,14.4333,880.6866],[-91.0102,14.4231,834.7374],[-91.0156,14.4215,740.1257],[-91.0177,14.4122,732.4122],[-91.0323,14.4064,613.397],[-91.0298,14.416,685.2604],[-91.0328,14.426,745.6685],[-91.0364,14.4272,760.4116],[-91.0381,14.4239,710.485],[-91.0392,14.4277,750.9069],[-91.0523,14.4285,701.0948],[-91.059,14.4192,658.2015],[-91.0704,14.417,583.559],[-91.0724,14.4105,566.8203],[-91.0758,14.4069,525.2735],[-91.0806,14.4057,506.1741],[-91.0849,14.401,480.0545],[-91.0901,14.4057,413.5495],[-91.0943,14.4064,446.8898],[-91.0955,14.4106,486.6392],[-91.1007,14.4124,463.9526]]]]}}