{"type": "Feature","bbox": [-90.9996,15.1016,-90.8776,15.3474],"geometry": {"type": "MultiPolygon","coordinates": [[[[-90.8776,15.2518,1135.3661],[-90.888,15.2735,1323.2694],[-90.8967,15.3105,1948.285],[-90.8922,15.3203,1864.4728],[-90.8878,15.3415,1805.3615],[-90.8971,15.3435,1824.1277],[-90.908,15.3401,1789.9198],[-90.9247,15.3421,1909.5522],[-90.9344,15.3474,2017.1979],[-90.9407,15.3371,1955.8987],[-90.957,15.3332,1981.5577],[-90.9678,15.3363,2205.6191],[-90.9837,15.3298,1750.4806],[-90.9976,15.3273,1564.5686],[-90.9996,15.3063,1370.5115],[-90.9985,15.2971,1191.9675],[-90.9906,15.2942,1344.9313],[-90.9513,15.2908,1258.6033],[-90.9497,15.28,997.4585],[-90.9449,15.2713,1403.3209],[-90.9491,15.2505,1223.78],[-90.9498,15.2369,1227.0122],[-90.9562,15.2319,1123.7148],[-90.954,15.1991,1790.6082],[-90.9619,15.1744,1283.2538],[-90.9785,15.1464,1656.4465],[-90.9794,15.1377,1735.7727],[-90.9875,15.1182,1899.0721],[-90.989,15.1021,2255.9185],[-90.9814,15.1016,2170.2051],[-90.9504,15.1325,2037.8447],[-90.9124,15.1486,1215.6982],[-90.9075,15.1748,1232.493],[-90.9066,15.1923,1399.7098],[-90.8835,15.2358,1145.4634],[-90.8824,15.2481,1122.7593],[-90.8776,15.2518,1135.3661]]]]}
,"properties": {"GID_2": "GTM.14.14_1","GID_0": "GTM","country": "Guatemala","GID_1": "GTM.14_1","province": "Quiché","NL_NAME_1": "NA","county": "SanAndrésSajcabajá","VARNAME_2": "NA","NL_NAME_2": "NA","TYPE_2": "Municipio","ENGTYPE_2": "Municipality","CC_2": "NA","HASC_2": "NA","name": "San_Andrés_Sajcabajá.county","area_km2": 176.2919,"hist_schema_id": "Elevation0-9000","hist_area_km2": {"925": 0.1023,"950": 0.5932,"975": 0.8182,"1000": 1.2068,"1025": 1.3295,"1050": 2.1683,"1075": 3.4366,"1100": 4.4799,"1125": 5.7482,"1150": 8.4077,"1175": 8.6737,"1200": 8.5923,"1225": 7.6309,"1250": 6.6085,"1275": 7.2021,"1300": 6.179,"1325": 4.8284,"1350": 4.0304,"1375": 4.5006,"1400": 4.9918,"1425": 4.3984,"1450": 4.1937,"1475": 3.4368,"1500": 4.1324,"1525": 3.4983,"1550": 3.1913,"1575": 2.6799,"1600": 2.5777,"1625": 2.5163,"1650": 2.4959,"1675": 2.639,"1700": 2.4345,"1725": 1.6367,"1750": 2.1685,"1775": 2.3115,"1800": 2.066,"1825": 2.2703,"1850": 2.8226,"1875": 2.8632,"1900": 2.4951,"1925": 2.4951,"1950": 3.0472,"1975": 2.9448,"2000": 3.0676,"2025": 2.27,"2050": 2.1473,"2075": 2.1064,"2100": 2.2905,"2125": 2.0451,"2150": 1.4519,"2175": 1.3293,"2200": 1.1247,"2225": 0.7362,"2250": 0.4703,"2275": 0.225,"2300": 0.1636,"2350": 0.0204}}}