{"type": "Feature","id": "1957","bbox": [-90.62743,13.78872,-90.05034,14.51906],"geometry": {"type": "Polygon","coordinates": [[[-90.05189,14.43349,1579.0928],[-90.07829,14.45312,1822.3938],[-90.11398,14.48175,1755.5847],[-90.12289,14.4955,2050.771],[-90.12801,14.51906,2233.6755],[-90.23795,14.49891,1867.7751],[-90.25076,14.49653,1931.896],[-90.26464,14.49477,1749.6229],[-90.26681,14.49591,1823.3242],[-90.27069,14.4987,1830.0492],[-90.2727,14.50139,1798.4275],[-90.28521,14.51431,1797.6865],[-90.29714,14.50883,1945.4595],[-90.30596,14.50883,1910.687],[-90.31415,14.50594,1727.3788],[-90.3197,14.5001,1881.2834],[-90.33874,14.4832,1401.3145],[-90.34531,14.47927,1302.1145],[-90.3498,14.47813,1234.0247],[-90.35153,14.48,1376.0222],[-90.35267,14.48217,1323.4059],[-90.35355,14.48475,1404.993],[-90.35507,14.49679,1582.7891],[-90.35699,14.49979,1658.833],[-90.35965,14.50247,1662.0793],[-90.36722,14.50449,1708.0442],[-90.3713,14.50408,1775.4169],[-90.38828,14.49653,1713.9451],[-90.42938,14.43349,1735.7212],[-90.44776,14.38791,1124.1821],[-90.44241,14.34104,998.7723],[-90.44383,14.32858,915.5718],[-90.44876,14.32305,903.5413],[-90.45057,14.32145,901.126],[-90.45264,14.32,896.3156],[-90.45496,14.31887,930.5128],[-90.45765,14.31794,921.2313],[-90.46078,14.31608,905.0252],[-90.46388,14.31349,972.2886],[-90.47217,14.30368,852.4252],[-90.47401,14.30243,873.7897],[-90.47656,14.3015,794.8058],[-90.48243,14.30026,873.717],[-90.49034,14.29737,778.6204],[-90.50966,14.28843,698.4628],[-90.52863,14.27133,594.8079],[-90.53635,14.26621,605.6693],[-90.56493,14.25624,521.7882],[-90.57966,14.24239,411.6333],[-90.58571,14.23112,413.9628],[-90.58883,14.22032,360.2199],[-90.58865,14.21552,421.6296],[-90.5872,14.21241,465.2133],[-90.58493,14.21138,483.4067],[-90.58074,14.21009,524.7849],[-90.56721,14.20756,680.2175],[-90.56075,14.20714,715.8542],[-90.55434,14.20735,883.2645],[-90.55139,14.20787,960.2687],[-90.53589,14.21345,1271.5544],[-90.53201,14.21376,1443.8562],[-90.52747,14.21293,1542.3683],[-90.51878,14.2088,1622.7178],[-90.5163,14.20544,1727.3376],[-90.51571,14.20254,1779.1641],[-90.52809,14.18709,1243.8965],[-90.54434,14.17221,739.0077],[-90.55077,14.16818,576.965],[-90.55336,14.16709,563.6932],[-90.57186,14.1643,414.1283],[-90.57855,14.16125,341.9752],[-90.57839,14.14735,292.1289],[-90.5748,14.14079,245.2445],[-90.57294,14.13872,241.4529],[-90.5585,14.1256,221.6311],[-90.55656,14.12146,195.9892],[-90.55617,14.11821,170.4816],[-90.55744,14.11604,160.9352],[-90.56044,14.11206,130.777],[-90.56421,14.10885,116.9776],[-90.57744,14.10131,47.6282],[-90.58245,14.09645,37.6221],[-90.58997,14.0824,21.9369],[-90.59299,14.07258,20.1665],[-90.59537,14.07113,20.0659],[-90.59842,14.06968,24.2815],[-90.60958,14.06803,16.311],[-90.62085,14.06514,15.6808],[-90.62503,14.06085,15.3265],[-90.62712,14.05589,13.9473],[-90.62743,13.93171,5.1514],[-90.62733,13.92067,0.0],[-90.58041,13.91327,0.0],[-90.50021,13.8947,1.3513],[-90.40116,13.85859,0.0],[-90.24555,13.79073,0.0],[-90.24056,13.78872,0.0],[-90.23699,13.80231,3.4946],[-90.23051,13.82722,4.7854],[-90.23012,13.84515,7.6242],[-90.23082,13.84996,8.1938],[-90.23255,13.85502,9.6169],[-90.24544,13.87776,14.1221],[-90.25513,13.91269,17.3502],[-90.25852,13.9207,18.9895],[-90.26146,13.92546,19.8333],[-90.2665,13.92778,20.9556],[-90.26857,13.92923,20.384],[-90.27022,13.93104,20.2654],[-90.27141,13.93341,18.2523],[-90.27864,13.9747,29.8801],[-90.28025,13.97879,36.8469],[-90.28526,13.9839,51.9961],[-90.28854,13.98793,65.834],[-90.292,13.99517,43.843],[-90.29265,13.99878,49.3951],[-90.29286,14.004,52.4593],[-90.29169,14.00974,58.1852],[-90.29025,14.01325,58.4946],[-90.28412,14.01775,113.989],[-90.26596,14.02271,206.6664],[-90.23787,14.0069,299.9802],[-90.21852,13.99103,218.9707],[-90.2134,13.98907,141.2117],[-90.1741,13.97982,288.9114],[-90.16413,13.97594,374.2289],[-90.15994,13.9762,367.4362],[-90.15669,13.97677,409.5905],[-90.14106,13.98731,732.0211],[-90.12545,14.01584,1077.9487],[-90.11917,14.027,1044.2251],[-90.11568,14.02953,1089.7421],[-90.11002,14.03279,1102.444],[-90.09853,14.03599,1299.385],[-90.08506,14.03847,1312.5038],[-90.08274,14.03935,1286.8342],[-90.07705,14.04545,1316.4851],[-90.05967,14.06958,1095.5837],[-90.05439,14.08074,1002.1973],[-90.05153,14.08927,909.723],[-90.05047,14.09511,817.9113],[-90.05034,14.09816,773.2742],[-90.05494,14.13785,581.8397],[-90.05346,14.15976,606.4159],[-90.0583,14.16973,679.0804],[-90.08271,14.19293,794.126],[-90.11377,14.21784,1100.7646],[-90.12064,14.22471,1196.9177],[-90.12452,14.22771,1237.0906],[-90.13026,14.22998,1215.8289],[-90.17663,14.24275,1259.7432],[-90.19105,14.25293,1177.4182],[-90.15547,14.33892,1671.1389],[-90.14217,14.35013,1459.3984],[-90.13997,14.35179,1469.182],[-90.10517,14.35845,1419.4226],[-90.09411,14.35788,1534.3739],[-90.0893,14.35556,1659.1096],[-90.08426,14.35385,1662.6104],[-90.08202,14.35483,1629.4402],[-90.08093,14.35794,1646.6959],[-90.08395,14.3769,1511.0142],[-90.06995,14.37845,1609.788],[-90.05189,14.43349,1579.0928]]]}
,"properties": {"ISO3166-1-Alpha-3": "GTM","country": "Guatemala","fill": "#00F","name": "Santa Rosa","area_km2": 3106.834,"hist_schema_id": "Elevation0-9000","hist_area_km2": {"0": 437.165,"25": 225.546,"50": 73.133,"75": 51.59,"100": 37.95,"125": 29.001,"150": 24.413,"175": 23.426,"200": 22.767,"225": 21.348,"250": 22.17,"275": 22.376,"300": 21.841,"325": 21.265,"350": 21.244,"375": 22.334,"400": 26.466,"425": 36.15,"450": 44.579,"475": 49.532,"500": 44.618,"525": 40.032,"550": 36.967,"575": 35.219,"600": 39.906,"625": 37.644,"650": 33.409,"675": 29.605,"700": 28.824,"725": 30.673,"750": 31.349,"775": 30.834,"800": 28.635,"825": 28.325,"850": 25.468,"875": 26.248,"900": 25.61,"925": 29.472,"950": 38.756,"975": 50.24,"1000": 75.954,"1025": 67.41,"1050": 60.056,"1075": 54.715,"1100": 51.49,"1125": 48.676,"1150": 47.217,"1175": 48.018,"1200": 46.147,"1225": 42.488,"1250": 36.94,"1275": 34.823,"1300": 34.965,"1325": 40.035,"1350": 37.077,"1375": 32.62,"1400": 43.911,"1425": 28.344,"1450": 26.105,"1475": 25.304,"1500": 22.982,"1525": 23.373,"1550": 22.099,"1575": 24.871,"1600": 22.119,"1625": 21.626,"1650": 22.529,"1675": 19.818,"1700": 17.641,"1725": 15.916,"1750": 14.478,"1775": 11.89,"1800": 10.391,"1825": 8.81,"1850": 7.844,"1875": 7.453,"1900": 7.925,"1925": 7.74,"1950": 6.159,"1975": 4.024,"2000": 3.552,"2025": 2.402,"2050": 2.279,"2075": 1.971,"2100": 1.478,"2125": 1.026,"2150": 0.718,"2175": 0.595,"2200": 0.616,"2225": 0.411,"2250": 0.431,"2275": 0.39,"2300": 0.472,"2325": 0.308,"2350": 0.205,"2375": 0.328,"2400": 0.185,"2425": 0.287,"2450": 0.267,"2475": 0.041,"2500": 0.226,"2550": 0.185,"2575": 0.164,"2600": 0.103,"2625": 0.062}}}