{"type":"Feature","properties":{"GID_1":"GTM.18_1","GID_0":"GTM","country":"Guatemala","province":"SantaRosa","VARNAME_1":"NA","NL_NAME_1":"NA","TYPE_1":"Departamento","ENGTYPE_1":"Department","CC_1":"NA","HASC_1":"GT.SR","ISO_1":"GT-06","name":"Santa_Rosa.province"},
"geometry":{"type": "MultiPolygon","coordinates": [[[[-90.2661,13.8062,12.8684],[-90.2567,13.8033,4.7279],[-90.2543,13.8039,9.5111],[-90.2622,13.8082,15.5903],[-90.2625,13.8111,2.5649],[-90.2591,13.811,1.7957],[-90.2588,13.8127,1.6379],[-90.2607,13.8155,2.8661],[-90.2639,13.8361,5.4701],[-90.2584,13.84,5.4313],[-90.257,13.8428,5.6153],[-90.2462,13.8479,9.6618],[-90.2435,13.8569,11.3969],[-90.2448,13.8678,13.3943],[-90.2422,13.8717,13.7925],[-90.2424,13.8747,13.4882],[-90.2439,13.8783,13.9825],[-90.2474,13.8802,13.6759],[-90.2491,13.89,15.9276],[-90.2527,13.8904,15.8233],[-90.2546,13.894,17.8505],[-90.2509,13.9022,16.5678],[-90.2511,13.9061,20.4419],[-90.2461,13.9147,17.784],[-90.2527,13.9215,19.0223],[-90.2507,13.9292,20.706],[-90.2576,13.9293,20.9389],[-90.2595,13.935,21.0855],[-90.2698,13.9336,19.7402],[-90.2759,13.947,25.1457],[-90.2823,13.9534,25.0814],[-90.2932,13.9748,32.8588],[-90.2892,13.9822,47.4895],[-90.2893,13.985,49.455],[-90.2948,13.9955,48.0937],[-90.2929,13.999,50.5284],[-90.2982,14.005,48.8518],[-90.2988,14.0113,59.3019],[-90.2464,14.0043,348.7959],[-90.2294,14.0038,132.9499],[-90.22,13.9958,244.7926],[-90.2086,13.9896,143.6965],[-90.1885,13.9821,214.7221],[-90.1766,13.9799,257.4506],[-90.1615,13.9815,398.8217],[-90.1523,13.9806,501.8959],[-90.1459,13.9745,510.2511],[-90.1465,13.9674,494.808],[-90.1493,13.963,532.6523],[-90.1467,13.9616,528.6218],[-90.1214,13.9959,1280.5183],[-90.1166,14.0,1176.4825],[-90.1166,14.0033,1081.7319],[-90.1229,14.011,1186.0979],[-90.1206,14.0122,1182.1682],[-90.1161,14.0383,978.4312],[-90.1155,14.0487,891.6969],[-90.1189,14.0607,730.229],[-90.0993,14.0676,692.3206],[-90.079,14.0601,1009.5403],[-90.0529,14.1259,604.8006],[-90.0551,14.1303,596.5323],[-90.0573,14.1273,640.0488],[-90.0813,14.1614,579.1304],[-90.0796,14.1642,636.5211],[-90.0759,14.1628,583.4876],[-90.069,14.1671,596.5151],[-90.0685,14.1715,635.3824],[-90.0726,14.1774,728.7886],[-90.067,14.1816,724.2607],[-90.0621,14.1825,861.7264],[-90.0754,14.2025,893.1074],[-90.1571,14.2526,1376.9337],[-90.1876,14.2564,1273.707],[-90.1983,14.2556,1073.9459],[-90.2022,14.2575,1042.569],[-90.2067,14.2642,899.6824],[-90.2021,14.2727,911.0747],[-90.2059,14.2961,1176.9845],[-90.1986,14.3096,1408.8948],[-90.2002,14.32,1601.6455],[-90.1943,14.3255,1790.4353],[-90.1408,14.3425,1544.142],[-90.1305,14.3356,1702.3906],[-90.1207,14.3335,1726.0959],[-90.1167,14.3342,1624.2166],[-90.1155,14.3425,1621.6173],[-90.1229,14.3568,1453.8348],[-90.0911,14.3542,1530.6443],[-90.0579,14.3892,1726.5286],[-90.0469,14.4299,1571.7887],[-90.0535,14.4361,1577.937],[-90.1111,14.4711,1742.8865],[-90.1141,14.4938,1846.9154],[-90.1436,14.5004,2005.5714],[-90.2345,14.4791,1979.2938],[-90.2441,14.4716,1935.0724],[-90.2574,14.4827,1871.2173],[-90.2531,14.5082,2124.9209],[-90.2567,14.5089,2063.1494],[-90.2572,14.5128,2112.0317],[-90.2591,14.5132,2123.3992],[-90.2635,14.508,1976.9424],[-90.2778,14.5175,1845.9375],[-90.2892,14.5212,1876.4811],[-90.2954,14.5186,1915.2461],[-90.2978,14.5133,1923.17],[-90.3028,14.5119,1918.0225],[-90.314,14.4964,1847.0579],[-90.3147,14.482,1460.7205],[-90.3191,14.4807,1452.2709],[-90.3221,14.476,1376.5499],[-90.3244,14.4754,1411.3812],[-90.3276,14.4682,1289.9982],[-90.3308,14.4678,1286.4771],[-90.3326,14.4809,1594.0787],[-90.3359,14.4856,1492.2327],[-90.337,14.4961,1501.6566],[-90.3537,14.5029,1611.0684],[-90.3605,14.4964,1557.8892],[-90.3657,14.4966,1466.9813],[-90.3656,14.4939,1440.8464],[-90.3745,14.4884,1507.668],[-90.377,14.4895,1511.0981],[-90.3793,14.4946,1594.9332],[-90.3831,14.4954,1648.9556],[-90.3924,14.4908,1676.0226],[-90.3892,14.4847,1713.8003],[-90.3995,14.4821,1791.5703],[-90.4021,14.4793,1802.8557],[-90.407,14.4811,1768.0121],[-90.4134,14.4733,1748.5579],[-90.4154,14.4617,1642.1901],[-90.4141,14.4373,1377.5883],[-90.4155,14.4338,1520.9045],[-90.4371,14.4128,1352.8667],[-90.4388,14.4093,1264.7485],[-90.4395,14.4041,1200.1112],[-90.4351,14.3931,1121.3912],[-90.4356,14.3826,1109.9841],[-90.4329,14.3668,1060.1541],[-90.4285,14.3547,1052.0463],[-90.4304,14.3486,1028.442],[-90.4292,14.3447,1008.9634],[-90.4323,14.3425,981.8141],[-90.4334,14.3383,1027.8169],[-90.4388,14.338,965.8004],[-90.4379,14.3332,993.459],[-90.4465,14.3324,971.7369],[-90.4506,14.3344,1020.7104],[-90.455,14.3304,1005.4363],[-90.4542,14.3212,935.0538],[-90.4561,14.3189,972.1268],[-90.4743,14.3187,975.5024],[-90.4763,14.3146,963.1747],[-90.481,14.314,957.374],[-90.4875,14.3089,812.1323],[-90.4933,14.3091,1059.5316],[-90.4958,14.3058,1109.236],[-90.5048,14.302,861.8809],[-90.506,14.2985,768.7244],[-90.5096,14.298,872.6337],[-90.5132,14.2868,651.8754],[-90.5208,14.2864,728.387],[-90.5227,14.2838,661.5087],[-90.5275,14.2836,723.844],[-90.5326,14.2784,787.1691],[-90.537,14.2787,771.9354],[-90.5425,14.2751,720.8659],[-90.5455,14.2773,706.3931],[-90.5532,14.2746,705.6444],[-90.5559,14.27,664.7472],[-90.5612,14.2682,625.6755],[-90.5633,14.2629,536.6266],[-90.5671,14.2592,453.9758],[-90.5729,14.2566,514.6169],[-90.579,14.2473,453.098],[-90.5884,14.2419,317.3323],[-90.5863,14.2379,379.252],[-90.5897,14.2302,379.4514],[-90.5946,14.2252,269.8532],[-90.6021,14.2072,212.139],[-90.5968,14.1953,291.2511],[-90.5745,14.2027,542.5236],[-90.5645,14.2,632.1829],[-90.5623,14.1961,679.261],[-90.5583,14.1952,693.8353],[-90.5518,14.1969,808.7522],[-90.5286,14.2157,1372.696],[-90.5192,14.2024,1716.7473],[-90.5091,14.1991,1661.859],[-90.5201,14.1928,1634.6737],[-90.5296,14.1804,1044.8148],[-90.5489,14.1719,642.438],[-90.5666,14.1565,366.5303],[-90.591,14.158,238.2264],[-90.5934,14.1371,175.519],[-90.5665,14.1338,254.2241],[-90.564,14.1258,195.2113],[-90.5551,14.1245,221.7338],[-90.554,14.1222,224.7412],[-90.5546,14.1008,122.8078],[-90.5616,14.0982,86.7123],[-90.5659,14.1005,83.7151],[-90.5747,14.0992,50.4355],[-90.5839,14.0935,28.6617],[-90.5898,14.0919,22.5959],[-90.5919,14.083,25.4651],[-90.5894,14.0787,20.4828],[-90.5903,14.0705,19.8486],[-90.6172,14.0695,16.7296],[-90.6193,14.0168,9.9888],[-90.6172,14.0138,7.935],[-90.6242,14.0017,7.9932],[-90.6232,13.9218,0.0],[-90.5793,13.9151,2.5718],[-90.5349,13.9057,6.71],[-90.5296,13.9029,0.0],[-90.4999,13.8951,1.3513],[-90.4993,13.8938,1.3513],[-90.4949,13.8935,0.0],[-90.491,13.8912,0.0],[-90.4882,13.8915,3.8795],[-90.4874,13.8901,0.0],[-90.4254,13.8704,0.0],[-90.4154,13.8654,0.0],[-90.3974,13.8596,5.3372],[-90.3543,13.8399,0.6258],[-90.3499,13.8421,3.475],[-90.3415,13.8379,8.5002],[-90.3421,13.8354,0.0],[-90.339,13.8335,0.0],[-90.3365,13.8349,1.7591],[-90.3376,13.8321,6.1654],[-90.3218,13.8268,0.0],[-90.2763,13.8057,0.0],[-90.2726,13.8046,1.2282],[-90.2718,13.8085,0.5],[-90.2735,13.8099,1.2895],[-90.2835,13.8104,1.965],[-90.2879,13.8135,6.1821],[-90.2893,13.8174,1.8902],[-90.2829,13.8129,1.4877],[-90.2721,13.8101,2.4506],[-90.2661,13.8062,12.8684]]]]}}