{"type": "Feature","bbox": [-91.3844,14.4656,-91.3275,14.5395],"geometry": {"type": "MultiPolygon","coordinates": [[[[-91.3786,14.5174,323.9487],[-91.3757,14.5102,298.628],[-91.3769,14.4872,252.8594],[-91.3815,14.4813,243.6628],[-91.3844,14.4704,245.848],[-91.3818,14.4656,239.398],[-91.3696,14.4736,237.1461],[-91.3617,14.4761,253.597],[-91.3528,14.4832,247.2077],[-91.3407,14.5053,310.5223],[-91.3381,14.5156,353.0981],[-91.3312,14.5228,386.9382],[-91.3275,14.5316,417.9881],[-91.3492,14.5353,465.6733],[-91.3499,14.5395,493.9635],[-91.367,14.5385,412.756],[-91.3703,14.5347,399.6268],[-91.3786,14.5174,323.9487]]]]}
,"properties": {"GID_2": "GTM.20.15_1","GID_0": "GTM","country": "Guatemala","GID_1": "GTM.20_1","province": "Suchitepéquez","NL_NAME_1": "NA","county": "SanMiguelPanán","VARNAME_2": "NA","NL_NAME_2": "NA","TYPE_2": "Municipio","ENGTYPE_2": "Municipality","CC_2": "NA","HASC_2": "NA","name": "San_Miguel_Panán.county","area_km2": 26.51977,"hist_schema_id": "Elevation0-9000","hist_area_km2": {"200": 0.20529,"225": 1.23173,"250": 3.57192,"275": 3.77703,"300": 3.38687,"325": 3.48939,"350": 2.97617,"375": 2.77085,"400": 2.48345,"425": 1.72402,"450": 0.73886,"475": 0.16419}}}