{"type":"Feature","properties":{"GID_2":"GTM.10.4_1","GID_0":"GTM","country":"Guatemala","GID_1":"GTM.10_1","province":"Jalapa","NL_NAME_1":"NA","county":"SanCarlosAlzatate","VARNAME_2":"NA","NL_NAME_2":"NA","TYPE_2":"Municipio","ENGTYPE_2":"Municipality","CC_2":"NA","HASC_2":"NA","name":"San_Carlos_Alzatate.county"},
"geometry":{"type": "MultiPolygon","coordinates": [[[[-90.1085,14.5263,2385.2969],[-90.1222,14.5145,2136.4766],[-90.1226,14.5091,2099.0752],[-90.1179,14.5008,2017.4492],[-90.1186,14.4944,1958.6528],[-90.1141,14.4938,1846.9154],[-90.1111,14.4711,1742.8865],[-90.0535,14.4361,1577.937],[-90.0473,14.4402,1653.7156],[-90.0417,14.4469,1452.1906],[-90.0459,14.45,1552.0333],[-90.0472,14.4568,1523.6147],[-90.0385,14.4691,1773.3706],[-90.0319,14.4694,1674.7422],[-90.0291,14.4773,1697.6938],[-90.0291,14.4833,1648.5487],[-90.0221,14.4889,1496.2239],[-90.0143,14.5048,1502.9764],[-90.0129,14.5093,1398.9343],[-90.0137,14.5146,1275.4207],[-90.0184,14.5148,1340.8264],[-90.0255,14.5018,1509.1932],[-90.0315,14.5052,1531.3044],[-90.0365,14.5146,1617.7509],[-90.0414,14.5162,1727.6011],[-90.0981,14.5214,2336.2476],[-90.1085,14.5263,2385.2969]]]]}}