{"type":"Feature","properties":{"GID_2":"GTM.14.9_1","GID_0":"GTM","country":"Guatemala","GID_1":"GTM.14_1","province":"Quiché","NL_NAME_1":"NA","county":"Joyabaj","VARNAME_2":"NA","NL_NAME_2":"NA","TYPE_2":"Municipio","ENGTYPE_2":"Municipality","CC_2":"NA","HASC_2":"NA","name":"Joyabaj.county"},
"geometry":{"type": "MultiPolygon","coordinates": [[[[-90.7763,15.1025,2046.1293],[-90.7903,15.0923,2067.3523],[-90.8086,15.0616,2286.2612],[-90.8247,15.0421,2070.9575],[-90.8278,15.0264,1583.7479],[-90.8376,15.0218,1502.9299],[-90.8582,15.0241,1517.943],[-90.8772,15.0163,1542.5961],[-90.8903,15.0214,1551.764],[-90.9042,15.0302,1552.9474],[-90.9248,15.0287,1623.0295],[-90.9603,15.0315,1768.2991],[-90.9645,15.019,1774.5083],[-90.9578,15.005,1722.7004],[-90.9674,14.9897,1711.1154],[-90.9991,14.9756,1911.8392],[-91.0094,14.9671,1937.8108],[-91.0108,14.9369,1752.4937],[-90.9997,14.9346,1538.9558],[-90.9968,14.9387,1466.8131],[-90.9848,14.936,1432.6526],[-90.9756,14.9377,1482.1232],[-90.9695,14.9357,1690.868],[-90.9658,14.9308,1415.2623],[-90.9586,14.9269,1402.0693],[-90.9451,14.9264,1355.3752],[-90.9417,14.9248,1315.5857],[-90.9328,14.9255,1442.5531],[-90.9308,14.9209,1291.2576],[-90.9241,14.9241,1467.3733],[-90.9194,14.9218,1302.7471],[-90.9172,14.9226,1270.8215],[-90.9171,14.9273,1377.4084],[-90.9122,14.9265,1313.0957],[-90.9032,14.9322,1329.6808],[-90.8893,14.9364,1256.4846],[-90.8799,14.9338,1211.0453],[-90.8761,14.9374,1253.994],[-90.8732,14.9375,1237.7498],[-90.8682,14.9341,1306.7223],[-90.8577,14.9347,1255.4373],[-90.8527,14.9301,1139.8259],[-90.8476,14.9309,1289.2697],[-90.8458,14.9275,1189.1923],[-90.8264,14.9283,1171.0276],[-90.8217,14.9253,1112.9532],[-90.8185,14.9263,1151.4294],[-90.8154,14.9244,1079.7594],[-90.8122,14.9266,1107.6707],[-90.8088,14.9234,1067.0193],[-90.7969,14.9232,1026.0764],[-90.7955,14.925,1074.8916],[-90.7842,14.9199,990.2023],[-90.7689,14.9295,1013.3369],[-90.7625,14.9258,988.1779],[-90.757,14.9289,1073.2103],[-90.7389,14.9168,885.8089],[-90.7307,14.9149,879.0208],[-90.7297,14.9297,1235.6967],[-90.7234,14.9404,1104.9844],[-90.7007,14.9574,1757.7344],[-90.6894,14.9631,1823.1481],[-90.6602,14.9659,1312.1833],[-90.6575,14.9859,1446.6335],[-90.6528,14.9877,1516.8635],[-90.6551,14.9906,1455.9513],[-90.6542,14.996,1464.073],[-90.75,15.064,2247.8152],[-90.7763,15.1025,2046.1293]]]]}}