{"type":"Feature","properties":{"GID_2":"GTM.20.13_1","GID_0":"GTM","country":"Guatemala","GID_1":"GTM.20_1","province":"Suchitepéquez","NL_NAME_1":"NA","county":"SanJuanBautista","VARNAME_2":"NA","NL_NAME_2":"NA","TYPE_2":"Municipio","ENGTYPE_2":"Municipality","CC_2":"NA","HASC_2":"NA","name":"San_Juan_Bautista.county"},
"geometry":{"type": "MultiPolygon","coordinates": [[[[-91.2612,14.3222,109.3501],[-91.2568,14.3221,114.1185],[-91.2526,14.3341,125.0201],[-91.2431,14.3427,139.5557],[-91.206,14.3928,222.3818],[-91.1769,14.4231,289.6285],[-91.1645,14.4322,333.8431],[-91.1676,14.4376,341.4922],[-91.1597,14.4514,478.7048],[-91.161,14.4561,507.9944],[-91.1592,14.4603,528.3328],[-91.1687,14.4585,535.438],[-91.1857,14.4624,746.8578],[-91.1888,14.4522,631.8228],[-91.1927,14.4481,596.5142],[-91.1879,14.4435,528.3183],[-91.1911,14.4321,407.6801],[-91.1931,14.4306,396.4154],[-91.2067,14.4319,410.4904],[-91.2122,14.4287,374.3854],[-91.2264,14.4125,254.0095],[-91.2346,14.4077,273.0616],[-91.2395,14.3948,228.407],[-91.2359,14.3822,197.7934],[-91.2411,14.3664,160.4666],[-91.2488,14.3575,155.8796],[-91.2478,14.3521,146.6755],[-91.2488,14.3497,138.2197],[-91.2531,14.3474,140.6821],[-91.256,14.333,121.5557],[-91.2612,14.3222,109.3501]]]]}}