{"type":"Feature","properties":{"GID_2":"GTM.8.7_1","GID_0":"GTM","country":"Guatemala","GID_1":"GTM.8_1","province":"Huehuetenango","NL_NAME_1":"NA","county":"Jacaltenango","VARNAME_2":"NA","NL_NAME_2":"NA","TYPE_2":"Municipio","ENGTYPE_2":"Municipality","CC_2":"NA","HASC_2":"NA","name":"Jacaltenango.county"},
"geometry":{"type": "MultiPolygon","coordinates": [[[[-91.5932,15.6989,1763.2703],[-91.6069,15.7274,1716.2307],[-91.6131,15.7298,1402.2135],[-91.6219,15.7408,2168.1948],[-91.636,15.7513,2196.1943],[-91.6482,15.7794,1671.9727],[-91.6609,15.7923,1343.4309],[-91.662,15.8042,1623.3857],[-91.6703,15.8072,1409.1234],[-91.6875,15.8202,1315.7903],[-91.7131,15.8113,1039.3649],[-91.7264,15.816,907.897],[-91.7408,15.8248,934.3824],[-91.7526,15.8356,971.2365],[-91.7601,15.831,947.9666],[-91.7691,15.8306,923.2117],[-91.778,15.8392,946.9617],[-91.8163,15.8424,678.2695],[-91.8502,15.869,668.2029],[-91.8587,15.8545,663.8017],[-91.8155,15.8196,782.5812],[-91.807,15.8196,811.8882],[-91.8002,15.816,838.8749],[-91.7934,15.8084,857.3526],[-91.7854,15.8033,853.9474],[-91.7752,15.7982,891.9066],[-91.7704,15.7987,836.3655],[-91.7598,15.7914,870.3698],[-91.7477,15.7865,903.0972],[-91.7412,15.7721,905.8056],[-91.7328,15.7666,1036.4814],[-91.7317,15.7556,1164.7074],[-91.7246,15.7532,1287.7084],[-91.7184,15.7429,1139.6584],[-91.7081,15.7426,1497.7195],[-91.6978,15.7362,1820.984],[-91.6916,15.7364,1586.2052],[-91.6837,15.7329,1409.9955],[-91.6843,15.7134,2052.1902],[-91.6887,15.7056,2154.522],[-91.7002,15.6912,1708.9248],[-91.7,15.6789,1430.9946],[-91.6769,15.6784,1824.2268],[-91.628,15.6931,2030.7062],[-91.5932,15.6989,1763.2703]]]]}}