{"type":"Feature","properties":{"GID_1":"GTM.5_1","GID_0":"GTM","country":"Guatemala","province":"ElProgreso","VARNAME_1":"Guastatoya","NL_NAME_1":"NA","TYPE_1":"Departamento","ENGTYPE_1":"Department","CC_1":"NA","HASC_1":"GT.PR","ISO_1":"GT-02","name":"El_Progreso.province"},
"geometry":{"type": "MultiPolygon","coordinates": [[[[-90.2106,14.6863,1261.1016],[-90.2041,14.6821,1016.7236],[-90.2035,14.6758,1159.5952],[-90.1922,14.6485,1247.9513],[-90.1904,14.6523,1252.592],[-90.1899,14.667,1391.131],[-90.1872,14.6762,1370.0259],[-90.1841,14.6795,1311.3754],[-90.181,14.7052,1298.6921],[-90.1091,14.7171,1066.9589],[-90.0893,14.7101,1195.3049],[-90.0723,14.7118,1256.1404],[-90.049,14.7521,1086.3418],[-89.9858,14.7713,1971.5072],[-89.9555,14.8158,1459.155],[-89.9364,14.8215,1149.9656],[-89.9249,14.836,1242.9175],[-89.9114,14.849,1209.6943],[-89.874,14.8719,1104.6433],[-89.8633,14.8676,1075.8719],[-89.8508,14.869,885.7464],[-89.8451,14.8731,843.5756],[-89.8398,14.8848,699.8649],[-89.8125,14.903,432.1779],[-89.8081,14.9114,385.4809],[-89.8059,14.9224,271.4436],[-89.8107,14.9313,258.6172],[-89.816,14.9322,222.4655],[-89.8198,14.9371,223.4729],[-89.8657,15.0206,899.8592],[-89.8652,15.0216,899.8592],[-89.8267,15.0124,848.8935],[-89.7806,15.0122,886.4231],[-89.8097,15.0488,2076.2354],[-89.8289,15.0656,2366.0938],[-89.893,15.1403,2451.4644],[-89.9199,15.1402,2603.1045],[-89.9135,15.1161,2291.822],[-89.9039,15.0969,2314.4624],[-89.902,15.0883,2693.135],[-89.9066,15.0845,2837.6431],[-89.9174,15.0835,2867.5293],[-89.9326,15.0847,2735.1011],[-89.9463,15.0829,2577.5881],[-89.9647,15.0761,2242.1389],[-90.0087,15.0763,2576.2603],[-90.0169,15.066,2294.6802],[-90.0275,15.0627,2367.7295],[-90.0348,15.0568,2277.2327],[-90.045,15.0519,2476.6072],[-90.0501,15.0455,2509.4104],[-90.0618,15.0416,2401.4565],[-90.0685,15.0413,2558.7346],[-90.0853,15.0461,2600.3154],[-90.1203,15.0369,2457.7681],[-90.116,15.0266,2397.6816],[-90.1206,15.0271,2367.8435],[-90.1935,15.0001,820.8497],[-90.224,14.9803,738.8629],[-90.3151,14.9162,551.0007],[-90.3184,14.9112,523.3086],[-90.3175,14.9017,502.9046],[-90.3036,14.894,519.9017],[-90.305,14.8831,402.6835],[-90.3144,14.8795,478.7123],[-90.3327,14.8816,461.2603],[-90.3399,14.8778,434.6649],[-90.3441,14.8781,524.5559],[-90.3485,14.8752,415.0416],[-90.363,14.8775,506.0308],[-90.3723,14.8749,489.5834],[-90.3825,14.8781,506.8079],[-90.394,14.8776,461.362],[-90.4034,14.8683,427.5645],[-90.4009,14.8618,581.4673],[-90.401,14.8504,516.2699],[-90.3945,14.8496,635.3808],[-90.3899,14.8437,576.0333],[-90.3779,14.8444,591.7253],[-90.3705,14.8472,647.2688],[-90.3596,14.8448,656.4291],[-90.3551,14.8468,694.314],[-90.3476,14.846,687.4515],[-90.3469,14.8442,678.9861],[-90.339,14.8417,740.9026],[-90.3314,14.8333,795.5396],[-90.3281,14.8322,869.2812],[-90.3272,14.8293,967.4711],[-90.3238,14.8299,976.5823],[-90.3236,14.8207,693.9515],[-90.3353,14.8139,749.4109],[-90.3386,14.8057,666.4754],[-90.3386,14.8029,792.9966],[-90.3326,14.7977,908.7512],[-90.3316,14.7952,820.99],[-90.3341,14.7912,765.4581],[-90.3339,14.7877,730.0326],[-90.3373,14.7839,789.5015],[-90.3368,14.7795,781.9424],[-90.3388,14.7787,721.0967],[-90.3388,14.7765,749.5313],[-90.3344,14.7662,904.1216],[-90.3349,14.7596,807.0711],[-90.3278,14.7542,844.9606],[-90.3231,14.7449,907.5598],[-90.3216,14.735,968.3282],[-90.3056,14.7236,1266.6753],[-90.2964,14.7233,1282.7719],[-90.2879,14.713,1589.0869],[-90.2606,14.7049,1575.7384],[-90.2384,14.7016,1534.0782],[-90.2106,14.6863,1261.1016]]]]}}