{"type": "Feature","id": "1956","bbox": [-90.4176,14.6743,-89.76457,15.15985],"geometry": {"type": "Polygon","coordinates": [[[-89.83399,14.87651,654.0107],[-89.81159,14.90105,472.7421],[-89.79901,14.90643,480.6751],[-89.77756,14.90705,474.4308],[-89.77268,14.90788,370.6492],[-89.76868,14.90953,347.4255],[-89.76669,14.91428,343.0441],[-89.76457,14.93402,223.8975],[-89.76705,14.93723,207.1921],[-89.77211,14.94023,206.7399],[-89.78493,14.94198,211.5402],[-89.79712,14.94824,221.6376],[-89.80511,14.95924,245.1276],[-89.84908,15.018,948.5863],[-89.8518,15.02275,1131.1357],[-89.85273,15.02668,1156.7471],[-89.8487,15.02823,1305.0911],[-89.84394,15.02885,1394.8002],[-89.79557,15.02983,942.9492],[-89.79655,15.04327,1377.1361],[-89.84105,15.10848,1506.001],[-89.878,15.15985,2137.6646],[-89.90719,15.15241,1914.6621],[-89.92383,15.15107,1857.2572],[-89.973,15.15654,2264.9048],[-89.99995,15.14207,1219.312],[-90.03845,15.11675,2069.8188],[-90.12387,15.06125,2035.2952],[-90.28257,14.95449,829.1597],[-90.29844,14.90565,1104.4629],[-90.3034,14.88958,394.6897],[-90.3543,14.88152,593.0391],[-90.38737,14.88726,670.4213],[-90.39993,14.89904,560.5454],[-90.41225,14.87765,586.8665],[-90.41476,14.87506,662.439],[-90.4176,14.87088,753.7914],[-90.4176,14.86695,732.5298],[-90.41659,14.86142,721.2976],[-90.41512,14.85816,692.7544],[-90.41334,14.85594,723.1779],[-90.41145,14.85439,762.5806],[-90.40933,14.8531,751.2098],[-90.40675,14.85212,626.049],[-90.40057,14.85124,496.7638],[-90.3943,14.85186,660.8229],[-90.38024,14.85568,707.3766],[-90.3574,14.85734,872.2894],[-90.35014,14.85486,877.8209],[-90.34859,14.85269,828.9675],[-90.34401,14.84359,776.2026],[-90.33495,14.81848,893.9249],[-90.33115,14.79408,820.99],[-90.33259,14.78592,817.8527],[-90.33386,14.78421,921.167],[-90.33528,14.78282,903.9269],[-90.33936,14.77744,721.0967],[-90.34339,14.77042,806.9603],[-90.34463,14.76577,836.2374],[-90.34427,14.76153,824.0189],[-90.34332,14.7592,846.9851],[-90.33885,14.75099,870.1812],[-90.31787,14.72928,995.4682],[-90.30849,14.72225,1274.9906],[-90.25025,14.70169,1543.444],[-90.23671,14.69507,1633.7675],[-90.23066,14.69011,1556.8796],[-90.21973,14.67776,1346.2794],[-90.20909,14.6743,1004.9193],[-90.2073,14.67497,1093.9825],[-90.20025,14.67792,1133.1467],[-90.18423,14.68686,1137.7618],[-90.18036,14.69755,1338.7996],[-90.1793,14.70406,1218.2902],[-90.17751,14.70696,1193.5568],[-90.17353,14.70944,1106.6292],[-90.14718,14.71926,1272.3232],[-90.11351,14.73026,1112.2679],[-90.09837,14.72846,919.2665],[-90.08612,14.72262,1125.54],[-90.07814,14.72008,1088.2319],[-90.07346,14.72236,1068.6707],[-90.06972,14.72628,870.7798],[-90.03856,14.78261,871.2167],[-90.01543,14.78933,1456.1407],[-89.98176,14.79315,1519.3478],[-89.95158,14.80395,1748.8162],[-89.92241,14.8193,1250.1084],[-89.88751,14.86188,734.4921],[-89.87397,14.87377,968.882],[-89.86833,14.87594,1026.734],[-89.86252,14.87713,822.1981],[-89.84963,14.87765,856.122],[-89.83399,14.87651,654.0107]]]}
,"properties": {"ISO3166-1-Alpha-3": "GTM","country": "Guatemala","fill": "#00F","name": "El Progreso","area_km2": 1926.314,"hist_schema_id": "Elevation0-9000","hist_area_km2": {"200": 2.09,"225": 13.89,"250": 23.745,"275": 30.403,"300": 35.649,"325": 35.054,"350": 39.337,"375": 40.485,"400": 39.03,"425": 37.289,"450": 35.343,"475": 36.141,"500": 37.064,"525": 38.847,"550": 36.88,"575": 35.507,"600": 34.401,"625": 35.528,"650": 34.464,"675": 36.39,"700": 37.333,"725": 38.769,"750": 45.72,"775": 47.832,"800": 52.095,"825": 50.477,"850": 55.849,"875": 50.479,"900": 47.651,"925": 42.751,"950": 37.709,"975": 35.434,"1000": 32.155,"1025": 29.777,"1050": 25.842,"1075": 23.874,"1100": 21.005,"1125": 19.488,"1150": 16.865,"1175": 16.558,"1200": 15.062,"1225": 14.468,"1250": 13.812,"1275": 13.258,"1300": 12.54,"1325": 11.331,"1350": 10.757,"1375": 9.937,"1400": 9.076,"1425": 8.789,"1450": 8.829,"1475": 9.055,"1500": 8.296,"1525": 8.726,"1550": 8.87,"1575": 9.485,"1600": 8.071,"1625": 7.804,"1650": 6.902,"1675": 6.922,"1700": 7.127,"1725": 6.963,"1750": 6.389,"1775": 6.532,"1800": 6.163,"1825": 5.59,"1850": 5.569,"1875": 7.309,"1900": 8.517,"1925": 9.581,"1950": 11.239,"1975": 10.564,"2000": 10.789,"2025": 10.809,"2050": 12.099,"2075": 11.71,"2100": 11.26,"2125": 11.444,"2150": 11.075,"2175": 11.587,"2200": 11.3,"2225": 10.973,"2250": 10.522,"2275": 10.174,"2300": 10.604,"2325": 9.642,"2350": 8.987,"2375": 9.192,"2400": 8.844,"2425": 7.984,"2450": 6.776,"2475": 7.349,"2500": 7.39,"2525": 7.513,"2550": 6.346,"2575": 4.729,"2600": 4.36,"2625": 2.723,"2650": 2.293,"2675": 2.129,"2700": 1.515,"2725": 1.269,"2750": 1.187,"2775": 0.696,"2800": 0.717,"2825": 0.512,"2850": 0.45,"2875": 0.266,"2900": 0.205,"2925": 0.102,"2950": 0.061}}}