{"type": "Feature","bbox": [-91.6692,14.5177,-91.63,14.5974],"geometry": {"type": "MultiPolygon","coordinates": [[[[-91.6585,14.5177,222.8346],[-91.6482,14.5333,249.9263],[-91.6476,14.5395,265.0797],[-91.6438,14.5454,277.3382],[-91.6436,14.5583,312.0571],[-91.6398,14.5635,321.6227],[-91.6338,14.5785,357.4047],[-91.6348,14.5862,390.5548],[-91.63,14.5944,414.5897],[-91.6326,14.5974,423.2932],[-91.6545,14.5876,357.9842],[-91.6692,14.5892,323.8819],[-91.6665,14.5553,279.5148],[-91.6601,14.5334,250.7601],[-91.6585,14.5177,222.8346]]]]}
,"properties": {"GID_2": "GTM.15.8_1","GID_0": "GTM","country": "Guatemala","GID_1": "GTM.15_1","province": "Retalhuleu","NL_NAME_1": "NA","county": "SanSebastián","VARNAME_2": "NA","NL_NAME_2": "NA","TYPE_2": "Municipio","ENGTYPE_2": "Municipality","CC_2": "NA","HASC_2": "NA","name": "San_Sebastián.county","area_km2": 18.87916,"hist_schema_id": "Elevation0-9000","hist_area_km2": {"225": 0.49259,"250": 1.66241,"275": 2.70897,"300": 3.6528,"325": 3.93988,"350": 3.42677,"375": 1.88775,"400": 0.96437,"425": 0.14363}}}