{"type": "Feature","bbox": [-90.818,15.1988,-90.4759,15.671],"geometry": {"type": "MultiPolygon","coordinates": [[[[-90.7568,15.671,288.5872],[-90.7698,15.6207,647.5569],[-90.783,15.579,1041.5182],[-90.799,15.5613,824.0259],[-90.8058,15.5373,1091.7058],[-90.7917,15.5188,1562.0123],[-90.7731,15.5201,1484.9475],[-90.761,15.5091,1610.0417],[-90.7717,15.452,1599.9104],[-90.7693,15.4393,2100.436],[-90.7738,15.4096,1812.4048],[-90.7854,15.4018,1761.7434],[-90.8101,15.4174,2468.1567],[-90.818,15.4167,2298.9832],[-90.8159,15.3938,2577.3501],[-90.8112,15.3727,2106.7207],[-90.7976,15.341,1403.8225],[-90.7779,15.3065,1801.588],[-90.767,15.2942,1894.6958],[-90.711,15.2551,2513.926],[-90.6859,15.2259,1104.3542],[-90.6856,15.2145,885.1876],[-90.6829,15.2037,982.814],[-90.6794,15.2056,865.963],[-90.6673,15.2068,953.0997],[-90.66,15.2073,1093.8835],[-90.6577,15.2058,1264.1743],[-90.6478,15.2112,808.1721],[-90.6439,15.2118,810.5713],[-90.6426,15.2072,900.8872],[-90.6352,15.2071,963.572],[-90.6333,15.2115,799.459],[-90.6274,15.2092,798.9137],[-90.6263,15.2068,865.3241],[-90.6209,15.2055,954.774],[-90.6094,15.2065,893.3855],[-90.6042,15.1993,860.3971],[-90.5992,15.1988,993.8033],[-90.5955,15.2049,999.9113],[-90.5918,15.2068,1074.6956],[-90.59,15.2137,814.234],[-90.5866,15.2125,798.0],[-90.5844,15.2089,881.0429],[-90.5764,15.2091,1107.8369],[-90.5714,15.2114,831.4038],[-90.5584,15.2021,950.3815],[-90.542,15.2047,969.1937],[-90.5373,15.2069,859.7935],[-90.5281,15.2162,1184.8767],[-90.5265,15.2211,1278.1941],[-90.5234,15.2239,1215.848],[-90.5221,15.235,897.7104],[-90.5154,15.2383,964.5875],[-90.5158,15.2427,985.2268],[-90.5087,15.2471,1193.6919],[-90.506,15.2558,980.0547],[-90.4977,15.2591,847.9777],[-90.4951,15.2637,798.0],[-90.491,15.2665,895.0503],[-90.4924,15.2743,798.0],[-90.4882,15.2752,883.3933],[-90.4838,15.2898,1044.3302],[-90.4759,15.3019,877.0857],[-90.4802,15.3221,878.0152],[-90.4994,15.3326,729.5953],[-90.5053,15.3306,828.422],[-90.5107,15.3355,720.0165],[-90.5291,15.3394,747.0662],[-90.5449,15.3378,805.1891],[-90.552,15.3389,743.7488],[-90.5561,15.3372,806.4232],[-90.5633,15.3412,644.0347],[-90.5679,15.3395,777.813],[-90.5764,15.3401,884.7673],[-90.5821,15.3426,686.7762],[-90.5864,15.3409,803.3554],[-90.5933,15.3421,718.5914],[-90.5955,15.3394,887.1432],[-90.6018,15.3408,746.213],[-90.6084,15.3399,952.9136],[-90.6244,15.3459,627.0426],[-90.6455,15.3469,845.4229],[-90.6559,15.3548,587.5032],[-90.6661,15.3542,835.1277],[-90.6745,15.3593,619.4191],[-90.6798,15.359,656.8081],[-90.6913,15.3632,771.3132],[-90.6942,15.3719,755.1345],[-90.7021,15.3773,566.6108],[-90.7029,15.3805,691.7358],[-90.708,15.3838,637.1313],[-90.7115,15.4008,740.6427],[-90.7094,15.4119,767.415],[-90.7127,15.4141,646.5295],[-90.7116,15.4204,902.8625],[-90.704,15.429,1125.8789],[-90.6993,15.4376,670.2936],[-90.6992,15.4405,523.8611],[-90.672,15.4367,589.4436],[-90.6674,15.4353,543.7993],[-90.6629,15.4314,886.9447],[-90.6552,15.4337,1062.6815],[-90.6459,15.4455,680.7169],[-90.646,15.4637,801.0117],[-90.634,15.4827,717.2682],[-90.625,15.4855,661.6917],[-90.6163,15.498,419.6889],[-90.6084,15.4975,472.386],[-90.6052,15.5018,468.502],[-90.6031,15.507,388.7356],[-90.6052,15.5119,371.8373],[-90.6039,15.5164,310.1562],[-90.6066,15.537,396.8498],[-90.6112,15.5482,358.9883],[-90.6124,15.5563,316.8856],[-90.6175,15.5648,453.9346],[-90.6198,15.5733,445.6819],[-90.6324,15.5773,433.1817],[-90.6419,15.5853,342.8319],[-90.6388,15.5907,376.3618],[-90.633,15.5919,330.6452],[-90.6291,15.5963,282.791],[-90.6292,15.6101,278.2296],[-90.635,15.6126,291.3517],[-90.6354,15.6168,542.2527],[-90.6413,15.6192,370.7495],[-90.6434,15.6236,500.6143],[-90.6425,15.6325,346.7939],[-90.6484,15.6379,271.1436],[-90.6558,15.6385,264.9788],[-90.6576,15.6436,262.9958],[-90.6541,15.6487,257.8641],[-90.6915,15.6516,294.3313],[-90.6927,15.6536,306.2899],[-90.7239,15.6609,267.6376],[-90.7568,15.671,288.5872]]]]}
,"properties": {"GID_2": "GTM.14.3_1","GID_0": "GTM","country": "Guatemala","GID_1": "GTM.14_1","province": "Quiché","NL_NAME_1": "NA","county": "Chicaman","VARNAME_2": "NA","NL_NAME_2": "NA","TYPE_2": "Municipio","ENGTYPE_2": "Municipality","CC_2": "NA","HASC_2": "NA","name": "Chicaman.county","area_km2": 888.5393,"hist_schema_id": "Elevation0-9000","hist_area_km2": {"225": 0.49,"250": 1.3679,"275": 3.4099,"300": 4.1454,"325": 3.8391,"350": 3.7169,"375": 3.6355,"400": 3.2067,"425": 4.4323,"450": 5.2491,"475": 4.8203,"500": 4.9224,"525": 6.5154,"550": 6.6182,"575": 8.64,"600": 10.8459,"625": 12.4796,"650": 14.7675,"675": 14.3388,"700": 14.8093,"725": 17.0971,"750": 16.9334,"775": 18.2821,"800": 27.1609,"825": 21.2703,"850": 20.2899,"875": 20.0054,"900": 18.0664,"925": 16.2086,"950": 15.4131,"975": 15.5162,"1000": 13.3698,"1025": 13.9025,"1050": 13.1873,"1075": 13.2482,"1100": 13.697,"1125": 14.127,"1150": 14.9241,"1175": 15.5587,"1200": 15.0279,"1225": 16.7454,"1250": 17.3798,"1275": 17.5637,"1300": 17.5029,"1325": 15.131,"1350": 17.1755,"1375": 16.2143,"1400": 16.4599,"1425": 14.8442,"1450": 14.3944,"1475": 14.2104,"1500": 13.4128,"1525": 14.1283,"1550": 13.0448,"1575": 12.2063,"1600": 11.5927,"1625": 11.777,"1650": 11.1023,"1675": 11.6746,"1700": 11.3477,"1725": 10.2843,"1750": 10.407,"1775": 9.5891,"1800": 9.7527,"1825": 9.0985,"1850": 8.0145,"1875": 7.1558,"1900": 7.0943,"1925": 6.0514,"1950": 5.7037,"1975": 5.9895,"2000": 5.2125,"2025": 4.5992,"2050": 4.4148,"2075": 3.8834,"2100": 3.2092,"2125": 2.8616,"2150": 2.6775,"2175": 2.412,"2200": 1.9217,"2225": 1.288,"2250": 0.8997,"2275": 1.1041,"2300": 0.8792,"2325": 0.6953,"2350": 0.9202,"2375": 0.818,"2400": 0.8589,"2425": 0.9202,"2450": 0.6134,"2475": 0.961,"2500": 0.8384,"2525": 0.5112,"2550": 0.4294,"2575": 0.7565,"2600": 0.4498,"2625": 0.5315,"2650": 0.5315,"2675": 0.2862,"2700": 0.2249,"2725": 0.2453}}}