{"type": "Feature","bbox": [-91.4663,14.561,-91.3999,14.6253],"geometry": {"type": "MultiPolygon","coordinates": [[[[-91.4647,14.5999,748.8101],[-91.4663,14.5962,721.9921],[-91.4437,14.5706,570.1517],[-91.4433,14.561,516.7444],[-91.4351,14.5616,513.3111],[-91.4208,14.5684,529.625],[-91.4096,14.5709,524.3011],[-91.4013,14.5707,516.4841],[-91.3999,14.5737,525.0223],[-91.402,14.5829,569.4524],[-91.4,14.5905,606.0331],[-91.4117,14.604,694.5463],[-91.4207,14.6087,746.8715],[-91.4313,14.6253,877.1229],[-91.4472,14.6074,765.4338],[-91.4465,14.5971,702.9324],[-91.4516,14.6008,760.7172],[-91.4647,14.5999,748.8101]]]]}
,"properties": {"GID_2": "GTM.20.16_1","GID_0": "GTM","country": "Guatemala","GID_1": "GTM.20_1","province": "Suchitepéquez","NL_NAME_1": "NA","county": "SanPabloJocopilas","VARNAME_2": "NA","NL_NAME_2": "NA","TYPE_2": "Municipio","ENGTYPE_2": "Municipality","CC_2": "NA","HASC_2": "NA","name": "San_Pablo_Jocopilas.county","area_km2": 27.12549,"hist_schema_id": "Elevation0-9000","hist_area_km2": {"500": 0.16417,"525": 1.9084,"550": 2.60604,"575": 2.60599,"600": 2.44179,"625": 2.87264,"650": 2.74948,"675": 2.4827,"700": 2.38007,"725": 2.35952,"750": 1.78499,"775": 1.02583,"800": 0.90272,"825": 0.47187,"850": 0.28722,"875": 0.08206}}}