{"type": "Feature","bbox": [-91.2162,14.8019,-90.9991,14.994],"geometry": {"type": "MultiPolygon","coordinates": [[[[-91.0067,14.9362,1583.7432],[-91.0108,14.9369,1752.4937],[-91.0094,14.9671,1937.8108],[-90.9991,14.9756,1911.8392],[-91.0073,14.9831,1908.4912],[-91.0034,14.9938,1907.701],[-91.0115,14.994,1909.9994],[-91.0325,14.9766,1984.1649],[-91.0447,14.9773,2002.2845],[-91.0544,14.9754,2047.5239],[-91.0672,14.9774,1993.2059],[-91.0908,14.9657,2011.2008],[-91.106,14.9631,1985.1497],[-91.1225,14.9478,2014.7623],[-91.1356,14.9402,2210.0481],[-91.1524,14.9451,2114.3303],[-91.1643,14.9434,2142.1284],[-91.1822,14.9472,2138.95],[-91.2162,14.9325,2442.2837],[-91.175299999999993,14.8934,2759.7124],[-91.1725,14.8913,2702.6174],[-91.161,14.8905,2626.478],[-91.159,14.8887,2706.5305],[-91.1552,14.8756,2506.7661],[-91.1558,14.8713,2512.3425],[-91.1514,14.8671,2463.2515],[-91.1414,14.8622,2517.834],[-91.138,14.8669,2506.6736],[-91.1348,14.8683,2473.071],[-91.1321,14.8667,2517.2195],[-91.1248,14.8528,2452.552],[-91.1029,14.8355,2643.1963],[-91.0717,14.8019,2671.9973],[-91.0619,14.8049,2792.7764],[-91.0592,14.8079,2805.356],[-91.0533,14.8041,2822.0522],[-91.0246,14.8243,2471.1584],[-91.0248,14.8264,2510.293],[-91.0336,14.8314,2475.8921],[-91.0343,14.8354,2440.7087],[-91.0419,14.8394,2321.8018],[-91.0405,14.8435,2320.2495],[-91.0433,14.8471,2277.3911],[-91.0379,14.8615,2198.9546],[-91.033,14.8639,2213.4705],[-91.032,14.8704,2137.7461],[-91.0278,14.8721,2140.104],[-91.0279,14.8753,2076.7485],[-91.0226,14.8769,2038.2263],[-91.0194,14.8848,1867.5325],[-91.0202,14.8867,1857.6648],[-91.0224,14.8868,1922.697],[-91.0228,14.9109,1772.1647],[-91.0176,14.913,1648.5393],[-91.0154,14.9207,1658.8293],[-91.0162,14.923,1729.4579],[-91.0115,14.9257,1660.5881],[-91.0112,14.9337,1578.5957],[-91.0067,14.9362,1583.7432]]]]}
,"properties": {"GID_2": "GTM.14.5_1","GID_0": "GTM","country": "Guatemala","GID_1": "GTM.14_1","province": "Quiché","NL_NAME_1": "NA","county": "Chichicastenango","VARNAME_2": "NA","NL_NAME_2": "NA","TYPE_2": "Municipio","ENGTYPE_2": "Municipality","CC_2": "NA","HASC_2": "NA","name": "Chichicastenango.county","area_km2": 242.3845,"hist_schema_id": "Elevation0-9000","hist_area_km2": {"1525": 0.0205,"1550": 0.1434,"1575": 0.2049,"1600": 0.4917,"1625": 0.6555,"1650": 0.8194,"1675": 0.9423,"1700": 1.2086,"1725": 1.475,"1750": 1.5569,"1775": 2.3354,"1800": 1.9051,"1825": 2.1305,"1850": 2.4787,"1875": 3.4824,"1900": 5.5717,"1925": 5.8584,"1950": 6.2477,"1975": 8.0504,"2000": 9.5664,"2025": 8.6448,"2050": 8.2355,"2075": 6.7813,"2100": 6.4946,"2125": 6.2898,"2150": 6.5357,"2175": 6.6177,"2200": 7.4782,"2225": 9.0151,"2250": 8.6874,"2275": 8.4007,"2300": 8.5237,"2325": 7.991,"2350": 8.4011,"2375": 7.4586,"2400": 8.2169,"2425": 9.2623,"2450": 9.4672,"2475": 9.3035,"2500": 7.4594,"2525": 5.7177,"2550": 4.2422,"2575": 3.6274,"2600": 2.8282,"2625": 2.7463,"2650": 2.4593,"2675": 1.8035,"2700": 1.1067,"2725": 0.7994,"2750": 0.7174,"2775": 0.5944,"2800": 0.9224,"2825": 0.3485,"2850": 0.0615}}}