{"type": "Feature","bbox": [-90.3284,15.128,-89.9302,15.2941],"geometry": {"type": "MultiPolygon","coordinates": [[[[-89.9648,15.2774,813.8647],[-89.9703,15.2737,825.7202],[-90.0096,15.2658,738.9999],[-90.0396,15.2625,823.0112],[-90.0568,15.2571,802.4243],[-90.063,15.2607,806.9465],[-90.0902,15.2598,1047.0681],[-90.0976,15.2619,1119.7649],[-90.124,15.2596,1288.0244],[-90.1432,15.2625,1563.9248],[-90.1537,15.2571,1858.1289],[-90.1671,15.2579,1950.0247],[-90.2169,15.272,2190.9263],[-90.25,15.2735,2167.4644],[-90.2814,15.292,1939.5215],[-90.2904,15.2941,1789.1467],[-90.2931,15.2908,1627.74],[-90.2956,15.2824,1566.4841],[-90.2937,15.2799,1592.0946],[-90.3054,15.2468,1828.3098],[-90.3137,15.243,1640.996],[-90.3279,15.2413,1272.6064],[-90.3284,15.23,1426.5171],[-90.3136,15.2311,1285.0485],[-90.2994,15.2164,1460.8519],[-90.2889,15.214,1368.926],[-90.2851,15.2156,1359.8306],[-90.281,15.2207,1465.3225],[-90.2797,15.2271,1695.6643],[-90.2816,15.2299,1599.2432],[-90.2764,15.2307,1621.9076],[-90.2722,15.2284,1647.2651],[-90.2674,15.2307,1546.4952],[-90.2666,15.2286,1620.6465],[-90.2601,15.2248,1675.0632],[-90.2577,15.2272,1695.4358],[-90.2546,15.2262,1752.5449],[-90.254,15.2194,1613.6697],[-90.2478,15.2142,1770.993],[-90.2421,15.2128,1905.6755],[-90.2318,15.2138,1957.1182],[-90.2198,15.2053,2012.9773],[-90.2087,15.2174,1669.6587],[-90.1968,15.2186,1590.6658],[-90.1721,15.2165,1444.2667],[-90.1681,15.2181,1440.5122],[-90.1646,15.2128,1564.2753],[-90.1569,15.1807,1648.4434],[-90.1522,15.173,1331.3075],[-90.1481,15.1744,1384.9799],[-90.129,15.1888,991.6907],[-90.1244,15.187,795.8222],[-90.1154,15.1871,794.3521],[-90.0927,15.1986,585.174],[-90.0914,15.198,585.174],[-90.0969,15.1887,812.2891],[-90.0998,15.1782,834.2831],[-90.0951,15.1761,1070.798],[-90.0941,15.1721,1112.2936],[-90.0962,15.1681,1094.3608],[-90.0941,15.1574,1287.2865],[-90.0878,15.1535,1387.931],[-90.0798,15.1387,1851.7842],[-90.0778,15.1365,1855.9326],[-90.074,15.136,1930.8021],[-90.0705,15.1399,1949.8962],[-90.0629,15.1401,1901.3582],[-90.0412,15.1287,1998.1288],[-90.037,15.128,2044.1145],[-90.0197,15.1375,1445.3296],[-90.0087,15.1416,1062.3235],[-90.0077,15.1462,955.1332],[-90.0039,15.1518,1143.2732],[-89.995,15.1539,1292.1947],[-89.9883,15.1464,1394.1702],[-89.9424,15.2111,805.4555],[-89.9302,15.2433,474.0228],[-89.9307,15.2536,316.1018],[-89.9384,15.2701,563.7027],[-89.9449,15.2739,754.7618],[-89.9648,15.2774,813.8647]]]]}
,"properties": {"GID_2": "GTM.2.3_1","GID_0": "GTM","country": "Guatemala","GID_1": "GTM.2_1","province": "BajaVerapaz","NL_NAME_1": "NA","county": "Purulhá","VARNAME_2": "NA","NL_NAME_2": "NA","TYPE_2": "Municipio","ENGTYPE_2": "Municipality","CC_2": "NA","HASC_2": "NA","name": "Purulhá.county","area_km2": 370.9536,"hist_schema_id": "Elevation0-9000","hist_area_km2": {"150": 0.1023,"175": 0.6341,"200": 1.4524,"225": 2.0661,"250": 2.3934,"275": 3.0275,"300": 2.7616,"325": 3.7231,"350": 3.9277,"375": 4.0709,"400": 4.5824,"425": 4.5415,"450": 5.1757,"475": 5.4417,"500": 5.8918,"525": 5.8918,"550": 6.6283,"575": 6.5465,"600": 7.7945,"625": 7.8149,"650": 7.3035,"675": 6.8945,"700": 7.5901,"725": 7.4674,"750": 7.406,"775": 7.7333,"800": 7.3037,"825": 6.7103,"850": 6.2398,"875": 6.4853,"900": 5.4216,"925": 5.5035,"950": 4.8283,"975": 4.4807,"1000": 4.1942,"1025": 4.3169,"1050": 4.0511,"1075": 3.6215,"1100": 3.601,"1125": 3.4374,"1150": 3.6215,"1175": 3.8057,"1200": 3.2737,"1225": 2.9668,"1250": 3.7033,"1275": 3.9284,"1300": 3.6215,"1325": 4.2967,"1350": 4.2762,"1375": 3.9898,"1400": 4.4604,"1425": 4.2558,"1450": 4.2763,"1475": 4.5013,"1500": 3.6419,"1525": 4.9308,"1550": 9.8401,"1575": 9.2675,"1600": 5.8306,"1625": 6.0147,"1650": 5.4624,"1675": 5.4213,"1700": 4.7053,"1725": 4.296,"1750": 4.337,"1775": 4.3779,"1800": 3.9892,"1825": 3.7232,"1850": 3.437,"1875": 3.5187,"1900": 3.437,"1925": 4.4397,"1950": 4.1123,"1975": 3.5189,"2000": 3.6415,"2025": 3.0686,"2050": 2.455,"2075": 2.0049,"2100": 1.7595,"2125": 1.0434,"2150": 1.1455,"2175": 0.9,"2200": 1.0022,"2225": 0.6341,"2250": 0.4091,"2275": 0.2045,"2300": 0.1023,"2325": 0.1227,"2350": 0.1227}}}