{"type":"Feature","properties":{"GID_2":"GTM.5.5_1","GID_0":"GTM","country":"Guatemala","GID_1":"GTM.5_1","province":"ElProgreso","NL_NAME_1":"NA","county":"SanAntonioLaPaz","VARNAME_2":"NA","NL_NAME_2":"NA","TYPE_2":"Municipio","ENGTYPE_2":"Municipality","CC_2":"NA","HASC_2":"NA","name":"San_Antonio_La_Paz.county"},
"geometry":{"type": "MultiPolygon","coordinates": [[[[-90.3236,14.8207,693.9515],[-90.3353,14.8139,749.4109],[-90.3386,14.8057,666.4754],[-90.3386,14.8029,792.9966],[-90.3326,14.7977,908.7512],[-90.3316,14.7952,820.99],[-90.3341,14.7912,765.4581],[-90.3339,14.7877,730.0326],[-90.3373,14.7839,789.5015],[-90.3368,14.7795,781.9424],[-90.3388,14.7787,721.0967],[-90.3388,14.7765,749.5313],[-90.3344,14.7662,904.1216],[-90.3349,14.7596,807.0711],[-90.3278,14.7542,844.9606],[-90.3231,14.7449,907.5598],[-90.3216,14.735,968.3282],[-90.3056,14.7236,1266.6753],[-90.2964,14.7233,1282.7719],[-90.2879,14.713,1589.0869],[-90.2606,14.7049,1575.7384],[-90.2384,14.7016,1534.0782],[-90.2267,14.696,1473.3857],[-90.2041,14.6821,1016.7236],[-90.2035,14.6758,1159.5952],[-90.2012,14.6848,1084.8057],[-90.2059,14.6927,1021.2728],[-90.2034,14.6999,941.5354],[-90.2001,14.7028,967.0078],[-90.2014,14.708,978.7134],[-90.1971,14.7116,1003.4901],[-90.1992,14.7225,917.9584],[-90.2084,14.73,915.6859],[-90.2115,14.7401,907.7708],[-90.218,14.7429,854.4539],[-90.2195,14.7453,856.3965],[-90.2197,14.7529,901.3743],[-90.223,14.7573,908.4056],[-90.2299,14.7555,823.4743],[-90.2362,14.7603,839.131],[-90.2303,14.7752,841.963],[-90.2332,14.781,791.5372],[-90.2442,14.7847,760.8682],[-90.2469,14.7934,910.1254],[-90.2525,14.7945,827.3572],[-90.2588,14.8032,876.182],[-90.2621,14.8047,889.668],[-90.2716,14.8021,711.6708],[-90.2799,14.8108,791.1481],[-90.2951,14.8129,688.2878],[-90.3173,14.8077,643.796],[-90.3236,14.8207,693.9515]]]]}}