{"type": "Feature","bbox": [-91.354,14.6313,-91.2773,14.7135],"geometry": {"type": "MultiPolygon","coordinates": [[[[-91.2835,14.7135,1567.9143],[-91.2867,14.7135,1835.078],[-91.2919,14.709,1915.42],[-91.2981,14.6973,1646.7981],[-91.3135,14.692,1966.5502],[-91.3239,14.6821,1765.0454],[-91.3279,14.6683,1761.3835],[-91.333,14.6605,1621.7446],[-91.3427,14.6662,1508.7605],[-91.354,14.6428,1238.2035],[-91.3306,14.6435,2208.1255],[-91.3285,14.6338,1524.3303],[-91.321,14.6382,1679.5836],[-91.3102,14.6313,2523.4915],[-91.296,14.6444,2159.2273],[-91.2881,14.6575,2154.572],[-91.2817,14.6765,1960.8187],[-91.2808,14.6865,1796.8542],[-91.2773,14.6959,1565.1497],[-91.279,14.6971,1555.5],[-91.282,14.6949,1565.4747],[-91.2878,14.7014,1570.1167],[-91.2873,14.7066,1653.8671],[-91.2841,14.7089,1555.5],[-91.2835,14.7135,1567.9143]]]]}
,"properties": {"GID_2": "GTM.19.8_1","GID_0": "GTM","country": "Guatemala","GID_1": "GTM.19_1","province": "Sololá","NL_NAME_1": "NA","county": "SanJuanLaLaguna","VARNAME_2": "NA","NL_NAME_2": "NA","TYPE_2": "Municipio","ENGTYPE_2": "Municipality","CC_2": "NA","HASC_2": "NA","name": "San_Juan_La_Laguna.county","area_km2": 34.295,"hist_schema_id": "Elevation0-9000","hist_area_km2": {"1100": 0.02051,"1125": 0.02051,"1175": 0.02051,"1200": 0.02051,"1300": 0.04103,"1325": 0.06154,"1350": 0.02051,"1375": 0.06154,"1400": 0.02051,"1425": 0.06154,"1450": 0.14359,"1475": 0.06154,"1500": 0.24615,"1525": 0.1641,"1550": 0.43074,"1575": 0.88193,"1600": 1.12805,"1625": 0.92292,"1650": 0.90247,"1675": 0.63581,"1700": 0.71786,"1725": 0.98452,"1750": 0.65634,"1775": 0.94348,"1800": 0.98451,"1825": 1.14861,"1850": 0.923,"1875": 1.04606,"1900": 0.77943,"1925": 1.21015,"1950": 1.25116,"1975": 1.3332,"2000": 1.33323,"2025": 1.43578,"2050": 1.49732,"2075": 1.12813,"2100": 1.29222,"2125": 1.59996,"2150": 0.98461,"2175": 0.86152,"2200": 0.69743,"2225": 0.45128,"2250": 0.51281,"2275": 0.41025,"2300": 0.59486,"2325": 0.41025,"2350": 0.36923,"2375": 0.47179,"2400": 0.41025,"2425": 0.47179,"2450": 0.28718,"2475": 0.26666,"2500": 0.3077,"2525": 0.22564,"2550": 0.04102,"2575": 0.1641,"2600": 0.08205,"2625": 0.10257,"2650": 0.02051,"2675": 0.02051}}}