{"type": "Feature","bbox": [-91.5237,14.8782,-91.4702,14.9393],"geometry": {"type": "MultiPolygon","coordinates": [[[[-91.4935,14.8782,2335.9282],[-91.4826,14.8782,2354.6306],[-91.4745,14.8844,2386.3257],[-91.4731,14.8888,2391.2026],[-91.4762,14.8938,2393.5425],[-91.4702,14.8954,2391.3777],[-91.4788,14.9062,2412.1133],[-91.4772,14.9148,2669.5774],[-91.4722,14.9209,2682.062],[-91.4719,14.9235,2666.9829],[-91.4779,14.9272,2656.9434],[-91.5065,14.9287,2679.5889],[-91.5186,14.9393,2749.1157],[-91.5237,14.937,2738.2559],[-91.5236,14.9319,2732.7932],[-91.5175,14.9229,2698.1208],[-91.5156,14.9155,2727.8386],[-91.5051,14.8933,2416.7517],[-91.4988,14.8828,2334.7952],[-91.4935,14.8782,2335.9282]]]]}
,"properties": {"GID_2": "GTM.21.2_1","GID_0": "GTM","country": "Guatemala","GID_1": "GTM.21_1","province": "Totonicapán","NL_NAME_1": "NA","county": "SanAndrésXecul","VARNAME_2": "NA","NL_NAME_2": "NA","TYPE_2": "Municipio","ENGTYPE_2": "Municipality","CC_2": "NA","HASC_2": "NA","name": "San_Andrés_Xecul.county","area_km2": 21.41053,"hist_schema_id": "Elevation0-9000","hist_area_km2": {"2325": 0.20491,"2350": 0.92209,"2375": 1.72121,"2400": 1.70066,"2425": 0.84007,"2450": 0.49175,"2475": 0.49175,"2500": 0.26636,"2525": 0.30734,"2550": 0.32783,"2575": 0.36881,"2600": 0.24587,"2625": 0.20489,"2650": 0.32782,"2675": 1.65948,"2700": 3.01162,"2725": 3.38041,"2750": 2.23318,"2775": 1.45466,"2800": 0.65564,"2825": 0.38929,"2850": 0.20489}}}