{"type": "Feature","bbox": [-91.1119,14.5762,-90.9483,14.7254],"geometry": {"type": "MultiPolygon","coordinates": [[[[-90.9499,14.5918,1607.6747],[-90.9483,14.6038,1750.9012],[-90.9516,14.6085,1914.2336],[-90.9505,14.6141,1872.308],[-90.9545,14.6186,1885.2493],[-90.9559,14.6277,1907.822],[-90.95,14.6395,1954.1022],[-90.9558,14.6482,2063.6655],[-90.9582,14.6486,2059.6824],[-90.962,14.6453,2142.2847],[-90.9733,14.6585,2105.5146],[-90.9917,14.6651,2188.8557],[-90.9908,14.6804,2136.9041],[-90.9877,14.6822,2108.3848],[-90.9826,14.6814,2183.8474],[-90.9817,14.6848,2181.2808],[-90.988,14.6884,2223.3657],[-90.9841,14.6955,2152.8799],[-90.9859,14.7002,2223.9194],[-90.9906,14.7025,2242.1543],[-90.9913,14.7092,2243.8301],[-90.9874,14.7149,2200.1948],[-90.9893,14.7254,2238.2676],[-91.0045,14.723,2180.5273],[-91.0094,14.7238,2119.4624],[-91.0211,14.7205,2055.8269],[-91.0242,14.7235,2026.2856],[-91.0261,14.7191,2019.3727],[-91.0378,14.7189,2024.8862],[-91.0428,14.71,1931.353],[-91.056,14.7087,1935.3947],[-91.0611,14.7064,1896.2474],[-91.0635,14.7005,1991.8298],[-91.0699,14.7011,1890.6747],[-91.0754,14.6994,1859.1155],[-91.0784,14.6927,1925.8042],[-91.0786,14.6819,1916.1796],[-91.089,14.6696,1693.9058],[-91.0912,14.6625,1707.3032],[-91.0914,14.6531,1567.4436],[-91.0981,14.6424,1549.324],[-91.0984,14.6388,1650.4712],[-91.1018,14.6355,1529.5837],[-91.1032,14.6305,1522.4523],[-91.1083,14.6292,1394.6487],[-91.1101,14.6203,1416.3335],[-91.1076,14.6165,1422.0168],[-91.1105,14.6107,1289.4001],[-91.1119,14.6026,1253.1681],[-91.1091,14.5975,1173.825],[-91.1107,14.5904,1157.6975],[-91.1058,14.5874,1213.0559],[-91.0666,14.5785,1480.1974],[-91.0381,14.585,1487.2274],[-91.0384,14.5953,1501.1526],[-91.0348,14.599,1550.8933],[-91.0344,14.6056,1705.3075],[-91.0313,14.6097,1755.7612],[-91.0259,14.61,1795.9551],[-91.0159,14.5991,2067.7146],[-91.0134,14.5925,2162.177],[-91.01,14.5897,2178.2554],[-91.0095,14.5864,2180.4717],[-91.0044,14.5834,2024.126],[-91.0036,14.5797,1967.6609],[-90.9965,14.5762,2268.5491],[-90.9647,14.5961,2056.6228],[-90.959,14.5975,1877.7765],[-90.9499,14.5918,1607.6747]]]]}
,"properties": {"GID_2": "GTM.3.7_1","GID_0": "GTM","country": "Guatemala","GID_1": "GTM.3_1","province": "Chimaltenango","NL_NAME_1": "NA","county": "Patzún","VARNAME_2": "NA","NL_NAME_2": "NA","TYPE_2": "Municipio","ENGTYPE_2": "Municipality","CC_2": "NA","HASC_2": "NA","name": "Patzún.county","area_km2": 190.0991,"hist_schema_id": "Elevation0-9000","hist_area_km2": {"1050": 0.0205,"1075": 0.0616,"1100": 0.0821,"1125": 0.1026,"1150": 0.2052,"1175": 0.2667,"1200": 0.3898,"1225": 0.4104,"1250": 0.4514,"1275": 0.5129,"1300": 0.636,"1325": 0.8002,"1350": 0.7797,"1375": 0.8412,"1400": 1.2516,"1425": 1.0464,"1450": 0.7797,"1475": 1.149,"1500": 1.2105,"1525": 1.5798,"1550": 1.4977,"1575": 1.2721,"1600": 1.2515,"1625": 1.5593,"1650": 1.5387,"1675": 1.5592,"1700": 1.5182,"1725": 1.6618,"1750": 1.6823,"1775": 2.0721,"1800": 1.8669,"1825": 1.99,"1850": 2.1746,"1875": 2.0926,"1900": 2.6668,"1925": 2.2771,"1950": 3.077,"1975": 3.077,"2000": 3.2822,"2025": 3.9181,"2050": 3.9385,"2075": 4.7181,"2100": 5.2514,"2125": 5.8051,"2150": 8.1025,"2175": 9.169,"2200": 14.1524,"2225": 16.4908,"2250": 11.2199,"2275": 9.7639,"2300": 7.8975,"2325": 6.4617,"2350": 5.6618,"2375": 4.4515,"2400": 4.6978,"2425": 4.2259,"2450": 2.831,"2475": 2.3592,"2500": 1.9899,"2525": 1.1899,"2550": 1.2309,"2575": 0.718,"2600": 0.6975,"2625": 0.5129,"2650": 0.5334,"2675": 0.595,"2700": 0.2872,"2725": 0.4103,"2750": 0.1231}}}