{"type": "Feature","id": "3467","bbox": [-91.33222,14.80711,-90.4315,16.07926],"geometry": {"type": "Polygon","coordinates": [[[-90.45049,16.02068,133.9171],[-90.44026,16.02481,129.5],[-90.436,16.03401,133.0624],[-90.44199,16.04483,132.1288],[-90.43354,16.05605,131.7663],[-90.4315,16.06548,131.8825],[-90.43641,16.07328,130.739],[-90.4482,16.07926,130.3085],[-90.46615,16.07292,147.4545],[-90.48574,16.0707,153.0399],[-90.57547,16.0706,167.3141],[-90.7133,16.07034,229.7205],[-90.85112,16.07013,178.6646],[-90.98899,16.06987,202.2387],[-90.9948,16.06987,194.9662],[-91.11743,15.83428,310.8049],[-91.12717,15.81596,386.5684],[-91.19226,15.68778,776.1992],[-91.19458,15.68457,746.6249],[-91.21329,15.66708,943.701],[-91.21202,15.66049,797.038],[-91.21084,15.65881,938.8677],[-91.21003,15.65636,1195.5044],[-91.21205,15.65465,1226.4817],[-91.21569,15.65331,836.4499],[-91.22432,15.65253,1158.6658],[-91.22841,15.65163,1021.3245],[-91.23241,15.64607,1132.599],[-91.25941,15.62763,2009.5024],[-91.26272,15.62701,1713.9773],[-91.26913,15.62703,1771.3025],[-91.27218,15.62664,1791.9685],[-91.27489,15.62595,1822.2402],[-91.27721,15.62478,1854.7859],[-91.28949,15.6145,2119.8411],[-91.29367,15.61318,1920.7463],[-91.29747,15.61261,2003.0542],[-91.3006,15.61292,2027.8337],[-91.30341,15.61099,2094.6938],[-91.30569,15.60688,1794.5029],[-91.30713,15.59484,2056.0105],[-91.30974,15.58538,2399.7212],[-91.31556,15.57417,2189.9656],[-91.31881,15.56939,2150.5742],[-91.32116,15.56357,2117.3999],[-91.3222,15.56003,2282.8079],[-91.32354,15.5368,2711.9065],[-91.32917,15.52781,2795.2607],[-91.33114,15.52301,2858.4907],[-91.33176,15.52032,2957.2812],[-91.3322,15.51714,2985.7959],[-91.33222,15.51399,3075.3979],[-91.3315,15.50784,3303.312],[-91.33083,15.50515,3276.0479],[-91.3299,15.50252,3267.572],[-91.32765,15.49797,3045.9878],[-91.32628,15.49593,2966.1294],[-91.32525,15.49371,2919.4988],[-91.32222,15.48924,2913.1167],[-91.3022,15.46583,2954.8184],[-91.30055,15.4627,3032.4709],[-91.2998,15.45965,3098.1809],[-91.29977,15.44696,3291.2485],[-91.29858,15.44133,3243.1089],[-91.29437,15.43167,3232.9067],[-91.28858,15.42306,3230.6621],[-91.28238,15.41632,3214.7222],[-91.26357,15.39929,3123.4607],[-91.25962,15.39847,3110.3525],[-91.25393,15.39831,3034.7468],[-91.22474,15.40177,2444.7085],[-91.21202,15.39932,2115.2163],[-91.18438,15.38679,2170.2136],[-91.18218,15.36875,2220.6553],[-91.19078,15.33291,1713.3367],[-91.18978,15.3272,1494.7583],[-91.18404,15.31227,1657.8481],[-91.17908,15.29225,1446.6603],[-91.19451,15.28881,1286.0414],[-91.20329,15.28788,1318.2517],[-91.22776,15.29217,1385.7212],[-91.23683,15.29194,1457.4092],[-91.25949,15.28465,1345.5592],[-91.30287,15.2769,1514.5258],[-91.31086,15.27165,1419.9852],[-91.31535,15.26315,1676.0414],[-91.32,15.23522,1702.6893],[-91.32016,15.21708,1571.7726],[-91.3152,15.20163,1620.7219],[-91.30166,15.19512,1659.0812],[-91.29853,15.18825,1650.3071],[-91.27068,15.16047,1654.3608],[-91.2638,15.15758,1714.9287],[-91.25887,15.13804,1720.9254],[-91.24913,15.12456,1792.2283],[-91.24773,15.11071,1749.1279],[-91.24081,15.10848,1763.6497],[-91.23455,15.09722,1801.7828],[-91.2345,15.09205,1867.3232],[-91.23541,15.08192,1915.606],[-91.23776,15.07805,1982.1981],[-91.24068,15.07593,1926.2401],[-91.25114,15.07572,1901.1935],[-91.25543,15.07469,1885.3538],[-91.26047,15.07257,1958.8533],[-91.26853,15.06642,1913.8971],[-91.27187,15.06172,1936.663],[-91.27424,15.05515,1970.1145],[-91.27502,15.0474,1913.4106],[-91.27486,15.0443,1903.6499],[-91.27442,15.0413,2009.6929],[-91.27318,15.03893,1994.6428],[-91.27148,15.03707,1900.2344],[-91.26078,15.0304,1990.5465],[-91.243,15.01743,2039.692],[-91.24099,15.01448,2034.5308],[-91.23822,15.00937,2056.5476],[-91.23355,14.99149,2086.127],[-91.2266,14.98074,2242.8933],[-91.21016,14.96958,2317.6924],[-91.20724,14.964,2311.8972],[-91.20693,14.95774,2300.8845],[-91.21249,14.94116,2441.8022],[-91.21469,14.93485,2388.9692],[-91.18298,14.91067,2340.6436],[-91.17079,14.90514,2510.3726],[-91.16572,14.8918,2679.0293],[-91.15627,14.87532,2475.4124],[-91.15009,14.87088,2441.9893],[-91.14722,14.87036,2487.54],[-91.14448,14.87026,2477.2815],[-91.14014,14.86953,2464.8008],[-91.13469,14.86814,2473.071],[-91.12306,14.86385,2394.7534],[-91.11854,14.86054,2398.8164],[-91.11668,14.85734,2464.0195],[-91.11725,14.85486,2466.9902],[-91.11988,14.8501,2485.137],[-91.12283,14.84597,2544.8638],[-91.13115,14.83708,2569.0623],[-91.13244,14.83491,2475.1023],[-91.13329,14.83098,2425.7239],[-91.13329,14.82561,2466.978],[-91.13187,14.81486,2422.2605],[-91.12976,14.81021,2275.1973],[-91.12709,14.80742,2168.5679],[-91.12415,14.80711,2282.1177],[-91.12113,14.80721,2273.4736],[-91.11854,14.80814,2346.2485],[-91.11647,14.80948,2437.9922],[-91.11495,14.81134,2421.2808],[-91.11358,14.81336,2488.1794],[-91.11244,14.81563,2583.1694],[-91.10854,14.82922,2606.9929],[-91.10392,14.83201,2552.4006],[-91.08743,14.82628,2619.1675],[-91.06077,14.83894,2424.1116],[-91.05345,14.84493,2358.5396],[-91.0309,14.90658,2010.6743],[-91.02459,14.91656,1881.6293],[-91.02258,14.91826,1906.0847],[-91.02072,14.91955,1768.3025],[-91.01095,14.92421,1701.5654],[-90.99387,14.92865,1666.5569],[-90.97715,14.93862,1460.4641],[-90.95896,14.93526,1661.333],[-90.89396,14.93681,1298.098],[-90.8822,14.9393,1368.8162],[-90.86838,14.94157,1446.153],[-90.8529,14.94188,1527.5222],[-90.80512,14.92824,1212.7168],[-90.7536,14.92824,1017.3576],[-90.7367,14.92596,1260.3444],[-90.70727,14.9162,912.4448],[-90.67139,14.90891,1099.6044],[-90.65761,14.90395,1119.1403],[-90.66901,14.92958,1246.9143],[-90.67348,14.93904,1465.098],[-90.68082,14.9457,1464.6992],[-90.6874,14.94994,1462.1334],[-90.69428,14.95568,1640.2981],[-90.71216,14.97376,1419.5363],[-90.70774,14.99552,1898.0154],[-90.70727,15.00022,1916.0881],[-90.79724,15.05495,2195.438],[-90.87192,15.14848,1166.1516],[-90.86566,15.25685,1252.3176],[-90.85739,15.25269,1257.609],[-90.69156,15.21494,1044.605],[-90.57436,15.20998,1048.61],[-90.54132,15.21251,798.0],[-90.50377,15.2622,798.0],[-90.49724,15.27085,798.0],[-90.48783,15.28765,938.4415],[-90.47848,15.31064,774.6542],[-90.47762,15.33098,1146.7771],[-90.49351,15.33974,1125.8998],[-90.65082,15.36309,815.6383],[-90.68203,15.37495,1162.3799],[-90.7027,15.39436,880.2257],[-90.70777,15.40844,1056.1073],[-90.70975,15.4266,792.7822],[-90.70559,15.44231,484.3329],[-90.69216,15.44898,961.7162],[-90.65221,15.45262,524.0248],[-90.64007,15.45888,1131.8676],[-90.64808,15.46947,444.351],[-90.64808,15.47629,559.5066],[-90.62015,15.5005,419.1357],[-90.61452,15.50316,413.7872],[-90.60374,15.51407,321.982],[-90.59697,15.52595,581.6774],[-90.60338,15.53153,551.726],[-90.60865,15.54076,360.3987],[-90.61545,15.56127,309.9732],[-90.62555,15.58212,588.4512],[-90.64064,15.59236,497.8472],[-90.6319,15.60861,269.3444],[-90.63271,15.62292,581.7988],[-90.64276,15.63582,282.6988],[-90.66172,15.6476,335.816],[-90.66219,15.65233,283.5728],[-90.66069,15.65362,317.9148],[-90.65782,15.65362,293.5448],[-90.65428,15.65442,334.2213],[-90.66247,15.6592,391.8037],[-90.67162,15.6608,547.8391],[-90.68079,15.6592,546.7657],[-90.68903,15.65442,359.534],[-90.701,15.6608,423.9594],[-90.7434,15.67274,483.2959],[-90.78063,15.67891,253.2226],[-90.78823,15.68845,348.7686],[-90.78448,15.69974,251.0518],[-90.77097,15.70904,319.0697],[-90.77665,15.71235,220.3495],[-90.79146,15.72333,212.5455],[-90.79146,15.72953,335.5931],[-90.78652,15.73116,246.73],[-90.7821,15.7348,200.75],[-90.77717,15.73697,235.6786],[-90.78386,15.74594,272.542],[-90.79334,15.7508,243.6353],[-90.80502,15.75211,268.0108],[-90.81815,15.75064,196.8964],[-90.81182,15.76511,252.0434],[-90.78463,15.79842,224.9235],[-90.77135,15.83345,199.6742],[-90.76724,15.8394,227.6276],[-90.74296,15.84862,235.8714],[-90.73257,15.8681,193.3272],[-90.73862,15.88528,200.3564],[-90.76352,15.88782,169.5736],[-90.75381,15.92104,199.2073],[-90.74611,15.93557,201.5836],[-90.73621,15.94244,160.3155],[-90.73621,15.94926,158.9485],[-90.74138,15.95011,160.1674],[-90.74218,15.95115,159.554],[-90.74187,15.95298,160.0218],[-90.74365,15.95608,169.4546],[-90.7505,15.94926,160.6816],[-90.75936,15.95887,155.6977],[-90.76352,15.96228,189.133],[-90.76352,15.96972,211.0291],[-90.75019,15.9728,182.528],[-90.73443,15.98538,168.4794],[-90.72316,15.99021,166.1514],[-90.72068,15.98709,158.6664],[-90.71748,15.98047,156.1969],[-90.71275,15.97629,151.0],[-90.7058,15.98029,154.881],[-90.70216,15.98864,152.8441],[-90.70404,15.99386,152.0278],[-90.7042,15.9982,150.3291],[-90.69526,16.00388,149.0],[-90.7027,16.01752,149.9854],[-90.66015,16.0398,173.2981],[-90.63431,16.04522,163.1558],[-90.62015,16.03119,145.7246],[-90.6133,16.03119,144.2854],[-90.6101,16.03918,154.6568],[-90.60555,16.04295,163.9837],[-90.59976,16.04266,162.9261],[-90.59284,16.03863,169.1298],[-90.59284,16.03119,144.6396],[-90.59728,16.02925,141.2253],[-90.60222,16.02646,143.7855],[-90.6071,16.02497,143.5795],[-90.6071,16.01752,146.8785],[-90.5903,16.01835,142.3643],[-90.58023,16.01261,140.9427],[-90.57134,16.00435,140.8812],[-90.55808,15.99768,136.5],[-90.55511,16.00088,137.212],[-90.54858,16.00631,138.0607],[-90.54442,16.0107,138.7838],[-90.54271,16.0045,138.6558],[-90.54163,16.00427,138.4192],[-90.54039,16.00729,138.5458],[-90.53821,16.0107,137.6563],[-90.53103,16.00396,137.6855],[-90.52778,16.00453,138.5001],[-90.52395,16.0107,141.5042],[-90.51711,16.0107,139.5419],[-90.50674,16.00621,137.6903],[-90.48737,16.01796,136.0739],[-90.47553,16.0107,131.5],[-90.46933,16.0107,136.0513],[-90.46783,16.01564,137.5307],[-90.4644,16.01998,140.3887],[-90.46248,16.02497,136.7369],[-90.45049,16.02068,133.9171]]]}
,"properties": {"ISO3166-1-Alpha-3": "GTM","country": "Guatemala","fill": "#F00","name": "Quiché","area_km2": 7078.428,"hist_schema_id": "Elevation0-9000","hist_area_km2": {"125": 19.624,"150": 117.782,"175": 224.822,"200": 363.446,"225": 282.866,"250": 168.188,"275": 106.629,"300": 74.652,"325": 49.42,"350": 34.651,"375": 26.592,"400": 22.532,"425": 20.186,"450": 17.329,"475": 17.003,"500": 17.046,"525": 20.416,"550": 16.967,"575": 19.828,"600": 23.586,"625": 28.815,"650": 33.738,"675": 32.963,"700": 35.087,"725": 36.864,"750": 36.537,"775": 37.232,"800": 39.548,"825": 37.134,"850": 35.582,"875": 35.421,"900": 33.565,"925": 33.32,"950": 34.59,"975": 34.387,"1000": 31.569,"1025": 33.512,"1050": 35.536,"1075": 40.606,"1100": 44.552,"1125": 49.909,"1150": 58.358,"1175": 63.147,"1200": 66.932,"1225": 73.111,"1250": 72.804,"1275": 77.424,"1300": 81.703,"1325": 84.976,"1350": 83.484,"1375": 79.825,"1400": 83.041,"1425": 79.259,"1450": 82.163,"1475": 84.972,"1500": 90.232,"1525": 92.894,"1550": 94.755,"1575": 89.66,"1600": 85.423,"1625": 85.24,"1650": 86.853,"1675": 87.039,"1700": 89.941,"1725": 89.615,"1750": 96.325,"1775": 95.343,"1800": 96.976,"1825": 97.862,"1850": 102.794,"1875": 107.667,"1900": 116.592,"1925": 114.45,"1950": 113.594,"1975": 123.262,"2000": 139.367,"2025": 123.685,"2050": 107.255,"2075": 98.639,"2100": 89.9,"2125": 86.603,"2150": 80.012,"2175": 75.92,"2200": 68.005,"2225": 62.423,"2250": 59.19,"2275": 56.164,"2300": 53.565,"2325": 48.328,"2350": 47.793,"2375": 44.377,"2400": 39.96,"2425": 37.896,"2450": 34.809,"2475": 28.613,"2500": 26.095,"2525": 21.184,"2550": 18.995,"2575": 18.013,"2600": 15.373,"2625": 13.534,"2650": 11.223,"2675": 10.833,"2700": 9.728,"2725": 9.217,"2750": 9.258,"2775": 8.828,"2800": 9.339,"2825": 8.91,"2850": 8.909,"2875": 7.887,"2900": 7.335,"2925": 7.254,"2950": 6.825,"2975": 4.781,"3000": 3.351,"3025": 2.431,"3050": 1.962,"3075": 1.675,"3100": 1.798,"3125": 1.471,"3150": 2.82,"3175": 3.944,"3200": 3.822,"3225": 2.902,"3250": 2.575,"3275": 1.226,"3300": 0.613,"3325": 0.061}}}