{"type": "Feature","bbox": [-91.3262,14.8019,-90.4161,16.0963],"geometry": {"type": "MultiPolygon","coordinates": [[[[-91.0154,14.9207,1658.8293],[-91.0162,14.923,1729.4579],[-91.0115,14.9257,1660.5881],[-91.0112,14.9337,1578.5957],[-91.0067,14.9362,1583.7432],[-90.9997,14.9346,1538.9558],[-90.9968,14.9387,1466.8131],[-90.9848,14.936,1432.6526],[-90.9756,14.9377,1482.1232],[-90.9695,14.9357,1690.868],[-90.9658,14.9308,1415.2623],[-90.9586,14.9269,1402.0693],[-90.9451,14.9264,1355.3752],[-90.9417,14.9248,1315.5857],[-90.9328,14.9255,1442.5531],[-90.9308,14.9209,1291.2576],[-90.9241,14.9241,1467.3733],[-90.9194,14.9218,1302.7471],[-90.9172,14.9226,1270.8215],[-90.9171,14.9273,1377.4084],[-90.9122,14.9265,1313.0957],[-90.9032,14.9322,1329.6808],[-90.8893,14.9364,1256.4846],[-90.8799,14.9338,1211.0453],[-90.8761,14.9374,1253.994],[-90.8732,14.9375,1237.7498],[-90.8682,14.9341,1306.7223],[-90.8577,14.9347,1255.4373],[-90.8527,14.9301,1139.8259],[-90.8476,14.9309,1289.2697],[-90.8458,14.9275,1189.1923],[-90.8264,14.9283,1171.0276],[-90.8217,14.9253,1112.9532],[-90.8185,14.9263,1151.4294],[-90.8154,14.9244,1079.7594],[-90.8122,14.9266,1107.6707],[-90.8088,14.9234,1067.0193],[-90.7969,14.9232,1026.0764],[-90.7955,14.925,1074.8916],[-90.7842,14.9199,990.2023],[-90.7689,14.9295,1013.3369],[-90.7625,14.9258,988.1779],[-90.757,14.9289,1073.2103],[-90.7389,14.9168,885.8089],[-90.7307,14.9149,879.0208],[-90.7265,14.918,959.7264],[-90.7235,14.9163,891.6984],[-90.721,14.9177,885.924],[-90.7144,14.9165,952.2974],[-90.7114,14.9133,928.023],[-90.7049,14.9114,824.1188],[-90.7021,14.9088,844.5204],[-90.6974,14.9128,958.6554],[-90.6939,14.9093,769.793],[-90.6919,14.9113,837.1965],[-90.6808,14.9053,760.8476],[-90.6777,14.9016,775.72],[-90.6607,14.8903,701.2495],[-90.6496,14.8865,693.0349],[-90.6446,14.8928,801.0952],[-90.6367,14.893,820.8892],[-90.635,14.889099999999999,677.9962],[-90.6298,14.8919,861.6992],[-90.6292,14.8889,799.2715],[-90.6238,14.8836,732.0764],[-90.6183,14.898,745.1999],[-90.6151,14.9015,849.8083],[-90.6166,14.9151,1125.7681],[-90.63,14.9199,1228.8169],[-90.6366,14.9249,1227.4353],[-90.6355,14.9303,1223.074],[-90.6409,14.9382,1184.3701],[-90.6421,14.9465,1207.6757],[-90.6461,14.9526,1231.0283],[-90.6556,14.9557,1315.9353],[-90.6602,14.9632,1334.186],[-90.6575,14.9859,1446.6335],[-90.6528,14.9877,1516.8635],[-90.6551,14.9906,1455.9513],[-90.6542,14.996,1464.073],[-90.75,15.064,2247.8152],[-90.7763,15.1025,2046.1293],[-90.8058,15.1525,1600.4592],[-90.809,15.2352,1053.3352],[-90.8035,15.2324,1228.8726],[-90.7916,15.2376,913.249],[-90.7835,15.2323,1146.2625],[-90.7772,15.2199,1092.0658],[-90.7633,15.2217,951.5609],[-90.7588,15.2193,1249.0161],[-90.7524,15.2213,931.4849],[-90.7361,15.2123,1018.4945],[-90.7332,15.2048,941.7007],[-90.7264,15.2065,1076.7595],[-90.7221,15.2048,1340.7017],[-90.7179,15.2075,932.6171],[-90.7112,15.2044,1109.5323],[-90.7042,15.2073,901.5151],[-90.6968,15.2048,1024.5288],[-90.6829,15.2037,982.814],[-90.6794,15.2056,865.963],[-90.6673,15.2068,953.0997],[-90.66,15.2073,1093.8835],[-90.6577,15.2058,1264.1743],[-90.6478,15.2112,808.1721],[-90.6439,15.2118,810.5713],[-90.6426,15.2072,900.8872],[-90.6352,15.2071,963.572],[-90.6333,15.2115,799.459],[-90.6274,15.2092,798.9137],[-90.6263,15.2068,865.3241],[-90.6209,15.2055,954.774],[-90.6094,15.2065,893.3855],[-90.6042,15.1993,860.3971],[-90.5992,15.1988,993.8033],[-90.5955,15.2049,999.9113],[-90.5918,15.2068,1074.6956],[-90.59,15.2137,814.234],[-90.5866,15.2125,798.0],[-90.5844,15.2089,881.0429],[-90.5764,15.2091,1107.8369],[-90.5714,15.2114,831.4038],[-90.5584,15.2021,950.3815],[-90.542,15.2047,969.1937],[-90.5373,15.2069,859.7935],[-90.5281,15.2162,1184.8767],[-90.5265,15.2211,1278.1941],[-90.5234,15.2239,1215.848],[-90.5221,15.235,897.7104],[-90.5154,15.2383,964.5875],[-90.5158,15.2427,985.2268],[-90.5087,15.2471,1193.6919],[-90.506,15.2558,980.0547],[-90.4977,15.2591,847.9777],[-90.4951,15.2637,798.0],[-90.491,15.2665,895.0503],[-90.4924,15.2743,798.0],[-90.4882,15.2752,883.3933],[-90.4838,15.2898,1044.3302],[-90.4759,15.3019,877.0857],[-90.4802,15.3221,878.0152],[-90.4994,15.3326,729.5953],[-90.5053,15.3306,828.422],[-90.5107,15.3355,720.0165],[-90.5291,15.3394,747.0662],[-90.5449,15.3378,805.1891],[-90.552,15.3389,743.7488],[-90.5561,15.3372,806.4232],[-90.5633,15.3412,644.0347],[-90.5679,15.3395,777.813],[-90.5764,15.3401,884.7673],[-90.5821,15.3426,686.7762],[-90.5864,15.3409,803.3554],[-90.5933,15.3421,718.5914],[-90.5955,15.3394,887.1432],[-90.6018,15.3408,746.213],[-90.6084,15.3399,952.9136],[-90.6244,15.3459,627.0426],[-90.6455,15.3469,845.4229],[-90.6559,15.3548,587.5032],[-90.6661,15.3542,835.1277],[-90.6745,15.3593,619.4191],[-90.6798,15.359,656.8081],[-90.6913,15.3632,771.3132],[-90.6942,15.3719,755.1345],[-90.7021,15.3773,566.6108],[-90.7029,15.3805,691.7358],[-90.708,15.3838,637.1313],[-90.7115,15.4008,740.6427],[-90.7094,15.4119,767.415],[-90.7127,15.4141,646.5295],[-90.7116,15.4204,902.8625],[-90.704,15.429,1125.8789],[-90.6993,15.4376,670.2936],[-90.6992,15.4405,523.8611],[-90.672,15.4367,589.4436],[-90.6674,15.4353,543.7993],[-90.6629,15.4314,886.9447],[-90.6552,15.4337,1062.6815],[-90.6459,15.4455,680.7169],[-90.646,15.4637,801.0117],[-90.634,15.4827,717.2682],[-90.625,15.4855,661.6917],[-90.6163,15.498,419.6889],[-90.6084,15.4975,472.386],[-90.6052,15.5018,468.502],[-90.6031,15.507,388.7356],[-90.6052,15.5119,371.8373],[-90.6039,15.5164,310.1562],[-90.6073,15.5402,404.2923],[-90.6099,15.5441,324.4287],[-90.6124,15.5563,316.8856],[-90.6175,15.5648,453.9346],[-90.6198,15.5733,445.6819],[-90.6324,15.5773,433.1817],[-90.6419,15.5853,342.8319],[-90.6388,15.5907,376.3618],[-90.633,15.5919,330.6452],[-90.6291,15.5963,282.791],[-90.6292,15.6101,278.2296],[-90.635,15.6126,291.3517],[-90.6354,15.6168,542.2527],[-90.6413,15.6192,370.7495],[-90.6434,15.6236,500.6143],[-90.6425,15.6325,346.7939],[-90.6484,15.6379,271.1436],[-90.6558,15.6385,264.9788],[-90.6576,15.6436,262.9958],[-90.6541,15.6487,257.8641],[-90.6915,15.6516,294.3313],[-90.6927,15.6536,306.2899],[-90.7609,15.6711,243.5205],[-90.7681,15.678,352.9306],[-90.7751,15.6776,242.6125],[-90.7792,15.68,272.6703],[-90.7861,15.6794,265.8151],[-90.7891,15.6811,320.69],[-90.7907,15.6833,334.789],[-90.7907,15.6886,309.4379],[-90.7757,15.7042,218.1832],[-90.7702,15.7049,255.2532],[-90.7692,15.7067,330.5226],[-90.7805,15.7193,254.2182],[-90.792,15.7194,227.753],[-90.7948,15.7207,214.3049],[-90.7927,15.7254,210.9763],[-90.7806,15.7263,256.64],[-90.7766,15.7323,211.905],[-90.7782,15.7366,235.6786],[-90.7811,15.7386,218.0689],[-90.781,15.7419,215.2484],[-90.7848,15.7452,210.1711],[-90.794,15.7474,206.6589],[-90.8056,15.7427,205.2388],[-90.8174,15.7499,236.6492],[-90.8123,15.7527,219.6897],[-90.8082,15.7587,293.2365],[-90.8046,15.7729,199.1329],[-90.7948,15.775,223.2624],[-90.7923,15.7774,255.1575],[-90.7903,15.7838,205.9649],[-90.7852,15.7882,193.925],[-90.7855,15.7916,200.0862],[-90.7803,15.7919,217.1838],[-90.7747,15.8008,260.1265],[-90.7782,15.8037,234.3637],[-90.7791,15.8089,196.6407],[-90.7745,15.816,182.9749],[-90.7687,15.8184,223.6502],[-90.7677,15.827,206.8244],[-90.7566,15.8379,195.6002],[-90.7472,15.8372,199.2716],[-90.7444,15.8418,193.6264],[-90.74,15.8444,210.4264],[-90.7259,15.8651,199.6132],[-90.7351,15.8718,196.8373],[-90.7326,15.8823,208.1387],[-90.7353,15.8853,205.0225],[-90.741,15.8868,198.1777],[-90.7519,15.8862,168.1247],[-90.7543,15.8889,168.3535],[-90.7531,15.894,167.5231],[-90.7472,15.9032,193.6005],[-90.7487,15.9199,164.356],[-90.746,15.9229,161.2102],[-90.7337,15.9269,179.762],[-90.7294,15.9371,179.4717],[-90.7294,15.943,164.7854],[-90.7339,15.9474,157.5],[-90.7387,15.9449,160.7315],[-90.7426,15.9462,160.2087],[-90.7446,15.951,166.0822],[-90.7532,15.955,156.5184],[-90.7544,15.9588,159.1181],[-90.7441,15.9691,162.2415],[-90.7336,15.9691,185.5974],[-90.7311,15.9734,170.1225],[-90.7321,15.9787,157.9159],[-90.7307,15.9831,157.0336],[-90.7279,15.9852,156.5699],[-90.7205,15.9847,160.9076],[-90.7111,15.9798,156.1833],[-90.7101,15.9756,154.9567],[-90.7039,15.9737,187.2705],[-90.6993,15.9753,182.3601],[-90.6973,15.9802,180.9104],[-90.7029,15.9893,152.4886],[-90.7028,15.9946,152.0278],[-90.7004,15.9968,154.4182],[-90.6883,15.9962,182.2647],[-90.691,16.0084,174.7362],[-90.6985,16.0164,151.9258],[-90.6991,16.021,166.3215],[-90.6918,16.0194,151.426],[-90.681,16.0227,146.5],[-90.6706,16.0309,178.873],[-90.6645,16.0386,155.7332],[-90.6541,16.0363,183.2329],[-90.6516,16.04,143.0],[-90.6426,16.037,159.771],[-90.6342,16.0404,148.1475],[-90.6286,16.0399,156.6472],[-90.6152,16.0244,145.976],[-90.6103,16.0245,161.5573],[-90.5951,16.0358,185.8565],[-90.5926,16.0232,144.1055],[-90.5973,16.0196,143.5451],[-90.6072,16.0166,143.2083],[-90.6043,16.0134,142.8136],[-90.5835,16.0152,139.7649],[-90.5741,16.0095,140.9834],[-90.572,15.996,137.4427],[-90.5677,15.9955,137.0],[-90.5607,16.0001,139.6898],[-90.5585,15.9982,138.8783],[-90.5601,15.9944,138.4008],[-90.5562,15.9928,139.8357],[-90.5487,15.9988,140.3765],[-90.5502,16.0039,142.3624],[-90.5482,16.0063,138.0607],[-90.5458,16.0065,140.1279],[-90.5383,15.9976,137.8351],[-90.5332,15.9987,138.6864],[-90.5327,16.0027,138.3777],[-90.5288,16.0043,138.5001],[-90.5251,16.001,139.0266],[-90.5254,15.9981,138.4796],[-90.5234,15.9968,137.1079],[-90.5187,16.0048,137.0995],[-90.5153,16.0026,137.1828],[-90.5162,15.9945,135.3296],[-90.5098,15.9948,137.0323],[-90.5065,15.9929,134.36],[-90.4984,15.9994,136.2665],[-90.4956,15.9979,132.0],[-90.502,15.9894,140.0667],[-90.506,15.9874,132.8991],[-90.5058,15.9831,141.1792],[-90.5018,15.9879,134.3254],[-90.4998,15.9847,138.4426],[-90.4911,15.9913,139.051],[-90.4869,16.0135,135.3907],[-90.4781,16.0164,134.9051],[-90.4738,16.0144,134.0032],[-90.4712,16.0087,134.0121],[-90.4718,16.0059,135.4379],[-90.4641,16.0063,130.5],[-90.455,16.0152,133.71],[-90.4415,16.0171,136.4298],[-90.4383,16.0275,133.746],[-90.4359,16.0294,133.6377],[-90.4229,16.0234,141.2455],[-90.4231,16.0345,133.2216],[-90.429,16.0414,136.8346],[-90.4374,16.0393,131.5802],[-90.4417,16.0408,129.0],[-90.4409,16.0436,129.0],[-90.4294,16.0469,132.8378],[-90.4282,16.0518,130.5666],[-90.4244,16.057,131.9106],[-90.4161,16.0641,142.0719],[-90.4186,16.0676,131.3112],[-90.4308,16.0636,128.0],[-90.435,16.0656,131.464],[-90.439,16.0752,131.3494],[-90.4432,16.0788,128.3005],[-90.4437,16.0825,130.5477],[-90.4418,16.0852,130.6457],[-90.4361,16.0877,129.9223],[-90.4303,16.0963,127.0],[-90.4369,16.096,127.9202],[-90.4405,16.0888,128.6827],[-90.4469,16.0832,129.568],[-90.442,16.0743,129.9716],[-91.0593,16.0743,209.714],[-91.0589,16.0723,227.3688],[-90.9753,16.0739,200.4469],[-90.9574,16.0737,153.8566],[-90.9574,16.0724,153.8566],[-91.0807,15.8451,303.3654],[-91.0995,15.8154,285.9011],[-91.1837,15.6656,796.1811],[-91.1906,15.6678,962.0894],[-91.1974,15.6672,663.1033],[-91.1988,15.6567,1386.4363],[-91.2094,15.6554,1296.2278],[-91.2128,15.6519,1078.7408],[-91.2206,15.6371,1426.7952],[-91.2348,15.6247,1659.3298],[-91.2398,15.626,1289.6827],[-91.2576,15.6239,1712.2446],[-91.2751,15.6062,1876.4402],[-91.2755,15.6005,1980.6078],[-91.2629,15.5946,2344.2268],[-91.2816,15.5756,1962.6378],[-91.2971,15.5684,2216.499],[-91.3046,15.5593,2466.9578],[-91.3128,15.5357,2813.6892],[-91.3134,15.5208,2924.8962],[-91.3111,15.5112,2756.8176],[-91.3123,15.5083,2876.0059],[-91.3108,15.5037,2716.8931],[-91.3108,15.4766,2785.5073],[-91.316,15.4722,3177.2029],[-91.3152,15.4635,3217.4348],[-91.3126,15.4549,3311.8665],[-91.2927,15.4277,3223.0601],[-91.2796,15.4196,3189.6328],[-91.2472,15.3879,2961.7131],[-91.2184,15.3876,2474.05],[-91.171,15.3911,2398.1243],[-91.1645,15.3863,2353.5879],[-91.1598,15.3773,2627.7612],[-91.1466,15.3744,2633.9863],[-91.1582,15.3618,2235.5474],[-91.1638,15.3509,2053.5146],[-91.1782,15.3356,1756.3926],[-91.1838,15.3172,1465.3812],[-91.1843,15.3002,1634.7678],[-91.1887,15.2873,1276.5824],[-91.196,15.2855,1236.8107],[-91.2193,15.2863,1300.7395],[-91.2318,15.2848,1294.2942],[-91.2646,15.2683,1346.1176],[-91.2827,15.2806,1553.0009],[-91.2895,15.2809,1441.5643],[-91.3072,15.2733,1560.2327],[-91.3214,15.272,1456.4347],[-91.3262,15.265,1529.2463],[-91.3198,15.2494,1517.8359],[-91.3108,15.244,1569.3014],[-91.3145,15.2357,1589.3333],[-91.3144,15.2305,1571.1384],[-91.3171,15.2277,1650.113],[-91.3179,15.22,1573.4706],[-91.3208,15.2128,1585.6962],[-91.3171,15.2092,1575.8234],[-91.3187,15.2008,1611.5403],[-91.3095,15.1992,1602.0074],[-91.3089,15.1948,1616.7427],[-91.3022,15.1879,1672.0713],[-91.2992,15.1872,1606.2522],[-91.2971,15.1766,1628.6907],[-91.2919,15.1729,1629.0836],[-91.2903,15.1679,1637.999],[-91.2849,15.1633,1743.7227],[-91.2694,15.1582,1798.9906],[-91.2669,15.1614,1736.6791],[-91.2627,15.1613,1741.9327],[-91.2586,15.1552,1812.6157],[-91.2542,15.1526,1779.2963],[-91.2524,15.1445,1822.99],[-91.2411,15.1426,1819.694],[-91.2387,15.1372,1828.8088],[-91.236,15.1369,1822.0203],[-91.2348,15.1312,1809.9274],[-91.2282,15.1226,1834.4935],[-91.2232,15.1189,1891.3887],[-91.2063,15.1127,1926.7764],[-91.205,15.111,1920.2888],[-91.2141,15.1001,1998.8612],[-91.2253,15.1031,1848.8737],[-91.2488,15.1109,1749.1279],[-91.2514,15.115,1739.7871],[-91.2534,15.1235,1729.9269],[-91.2581,15.125,1762.104],[-91.2639,15.0496,1984.5685],[-91.2718,15.0354,1902.9803],[-91.2637,15.0217,2106.178],[-91.2643,15.001,2182.0918],[-91.2628,14.9953,2151.5054],[-91.2547,14.9798,2164.8149],[-91.237,14.9851,2142.3054],[-91.2325,14.9768,2169.1978],[-91.2412,14.9643,2152.675],[-91.2387,14.9452,2374.0303],[-91.224,14.9416,2409.3506],[-91.1725,14.8913,2702.6174],[-91.161,14.8905,2626.478],[-91.159,14.8887,2706.5305],[-91.1552,14.8756,2506.7661],[-91.1558,14.8713,2512.3425],[-91.1514,14.8671,2463.2515],[-91.1414,14.8622,2517.834],[-91.138,14.8669,2506.6736],[-91.1348,14.8683,2473.071],[-91.1321,14.8667,2517.2195],[-91.1248,14.8528,2452.552],[-91.1029,14.8355,2643.1963],[-91.0717,14.8019,2671.9973],[-91.0619,14.8049,2792.7764],[-91.0592,14.8079,2805.356],[-91.0533,14.8041,2822.0522],[-91.0246,14.8243,2471.1584],[-91.0248,14.8264,2510.293],[-91.0336,14.8314,2475.8921],[-91.0343,14.8354,2440.7087],[-91.0419,14.8394,2321.8018],[-91.0405,14.8435,2320.2495],[-91.0433,14.8471,2277.3911],[-91.0379,14.8615,2198.9546],[-91.033,14.8639,2213.4705],[-91.032,14.8704,2137.7461],[-91.0278,14.8721,2140.104],[-91.0279,14.8753,2076.7485],[-91.0226,14.8769,2038.2263],[-91.0194,14.8848,1867.5325],[-91.0202,14.8867,1857.6648],[-91.0224,14.8868,1922.697],[-91.0236,14.9058,1714.803],[-91.0219,14.9093,1693.1188],[-91.0228,14.9109,1772.1647],[-91.0176,14.913,1648.5393],[-91.0154,14.9207,1658.8293]]]]}
,"properties": {"GID_1": "GTM.14_1","GID_0": "GTM","country": "Guatemala","province": "Quiché","VARNAME_1": "NA","NL_NAME_1": "NA","TYPE_1": "Departamento","ENGTYPE_1": "Department","CC_1": "NA","HASC_1": "GT.QC","ISO_1": "NA","name": "Quiché.province","area_km2": 7255.206,"hist_schema_id": "Elevation0-9000","hist_area_km2": {"125": 33.277,"150": 135.615,"175": 244.55,"200": 367.466,"225": 268.784,"250": 143.315,"275": 89.563,"300": 60.683,"325": 41.364,"350": 31.979,"375": 25.022,"400": 21.288,"425": 19.167,"450": 16.943,"475": 16.372,"500": 16.7,"525": 20.295,"550": 16.723,"575": 18.97,"600": 21.87,"625": 26.69,"650": 30.857,"675": 30.041,"700": 32.799,"725": 34.597,"750": 34.188,"775": 35.19,"800": 42.254,"825": 38.367,"850": 37.08,"875": 37.124,"900": 35.513,"925": 35.453,"950": 35.924,"975": 35.967,"1000": 33.271,"1025": 35.154,"1050": 38.18,"1075": 42.371,"1100": 46.42,"1125": 53.168,"1150": 63.622,"1175": 69.7,"1200": 78.357,"1225": 84.843,"1250": 79.092,"1275": 81.583,"1300": 85.166,"1325": 89.238,"1350": 87.171,"1375": 82.736,"1400": 85.788,"1425": 82.312,"1450": 85.094,"1475": 87.208,"1500": 93.45,"1525": 95.621,"1550": 97.012,"1575": 92.285,"1600": 88.048,"1625": 88.827,"1650": 90.196,"1675": 89.563,"1700": 91.953,"1725": 92.282,"1750": 99.217,"1775": 98.174,"1800": 99.235,"1825": 99.361,"1850": 104.539,"1875": 110.619,"1900": 119.381,"1925": 115.724,"1950": 115.44,"1975": 125.742,"2000": 143.321,"2025": 128.52,"2050": 113.073,"2075": 105.215,"2100": 96.393,"2125": 93.404,"2150": 86.361,"2175": 81.122,"2200": 72.532,"2225": 66.704,"2250": 63.0,"2275": 59.646,"2300": 57.232,"2325": 51.483,"2350": 50.456,"2375": 45.914,"2400": 41.066,"2425": 39.024,"2450": 36.141,"2475": 30.58,"2500": 27.386,"2525": 22.414,"2550": 19.631,"2575": 18.157,"2600": 15.947,"2625": 14.026,"2650": 12.085,"2675": 11.469,"2700": 10.262,"2725": 9.28,"2750": 9.076,"2775": 8.36,"2800": 9.342,"2825": 8.482,"2850": 7.97,"2875": 6.723,"2900": 6.539,"2925": 6.294,"2950": 6.191,"2975": 4.557,"3000": 3.208,"3025": 2.534,"3050": 1.778,"3075": 1.512,"3100": 1.451,"3125": 1.349,"3150": 2.575,"3175": 3.658,"3200": 3.617,"3225": 2.677,"3250": 2.963,"3275": 1.819,"3300": 1.165,"3325": 0.327,"3350": 0.061}}}