{"type":"Feature","properties":{"featurecla":"River","scalerank":5,"rivernum":193,"dissolve":"193River","name":"Rio5","name_alt":"Chixoy","note":null,"min_zoom":4.7,"strokeweig":0.2,"name_en":"Rio Negro","min_label":5.7},
"geometry":{"type": "LineString","coordinates": [[-91.278173828124991,15.017450262494123,1984.9646],[-91.271044921874989,15.02985260624412,1992.5653],[-91.255908203124989,15.04999420780662,1960.7855],[-91.250830078124991,15.058465887494123,1854.9073],[-91.248950195312489,15.069354559369117,1903.6409],[-91.249755859375,15.080438543744123,1818.5162],[-91.249438476562489,15.090838934369117,1890.2261],[-91.243994140624991,15.09943268436912,1764.2495],[-91.243994140624991,15.105585028119123,1748.9097],[-91.250097656249991,15.114862371869123,1739.7871],[-91.256591796875,15.128534246869123,1737.3613],[-91.261767578124989,15.143670965619123,1747.3503],[-91.263916015625,15.15741608280662,1714.9287]]}}