{"type":"Feature","properties":{"GID_2":"GTM.13.3_1","GID_0":"GTM","country":"Guatemala","GID_1":"GTM.13_1","province":"Quezaltenango","NL_NAME_1":"NA","county":"Cajolá","VARNAME_2":"NA","NL_NAME_2":"NA","TYPE_2":"Municipio","ENGTYPE_2":"Municipality","CC_2":"NA","HASC_2":"NA","name":"Cajolá.county"},
"geometry":{"type": "MultiPolygon","coordinates": [[[[-91.6214,14.9108,2458.8872],[-91.612,14.9124,2475.4734],[-91.5989,14.9108,2708.9622],[-91.5731,14.9135,2982.8926],[-91.5713,14.9299,2714.5684],[-91.5959,14.9305,2575.1255],[-91.6143,14.9498,2966.7732],[-91.6178,14.951,2988.0779],[-91.6374,14.9466,3118.572],[-91.6395,14.9394,3063.8792],[-91.6385,14.9276,2681.8088],[-91.6319,14.9193,2542.9658],[-91.6214,14.9108,2458.8872]]]]}}