{"type": "Feature","bbox": [-89.8991,14.1525,-89.8069,14.2022],"geometry": {"type": "MultiPolygon","coordinates": [[[[-89.87,14.1525,537.115],[-89.8697,14.158,580.924],[-89.862799999999993,14.1638,724.1675],[-89.8212,14.1622,1061.577],[-89.8156,14.1592,1026.2198],[-89.8069,14.1729,971.443],[-89.8075,14.1864,1165.3218],[-89.8138,14.2022,1260.8099],[-89.8193,14.2,1164.6781],[-89.8304,14.2011,1047.2222],[-89.8355,14.1992,1022.5571],[-89.8415,14.1914,877.5909],[-89.846,14.1891,798.0208],[-89.8597,14.1905,754.6329],[-89.8648,14.1886,654.0682],[-89.8683,14.1867,658.5741],[-89.8771,14.174,716.0156],[-89.8839,14.176,784.4304],[-89.8875,14.1753,819.5781],[-89.891,14.1745,957.0391],[-89.8955,14.1706,921.8082],[-89.8991,14.1609,720.623],[-89.8838,14.159,580.5185],[-89.8789,14.1605,561.6097],[-89.87,14.1525,537.115]]]]}
,"properties": {"GID_2": "GTM.11.6_1","GID_0": "GTM","country": "Guatemala","GID_1": "GTM.11_1","province": "Jutiapa","NL_NAME_1": "NA","county": "ElAdelanto","VARNAME_2": "NA","NL_NAME_2": "NA","TYPE_2": "Municipio","ENGTYPE_2": "Municipality","CC_2": "NA","HASC_2": "NA","name": "El_Adelanto.county","area_km2": 29.10799,"hist_schema_id": "Elevation0-9000","hist_area_km2": {"500": 0.04112,"525": 0.28781,"550": 0.32892,"575": 0.34948,"600": 0.49338,"625": 0.57561,"650": 0.90452,"675": 1.08952,"700": 1.23342,"725": 1.1923,"750": 0.9045,"775": 0.96617,"800": 0.82227,"825": 0.92505,"850": 1.2745,"875": 0.9456,"900": 0.86335,"925": 1.0278,"950": 0.71946,"975": 1.35673,"1000": 1.33616,"1025": 1.31561,"1050": 1.48006,"1075": 1.68563,"1100": 2.01452,"1125": 1.80897,"1150": 0.86335,"1175": 0.76057,"1200": 0.36999,"1225": 0.4111,"1250": 0.24666,"1275": 0.10277,"1300": 0.12333,"1325": 0.16444,"1350": 0.04111,"1375": 0.08222}}}