{"type": "Feature","bbox": [-90.5333,14.5583,-90.4933,14.5948],"geometry": {"type": "MultiPolygon","coordinates": [[[[-90.4933,14.5643,1643.559],[-90.4937,14.5719,1597.9189],[-90.4959,14.5755,1467.6234],[-90.5094,14.5871,1509.4777],[-90.516,14.5899,1508.9496],[-90.5211,14.5948,1507.0527],[-90.5294,14.5705,1491.6583],[-90.5313,14.5694,1482.1313],[-90.5333,14.5583,1373.9346],[-90.5294,14.5592,1385.0911],[-90.52,14.5738,1484.9314],[-90.5157,14.5738,1404.7894],[-90.5118,14.5767,1448.2621],[-90.5057,14.575,1513.7048],[-90.4982,14.5753,1509.2854],[-90.4959,14.5731,1539.6816],[-90.4933,14.5643,1643.559]]]]}
,"properties": {"GID_2": "GTM.7.22_1","GID_0": "GTM","country": "Guatemala","GID_1": "GTM.7_1","province": "Guatemala","NL_NAME_1": "NA","county": "ZONA14","VARNAME_2": "NA","NL_NAME_2": "NA","TYPE_2": "Municipio","ENGTYPE_2": "Municipality","CC_2": "NA","HASC_2": "NA","name": "Z_O_N_A14.county","area_km2": 5.253026,"hist_schema_id": "Elevation0-9000","hist_area_km2": {"1350": 0.02052,"1375": 0.102606,"1400": 0.348851,"1425": 0.307807,"1450": 0.266765,"1475": 0.513,"1500": 3.077894,"1525": 0.512983,"1550": 0.08208,"1650": 0.020521}}}