{"type":"Feature","properties":{"GID_2":"GTM.2.5_1","GID_0":"GTM","country":"Guatemala","GID_1":"GTM.2_1","province":"BajaVerapaz","NL_NAME_1":"NA","county":"Salamá","VARNAME_2":"NA","NL_NAME_2":"NA","TYPE_2":"Municipio","ENGTYPE_2":"Municipality","CC_2":"NA","HASC_2":"NA","name":"Salamá.county"},
"geometry":{"type": "MultiPolygon","coordinates": [[[[-89.9883,15.1464,1394.1702],[-89.995,15.1539,1292.1947],[-90.0039,15.1518,1143.2732],[-90.0077,15.1462,955.1332],[-90.0087,15.1416,1062.3235],[-90.0197,15.1375,1445.3296],[-90.037,15.128,2044.1145],[-90.0412,15.1287,1998.1288],[-90.0629,15.1401,1901.3582],[-90.0705,15.1399,1949.8962],[-90.074,15.136,1930.8021],[-90.0778,15.1365,1855.9326],[-90.0878,15.1535,1387.931],[-90.0941,15.1574,1287.2865],[-90.0962,15.1681,1094.3608],[-90.0941,15.1721,1112.2936],[-90.0951,15.1761,1070.798],[-90.0998,15.1782,834.2831],[-90.0969,15.1887,812.2891],[-90.0914,15.198,585.174],[-90.0927,15.1986,585.174],[-90.1154,15.1871,794.3521],[-90.1244,15.187,795.8222],[-90.129,15.1888,991.6907],[-90.1481,15.1744,1384.9799],[-90.1522,15.173,1331.3075],[-90.1569,15.1807,1648.4434],[-90.1646,15.2128,1564.2753],[-90.1681,15.2181,1440.5122],[-90.1721,15.2165,1444.2667],[-90.1968,15.2186,1590.6658],[-90.2087,15.2174,1669.6587],[-90.2198,15.2053,2012.9773],[-90.2318,15.2138,1957.1182],[-90.2421,15.2128,1905.6755],[-90.2478,15.2142,1770.993],[-90.254,15.2194,1613.6697],[-90.2546,15.2262,1752.5449],[-90.2577,15.2272,1695.4358],[-90.2601,15.2248,1675.0632],[-90.2666,15.2286,1620.6465],[-90.2674,15.2307,1546.4952],[-90.2722,15.2284,1647.2651],[-90.2764,15.2307,1621.9076],[-90.2816,15.2299,1599.2432],[-90.2797,15.2271,1695.6643],[-90.281,15.2207,1465.3225],[-90.2851,15.2156,1359.8306],[-90.2889,15.214,1368.926],[-90.2994,15.2164,1460.8519],[-90.3136,15.2311,1285.0485],[-90.3284,15.23,1426.5171],[-90.3266,15.2097,1850.5256],[-90.3287,15.2049,1999.2089],[-90.3563,15.1829,1063.6879],[-90.3663,15.1729,976.7195],[-90.3727,15.1626,940.9779],[-90.3732,15.1579,896.7733],[-90.371,15.15,929.6591],[-90.3636,15.1473,964.1924],[-90.358,15.1341,1040.562],[-90.3541,15.1209,1096.7903],[-90.3504,15.0971,1060.8511],[-90.3509,15.0759,1566.4685],[-90.356,15.0643,1706.6956],[-90.3526,15.0224,1727.6824],[-90.3536,15.0201,1699.2549],[-90.3698,15.0203,1498.7549],[-90.3787,15.0127,1651.818],[-90.3789,15.0044,1837.1992],[-90.3817,15.0003,2106.6702],[-90.3868,14.9943,2172.3433],[-90.3921,14.9917,2116.5908],[-90.4024,14.99,2098.9075],[-90.4068,14.9922,2139.5205],[-90.4223,14.9934,1825.1989],[-90.4247,15.0008,1950.5657],[-90.4308,15.005,1944.6388],[-90.4353,14.9978,1924.0896],[-90.4441,14.993,1967.1116],[-90.4428,14.9856,1949.8832],[-90.4503,14.9545,956.1915],[-90.4484,14.946,813.056],[-90.4508,14.9329,694.6956],[-90.4457,14.9247,699.664],[-90.4296,14.9125,570.9269],[-90.4277,14.9125,522.2822],[-90.427,14.918,627.3561],[-90.4218,14.9188,512.5187],[-90.4199,14.9148,564.2293],[-90.4076,14.9133,485.982],[-90.4083,14.9063,549.3916],[-90.4002,14.8997,560.5454],[-90.4022,14.8946,541.585],[-90.3987,14.8863,583.4995],[-90.3939,14.8817,495.0894],[-90.394,14.8776,461.362],[-90.3825,14.8781,506.8079],[-90.3723,14.8749,489.5834],[-90.363,14.8775,506.0308],[-90.3485,14.8752,415.0416],[-90.3441,14.8781,524.5559],[-90.3399,14.8778,434.6649],[-90.3327,14.8816,461.2603],[-90.3144,14.8795,478.7123],[-90.305,14.8831,402.6835],[-90.3036,14.894,519.9017],[-90.3175,14.9017,502.9046],[-90.3184,14.9112,523.3086],[-90.3151,14.9162,551.0007],[-90.224,14.9803,738.8629],[-90.2327,14.9881,806.0767],[-90.2347,14.9955,1133.3412],[-90.2427,15.0072,1451.0588],[-90.2477,15.0089,1604.6621],[-90.2572,15.0086,1776.1438],[-90.2626,15.0066,1863.7548],[-90.2741,15.0157,1654.1899],[-90.2832,15.0303,1247.1293],[-90.2879,15.0351,1103.1423],[-90.289,15.0373,1041.6118],[-90.2854,15.0608,977.9433],[-90.2787,15.0721,979.5354],[-90.2852,15.0829,976.8294],[-90.286,15.0872,958.197],[-90.283,15.0916,967.2628],[-90.2757,15.0966,1044.4711],[-90.2704,15.0962,1089.7723],[-90.2633,15.0891,1084.9496],[-90.2518,15.0902,1367.4198],[-90.2494,15.0968,1407.8146],[-90.2456,15.0992,1290.7357],[-90.2365,15.1003,1728.36],[-90.2346,15.1084,1454.9871],[-90.2282,15.1121,1574.2322],[-90.2241,15.1104,1644.0076],[-90.22,15.1118,1623.5332],[-90.2168,15.108,1702.9028],[-90.2016,15.1152,1524.3187],[-90.1912,15.1141,1526.2545],[-90.1848,15.1173,1536.1063],[-90.1833,15.1215,1510.0076],[-90.1777,15.126,1603.8783],[-90.1548,15.1152,1601.345],[-90.1511,15.1085,1567.178],[-90.117,15.106,1849.6577],[-90.112799999999993,15.1073,1844.3191],[-90.1111,15.1108,1843.593],[-90.1081,15.1109,1849.8945],[-90.1065,15.1159,1877.259],[-90.0859,15.1113,1958.7943],[-90.0679,15.1106,1988.0947],[-90.0604,15.1076,2020.9283],[-90.0524,15.1073,2107.6787],[-90.0265,15.0916,2180.5032],[-90.0105,15.0838,2365.762],[-90.0023,15.0755,2579.1567],[-89.9647,15.0761,2242.1389],[-89.9463,15.0829,2577.5881],[-89.9326,15.0847,2735.1011],[-89.9174,15.0835,2867.5293],[-89.9066,15.0845,2837.6431],[-89.902,15.0883,2693.135],[-89.9039,15.0969,2314.4624],[-89.9135,15.1161,2291.822],[-89.9199,15.1402,2603.1045],[-89.9484,15.1456,2302.5593],[-89.9582,15.1542,2228.9958],[-89.992,15.1419,1751.6917],[-89.9883,15.1464,1394.1702]]]]}}