{"type": "Feature","bbox": [-90.3023,15.2624,-90.1451,15.3471],"geometry": {"type": "MultiPolygon","coordinates": [[[[-90.292,15.3367,2475.6143],[-90.2953,15.325,1899.5704],[-90.3007,15.3221,1755.0457],[-90.3023,15.3174,1562.2992],[-90.3011,15.3149,1585.8191],[-90.2866,15.3112,1481.0452],[-90.2814,15.292,1939.5215],[-90.25,15.2735,2167.4644],[-90.2169,15.272,2190.9263],[-90.1841,15.2624,2080.7349],[-90.1871,15.2751,1427.9082],[-90.1815,15.2825,1199.4952],[-90.1654,15.2922,708.164],[-90.1626,15.2964,684.0764],[-90.1491,15.2987,673.5899],[-90.1472,15.2968,728.1215],[-90.1451,15.298,567.1887],[-90.1453,15.3035,654.4919],[-90.1479,15.3034,619.9885],[-90.1637,15.3138,847.2021],[-90.1661,15.328,1122.5188],[-90.1767,15.3323,1461.4763],[-90.1847,15.33,1850.7419],[-90.1859,15.3337,1995.5887],[-90.1881,15.3335,2092.3132],[-90.193,15.3292,2003.2639],[-90.1999,15.3296,1981.7484],[-90.2046,15.325,1907.9395],[-90.218,15.3216,1523.021],[-90.2458,15.3397,2181.6025],[-90.2623,15.3437,2319.9106],[-90.2705,15.3431,2329.74],[-90.2832,15.3471,1926.224],[-90.2869,15.3399,2218.3345],[-90.292,15.3367,2475.6143]]]]}
,"properties": {"GID_2": "GTM.1.14_1","GID_0": "GTM","country": "Guatemala","GID_1": "GTM.1_1","province": "AltaVerapaz","NL_NAME_1": "NA","county": "Tamahú","VARNAME_2": "NA","NL_NAME_2": "NA","TYPE_2": "Municipio","ENGTYPE_2": "Municipality","CC_2": "NA","HASC_2": "NA","name": "Tamahú.county","area_km2": 87.7721,"hist_schema_id": "Elevation0-9000","hist_area_km2": {"525": 0.06135,"550": 0.10225,"575": 0.18406,"600": 0.20451,"625": 0.24541,"650": 0.40902,"675": 0.30676,"700": 0.38857,"725": 0.42947,"750": 0.53172,"775": 0.69533,"800": 0.59307,"825": 0.79758,"850": 0.67487,"875": 0.57263,"900": 0.85893,"925": 0.89983,"950": 1.00208,"975": 1.10433,"1000": 1.04298,"1025": 1.18613,"1050": 1.32927,"1075": 1.32928,"1100": 1.59512,"1125": 1.49288,"1150": 1.61557,"1175": 1.59513,"1200": 1.57467,"1225": 1.73828,"1250": 1.79961,"1275": 1.79962,"1300": 1.63601,"1325": 2.06546,"1350": 1.7996,"1375": 1.73825,"1400": 1.84053,"1425": 1.84051,"1450": 1.77915,"1475": 1.57463,"1500": 1.98365,"1525": 1.7178,"1550": 1.75869,"1575": 1.39058,"1600": 1.55418,"1625": 1.37014,"1650": 1.61553,"1675": 1.57464,"1700": 1.28835,"1725": 1.3906,"1750": 1.30879,"1775": 1.32924,"1800": 1.28834,"1825": 1.45195,"1850": 1.32928,"1875": 1.37018,"1900": 1.5338,"1925": 1.45198,"1950": 1.30882,"1975": 1.04295,"2000": 1.08389,"2025": 1.02258,"2050": 1.04301,"2075": 0.85895,"2100": 0.73622,"2125": 0.61352,"2150": 0.81802,"2175": 0.98167,"2200": 1.14528,"2225": 1.32933,"2250": 1.20659,"2275": 0.79754,"2300": 0.8384,"2325": 0.61343,"2350": 0.59297,"2375": 0.61341,"2400": 0.49073,"2425": 0.32715,"2450": 0.28626,"2475": 0.32715,"2500": 0.06134,"2525": 0.18402,"2550": 0.12268,"2575": 0.08179,"2600": 0.06134,"2625": 0.04089}}}