{"type": "Feature","id": "1954","bbox": [-91.47661,14.53043,-91.06883,14.91067],"geometry": {"type": "Polygon","coordinates": [[[-91.12415,14.80711,2282.1177],[-91.12709,14.80742,2168.5679],[-91.12976,14.81021,2275.1973],[-91.13187,14.81486,2422.2605],[-91.13329,14.82561,2466.978],[-91.13329,14.83098,2425.7239],[-91.13244,14.83491,2475.1023],[-91.13115,14.83708,2569.0623],[-91.12283,14.84597,2544.8638],[-91.11988,14.8501,2485.137],[-91.11725,14.85486,2466.9902],[-91.11668,14.85734,2464.0195],[-91.11854,14.86054,2398.8164],[-91.12306,14.86385,2394.7534],[-91.13469,14.86814,2473.071],[-91.14014,14.86953,2464.8008],[-91.14448,14.87026,2477.2815],[-91.14722,14.87036,2487.54],[-91.15009,14.87088,2441.9893],[-91.15627,14.87532,2475.4124],[-91.16572,14.8918,2679.0293],[-91.17079,14.90514,2510.3726],[-91.18298,14.91067,2340.6436],[-91.20257,14.89175,2743.8564],[-91.21585,14.87325,3027.6814],[-91.22962,14.86002,3288.041],[-91.24065,14.85672,3024.658],[-91.2461,14.85568,2873.8774],[-91.25264,14.85584,2890.3977],[-91.25574,14.85625,2886.1138],[-91.27166,14.86137,2941.8352],[-91.27869,14.86261,2969.7971],[-91.29246,14.86261,2974.7583],[-91.31305,14.85403,2647.8667],[-91.32021,14.85486,2521.9436],[-91.32592,14.85734,2585.2917],[-91.33509,14.85987,2850.1182],[-91.35814,14.86328,3043.3833],[-91.36997,14.86168,2753.3872],[-91.37871,14.85878,2678.188],[-91.42441,14.82106,2617.0935],[-91.42829,14.81765,2531.4277],[-91.44049,14.77848,3087.9497],[-91.46968,14.73957,2962.8706],[-91.46482,14.73378,2974.6313],[-91.46198,14.72913,2702.4746],[-91.44953,14.69693,1708.3984],[-91.44842,14.69145,1654.6954],[-91.44813,14.68804,1573.0876],[-91.45289,14.67399,1428.3779],[-91.47661,14.62986,995.8109],[-91.46188,14.61621,881.478],[-91.41633,14.61012,745.0965],[-91.40299,14.6065,680.2139],[-91.39798,14.62019,736.0005],[-91.39708,14.62789,764.9821],[-91.3978,14.6405,802.2184],[-91.39754,14.6434,721.0243],[-91.39661,14.64624,811.9392],[-91.39506,14.64898,765.4849],[-91.39232,14.65166,818.9502],[-91.38747,14.65497,760.738],[-91.38398,14.65683,819.3529],[-91.37788,14.6588,917.9105],[-91.3701,14.65807,1326.9385],[-91.35522,14.65125,1370.4513],[-91.34382,14.63818,1683.1559],[-91.34297,14.63761,1683.1559],[-91.3206,14.63952,1670.5488],[-91.30928,14.64195,2340.5898],[-91.30553,14.64133,2497.0591],[-91.30259,14.6405,2168.7522],[-91.2922,14.62955,2402.2922],[-91.26313,14.60454,1618.7004],[-91.25858,14.59926,1486.9829],[-91.25672,14.59508,1430.6217],[-91.25517,14.58691,1422.4694],[-91.25486,14.57766,1358.9373],[-91.25523,14.57461,1305.6064],[-91.25763,14.5633,1111.2919],[-91.25765,14.5603,1085.8604],[-91.25719,14.55741,1073.6927],[-91.25419,14.55539,975.1248],[-91.25138,14.55394,965.0801],[-91.22882,14.5571,1196.5326],[-91.20107,14.57126,2306.3496],[-91.19226,14.57239,2666.0029],[-91.18195,14.57213,2778.9639],[-91.17608,14.57105,2617.3401],[-91.16639,14.56759,1994.4631],[-91.15311,14.55947,1406.2195],[-91.11415,14.53043,745.3967],[-91.1058,14.61012,1405.0135],[-91.10573,14.63244,1394.5364],[-91.10273,14.64164,1576.699],[-91.09467,14.65265,1562.6812],[-91.0741,14.70045,1859.874],[-91.07617,14.72189,2054.0806],[-91.07539,14.72541,2044.5681],[-91.06883,14.74484,2068.6912],[-91.08495,14.81982,2650.5671],[-91.08743,14.82628,2619.1675],[-91.10392,14.83201,2552.4006],[-91.10854,14.82922,2606.9929],[-91.11244,14.81563,2583.1694],[-91.11358,14.81336,2488.1794],[-91.11495,14.81134,2421.2808],[-91.11647,14.80948,2437.9922],[-91.11854,14.80814,2346.2485],[-91.12113,14.80721,2273.4736],[-91.12415,14.80711,2282.1177]]]}
,"properties": {"ISO3166-1-Alpha-3": "GTM","country": "Guatemala","fill": "#F0F","name": "Sololá","area_km2": 1134.026,"hist_schema_id": "Elevation0-9000","hist_area_km2": {"675": 0.0616,"700": 0.4308,"725": 0.8822,"750": 1.3336,"775": 2.3184,"800": 2.7081,"825": 3.7134,"850": 3.8774,"875": 3.8363,"900": 4.5543,"925": 4.185,"950": 4.0413,"975": 4.9029,"1000": 4.8414,"1025": 4.9235,"1050": 4.4516,"1075": 5.1901,"1100": 4.7799,"1125": 5.2517,"1150": 4.8824,"1175": 4.8415,"1200": 4.5335,"1225": 5.1287,"1250": 4.9849,"1275": 4.8414,"1300": 4.6158,"1325": 4.7181,"1350": 4.4514,"1375": 4.5335,"1400": 4.5951,"1425": 4.8205,"1450": 4.759,"1475": 4.3692,"1500": 4.759,"1525": 4.9025,"1550": 133.656,"1575": 17.7009,"1600": 16.204,"1625": 13.8244,"1650": 13.8039,"1675": 13.7836,"1700": 11.486,"1725": 11.5886,"1750": 12.1423,"1775": 12.5731,"1800": 11.6293,"1825": 12.5521,"1850": 13.4956,"1875": 14.0082,"1900": 12.5926,"1925": 14.6433,"1950": 13.6381,"1975": 14.253,"2000": 15.3601,"2025": 16.5902,"2050": 15.4622,"2075": 16.2822,"2100": 16.5692,"2125": 16.8969,"2150": 16.2816,"2175": 16.3837,"2200": 14.8249,"2225": 15.3376,"2250": 16.4853,"2275": 19.0268,"2300": 19.6824,"2325": 19.4155,"2350": 22.5721,"2375": 23.3095,"2400": 22.3659,"2425": 20.5619,"2450": 20.6024,"2475": 20.561,"2500": 18.6135,"2525": 16.2766,"2550": 16.747,"2575": 16.706,"2600": 14.8407,"2625": 12.3608,"2650": 11.6021,"2675": 11.684,"2700": 10.6799,"2725": 9.5932,"2750": 8.4046,"2775": 8.5069,"2800": 8.5071,"2825": 7.892,"2850": 8.0966,"2875": 7.0516,"2900": 7.5638,"2925": 8.0145,"2950": 8.7932,"2975": 8.2604,"3000": 6.8873,"3025": 5.7806,"3050": 5.7807,"3075": 4.4484,"3100": 3.321,"3125": 3.1365,"3150": 3.5056,"3175": 2.4805,"3200": 2.1116,"3225": 1.4556,"3250": 1.2302,"3275": 1.0457,"3300": 0.5947,"3325": 0.5947,"3350": 0.3076,"3375": 0.2666,"3400": 0.2051,"3425": 0.1231,"3450": 0.1641,"3475": 0.0616,"3500": 0.1231,"3525": 0.0205,"3550": 0.0205}}}