{"type":"Feature","properties":{"GID_1":"GTM.19_1","GID_0":"GTM","country":"Guatemala","province":"Sololá","VARNAME_1":"NA","NL_NAME_1":"NA","TYPE_1":"Departamento","ENGTYPE_1":"Department","CC_1":"NA","HASC_1":"GT.SO","ISO_1":"NA","name":"Sololá.province"},
"geometry":{"type": "MultiPolygon","coordinates": [[[[-91.1119,14.6026,1253.1681],[-91.1105,14.6107,1289.4001],[-91.1076,14.6165,1422.0168],[-91.1101,14.6203,1416.3335],[-91.1083,14.6292,1394.6487],[-91.1032,14.6305,1522.4523],[-91.1018,14.6355,1529.5837],[-91.0984,14.6388,1650.4712],[-91.0981,14.6424,1549.324],[-91.0914,14.6531,1567.4436],[-91.0912,14.6625,1707.3032],[-91.089,14.6696,1693.9058],[-91.0786,14.6819,1916.1796],[-91.0784,14.6927,1925.8042],[-91.0754,14.6994,1859.1155],[-91.0781,14.7049,1884.3765],[-91.077,14.71,1853.4314],[-91.0799,14.718,1859.1842],[-91.0843,14.7176,1930.1528],[-91.0851,14.7307,2008.5333],[-91.0786,14.7319,1923.1503],[-91.0761,14.7267,2062.1113],[-91.0727,14.7305,2007.092],[-91.0773,14.7376,2058.2527],[-91.0731,14.7488,2067.1443],[-91.0767,14.7604,2107.8823],[-91.0723,14.7809,2290.0251],[-91.0685,14.789,2369.0825],[-91.0694,14.7911,2370.3555],[-91.0774,14.7918,2446.8271],[-91.0717,14.8019,2671.9973],[-91.0737,14.8046,2805.9819],[-91.1029,14.8355,2643.1963],[-91.1248,14.8528,2452.552],[-91.1321,14.8667,2517.2195],[-91.1348,14.8683,2473.071],[-91.138,14.8669,2506.6736],[-91.1414,14.8622,2517.834],[-91.1514,14.8671,2463.2515],[-91.1558,14.8713,2512.3425],[-91.1552,14.8756,2506.7661],[-91.159,14.8887,2706.5305],[-91.161,14.8905,2626.478],[-91.1725,14.8913,2702.6174],[-91.175299999999993,14.8934,2759.7124],[-91.2063,14.8795,2821.2544],[-91.211,14.8717,2912.7202],[-91.2146,14.8573,3068.3533],[-91.2459,14.8488,2794.7158],[-91.2626,14.8412,2929.2957],[-91.2731,14.8584,2946.897],[-91.2869,14.8588,2929.2275],[-91.2977,14.8676,2910.2776],[-91.3478,14.8644,2970.2808],[-91.3627,14.8512,2987.675],[-91.3629,14.8477,2989.0737],[-91.4036,14.821,3197.6978],[-91.4069,14.8006,3050.3657],[-91.444,14.7637,3302.5735],[-91.4467,14.7414,3420.8877],[-91.448,14.7401,3470.2441],[-91.4616,14.7385,3113.7756],[-91.4728,14.7248,3245.3906],[-91.4824,14.7205,3216.6384],[-91.4867,14.7155,3092.0122],[-91.4887,14.6848,1977.3474],[-91.4819,14.6604,1381.0935],[-91.4802,14.6374,1081.0244],[-91.4908,14.6261,923.5366],[-91.5066,14.6015,719.2163],[-91.4834,14.5949,704.0027],[-91.4815,14.6026,764.1238],[-91.4647,14.5999,748.8101],[-91.4516,14.6008,760.7172],[-91.4474,14.5969,710.8259],[-91.4462,14.6007,724.0475],[-91.4472,14.6074,765.4338],[-91.4219,14.6349,918.314],[-91.4146,14.6363,930.5363],[-91.4106,14.641,946.8629],[-91.4021,14.6403,861.0781],[-91.398,14.6426,761.3472],[-91.3914,14.6378,656.3642],[-91.3905,14.6354,742.957],[-91.3755,14.6347,803.0982],[-91.3666,14.6401,885.7188],[-91.3614,14.638,999.2667],[-91.3558,14.6425,977.132],[-91.3306,14.6435,2208.1255],[-91.3285,14.6338,1524.3303],[-91.321,14.6382,1679.5836],[-91.3102,14.6313,2523.4915],[-91.3057,14.6258,2572.96],[-91.3117,14.6209,2280.7754],[-91.3129,14.6147,1944.5671],[-91.303,14.6129,1827.2694],[-91.2998,14.6091,1656.062],[-91.2854,14.6066,1553.8074],[-91.2822,14.5972,1874.6895],[-91.275,14.5436,788.3665],[-91.2715,14.5415,752.971],[-91.2697,14.5347,782.3293],[-91.266,14.5309,853.9084],[-91.2557,14.5334,809.8573],[-91.2553,14.5261,699.1035],[-91.2538,14.5256,699.1035],[-91.2526,14.5272,707.897],[-91.253,14.535,792.4869],[-91.251,14.5379,812.2793],[-91.2268,14.5548,1211.6582],[-91.2236,14.5563,1239.6514],[-91.2186,14.5558,1415.593],[-91.2012,14.5619,1893.3654],[-91.1886,14.5624,2128.8003],[-91.1789,14.561,2072.9202],[-91.1764,14.5571,1973.9878],[-91.1595,14.554,1480.1638],[-91.16,14.5582,1519.4214],[-91.1436,14.5513,1096.4547],[-91.1355,14.5454,991.7801],[-91.1294,14.5345,828.533],[-91.1283,14.5254,750.3679],[-91.1248,14.5231,729.2709],[-91.1241,14.5175,691.2962],[-91.1187,14.5153,708.13],[-91.116,14.5194,661.4567],[-91.1154,14.5287,694.7408],[-91.1137,14.5308,708.5952],[-91.1164,14.5416,754.7721],[-91.1136,14.5465,762.5967],[-91.1152,14.5549,859.8588],[-91.1131,14.5599,953.9763],[-91.1156,14.565,1004.9854],[-91.1134,14.5682,898.6932],[-91.1192,14.5739,1232.7507],[-91.1158,14.5814,1009.553],[-91.1173,14.5855,1154.6638],[-91.1107,14.5904,1157.6975],[-91.1091,14.5975,1173.825],[-91.1119,14.6026,1253.1681]]]]}}