{"type":"Feature","properties":{"GID_2":"GTM.18.2_1","GID_0":"GTM","country":"Guatemala","GID_1":"GTM.18_1","province":"SantaRosa","NL_NAME_1":"NA","county":"Casillas","VARNAME_2":"NA","NL_NAME_2":"NA","TYPE_2":"Municipio","ENGTYPE_2":"Municipality","CC_2":"NA","HASC_2":"NA","name":"Casillas.county"},
"geometry":{"type": "MultiPolygon","coordinates": [[[[-90.0535,14.4361,1577.937],[-90.0838,14.4538,1964.2225],[-90.0872,14.447,1998.9872],[-90.0871,14.4426,1994.0505],[-90.0967,14.435,1927.4429],[-90.1016,14.4266,1722.713],[-90.1059,14.4239,1586.9918],[-90.1048,14.4239,1546.3257],[-90.1066,14.4199,1408.0],[-90.1427,14.4126,1408.0],[-90.1436,14.4138,1408.0],[-90.1493,14.4099,1697.0402],[-90.1621,14.4073,1551.4966],[-90.1721,14.4104,1331.4607],[-90.1993,14.4246,1408.6555],[-90.2013,14.4283,1334.1356],[-90.2075,14.4326,1423.3844],[-90.2076,14.4472,1445.576],[-90.2118,14.4583,1576.4529],[-90.2151,14.462,1507.52],[-90.2224,14.4562,1513.0743],[-90.2254,14.4576,1613.7117],[-90.227,14.463,1691.8768],[-90.2323,14.4663,1785.5573],[-90.2324,14.4689,1828.9846],[-90.2416,14.4731,1926.2051],[-90.2441,14.4716,1935.0724],[-90.2574,14.4827,1871.2173],[-90.2682,14.4786,1459.7434],[-90.2714,14.4751,1404.4507],[-90.2729,14.4702,1379.1438],[-90.2711,14.4568,1185.1989],[-90.2747,14.4458,1078.2476],[-90.272,14.4331,1019.1903],[-90.2761,14.4212,985.7958],[-90.2755,14.4172,983.3459],[-90.2782,14.4114,967.3692],[-90.276,14.409,970.5715],[-90.2561,14.4128,1001.761],[-90.2431,14.4119,1015.8145],[-90.2389,14.4138,1024.1221],[-90.2283,14.4093,1045.6609],[-90.2269,14.4053,1100.9458],[-90.2197,14.4035,1053.0076],[-90.217,14.3984,1136.4005],[-90.2175,14.3943,1163.0261],[-90.2134,14.3756,1591.2573],[-90.2132,14.3657,1677.5631],[-90.2178,14.358,1693.9221],[-90.2096,14.3484,2114.8982],[-90.2093,14.3456,2082.4067],[-90.2047,14.3442,1984.3716],[-90.1943,14.3255,1790.4353],[-90.1408,14.3425,1544.142],[-90.1305,14.3356,1702.3906],[-90.1207,14.3335,1726.0959],[-90.1167,14.3342,1624.2166],[-90.1155,14.3425,1621.6173],[-90.1229,14.3568,1453.8348],[-90.0911,14.3542,1530.6443],[-90.0579,14.3892,1726.5286],[-90.0469,14.4299,1571.7887],[-90.0535,14.4361,1577.937]]]]}}