{"type": "Feature","bbox": [-89.8657,14.9313,-89.7359,15.0675],"geometry": {"type": "MultiPolygon","coordinates": [[[[-89.8107,14.9313,258.6172],[-89.8124,14.938,221.4535],[-89.8088,14.9424,217.8643],[-89.7999,14.9449,212.2092],[-89.7948,14.9444,211.6171],[-89.7816,14.9376,207.2359],[-89.7771,14.941,206.0732],[-89.7656,14.9408,205.4019],[-89.7569,14.9428,205.8952],[-89.7441,14.9507,202.5832],[-89.7383,14.9497,214.825],[-89.7359,14.9547,204.793],[-89.737799999999993,14.9616,218.4699],[-89.7365,14.9647,229.4554],[-89.7438,14.9719,237.5049],[-89.743,14.9892,275.0415],[-89.7561,15.0027,438.374],[-89.7575,15.0061,507.7098],[-89.7552,15.0218,923.39],[-89.7645,15.0358,1265.2596],[-89.7701,15.0395,1334.88],[-89.7731,15.0675,946.4415],[-89.8289,15.0656,2366.0938],[-89.8097,15.0488,2076.2354],[-89.7806,15.0122,886.4231],[-89.8267,15.0124,848.8935],[-89.8652,15.0216,899.8592],[-89.8657,15.0206,899.8592],[-89.8198,14.9371,223.4729],[-89.816,14.9322,222.4655],[-89.8107,14.9313,258.6172]]]]}
,"properties": {"GID_2": "GTM.22.9_1","GID_0": "GTM","country": "Guatemala","GID_1": "GTM.22_1","province": "Zacapa","NL_NAME_1": "NA","county": "Usumatlán","VARNAME_2": "NA","NL_NAME_2": "NA","TYPE_2": "Municipio","ENGTYPE_2": "Municipality","CC_2": "NA","HASC_2": "NA","name": "Usumatlán.county","area_km2": 108.07504,"hist_schema_id": "Elevation0-9000","hist_area_km2": {"200": 3.70773,"225": 8.82878,"250": 10.24151,"275": 6.84129,"300": 4.87484,"325": 4.09644,"350": 3.60485,"375": 3.46137,"400": 3.48182,"425": 3.54325,"450": 2.53966,"475": 2.53962,"500": 2.06854,"525": 2.02757,"550": 1.59745,"575": 1.9661,"600": 1.61792,"625": 1.86368,"650": 1.53599,"675": 1.57692,"700": 1.45406,"725": 1.6793,"750": 1.59738,"775": 1.6588,"800": 1.39257,"825": 1.10587,"850": 1.4335,"875": 0.88057,"900": 0.63484,"925": 0.90104,"950": 1.02392,"975": 0.77816,"1000": 0.59385,"1025": 0.53242,"1050": 0.61432,"1075": 0.61433,"1100": 0.57335,"1125": 0.63479,"1150": 0.49145,"1175": 0.40953,"1200": 0.49144,"1225": 0.43001,"1250": 0.57334,"1275": 0.65524,"1300": 0.75762,"1325": 0.49142,"1350": 0.57332,"1375": 0.83951,"1400": 0.71665,"1425": 0.69618,"1450": 0.53236,"1475": 0.36855,"1500": 0.40949,"1525": 0.36854,"1550": 0.45044,"1575": 0.47092,"1600": 0.30712,"1625": 0.24569,"1650": 0.34806,"1675": 0.32759,"1700": 0.34806,"1725": 0.22522,"1750": 0.28664,"1775": 0.20475,"1800": 0.18427,"1825": 0.20474,"1850": 0.1638,"1875": 0.38902,"1900": 0.36854,"1925": 0.22522,"1950": 0.32758,"1975": 0.22522,"2000": 0.34806,"2025": 0.20474,"2050": 0.36854,"2075": 0.30711,"2100": 0.38901,"2125": 0.28664,"2150": 0.24569,"2175": 0.34806,"2200": 0.18426,"2225": 0.34806,"2250": 0.26616,"2275": 0.18426,"2300": 0.14332,"2325": 0.14332,"2350": 0.06142,"2375": 0.02047}}}