{"type": "Feature","id": "1945","bbox": [-92.13796,14.51172,-91.42829,15.22088],"geometry": {"type": "Polygon","coordinates": [[[-91.51883,15.15597,2058.282],[-91.53841,15.17897,2002.1018],[-91.54172,15.1883,1990.8484],[-91.54136,15.19806,2016.2708],[-91.5489,15.20401,2121.0635],[-91.61611,15.22088,1699.7518],[-91.62068,15.20194,1900.4893],[-91.62701,15.19558,1952.791],[-91.66166,15.16843,1836.0454],[-91.67985,15.14941,2098.7432],[-91.69913,15.12238,2232.2754],[-91.70838,15.09246,2390.4487],[-91.69641,15.06477,2399.2717],[-91.67737,15.04926,2514.9016],[-91.67329,15.03319,2539.2922],[-91.67967,14.9904,2656.3599],[-91.68339,14.98017,2748.3882],[-91.69161,14.96947,2775.8003],[-91.72078,14.94178,2647.96],[-91.72853,14.93847,2449.8384],[-91.73649,14.93377,2315.3049],[-91.73773,14.93108,2120.2788],[-91.73905,14.92694,2077.7524],[-91.73832,14.91997,2256.1299],[-91.73998,14.91041,2371.9116],[-91.74915,14.89816,1765.1921],[-91.75576,14.8607,1549.9556],[-91.76331,14.84762,1433.1757],[-91.76496,14.84514,1380.3339],[-91.79189,14.78974,1106.9702],[-91.79294,14.78669,1060.5559],[-91.79535,14.78297,1018.8058],[-91.79907,14.77925,972.347],[-91.81225,14.7698,894.643],[-91.81679,14.76484,899.7599],[-91.81922,14.76153,844.84],[-91.83214,14.73848,653.0992],[-91.84193,14.73238,530.3694],[-91.85067,14.72897,551.6224],[-91.86074,14.72804,451.5938],[-91.88883,14.72959,374.9769],[-91.95149,14.7361,274.1258],[-92.03931,14.71151,73.5761],[-92.06076,14.70753,74.7794],[-92.07244,14.70179,64.7564],[-92.09967,14.6804,38.0721],[-92.13409,14.64205,17.578],[-92.13796,14.63595,19.9618],[-92.13677,14.63301,19.4112],[-92.1337,14.63006,10.875],[-92.12509,14.62686,16.373],[-92.1198,14.62552,20.7198],[-92.06068,14.61962,11.7573],[-92.05215,14.61756,17.4999],[-92.04954,14.61642,18.8352],[-92.04047,14.59921,7.9468],[-92.01663,14.53095,24.984],[-92.00854,14.53643,27.2036],[-92.00335,14.53865,26.6803],[-92.00094,14.53911,28.4969],[-91.99673,14.53798,28.2917],[-91.93795,14.51348,29.528],[-91.92666,14.51172,53.1175],[-91.89746,14.51431,47.0957],[-91.85578,14.52345,63.9257],[-91.8246,14.56883,200.6162],[-91.81478,14.57994,244.1707],[-91.81256,14.58407,269.2027],[-91.81023,14.59058,274.8161],[-91.80672,14.60495,339.0386],[-91.80325,14.61404,395.3745],[-91.79884,14.62314,453.2865],[-91.7809,14.64918,654.9525],[-91.77641,14.6588,695.9769],[-91.76773,14.68624,856.2893],[-91.76103,14.69652,950.6313],[-91.72525,14.71347,1042.6615],[-91.71171,14.72794,1274.7458],[-91.70429,14.73414,1246.7039],[-91.70006,14.73688,1301.1189],[-91.69732,14.73833,1374.7213],[-91.69432,14.73951,1386.1992],[-91.69006,14.74013,1313.778],[-91.68662,14.73993,1462.3965],[-91.68393,14.739,1472.7284],[-91.68223,14.73657,1435.6899],[-91.68109,14.7344,1418.6426],[-91.68262,14.72215,1334.0276],[-91.69693,14.68913,945.2362],[-91.69975,14.67161,745.5759],[-91.69708,14.66882,778.8104],[-91.6921,14.66634,795.1656],[-91.67967,14.66412,754.3208],[-91.67386,14.66241,579.2747],[-91.666,14.662,796.0847],[-91.65662,14.67068,901.0412],[-91.6537,14.67735,1072.3757],[-91.65158,14.67885,1023.1879],[-91.64828,14.68029,1005.5129],[-91.64246,14.67864,892.594],[-91.63629,14.67523,761.6877],[-91.63355,14.67523,759.8031],[-91.63001,14.67647,864.7045],[-91.62249,14.68448,947.6643],[-91.61753,14.69135,963.7964],[-91.61647,14.69352,974.9629],[-91.61076,14.7021,1038.8169],[-91.60735,14.70561,1023.5162],[-91.60464,14.7067,1033.3182],[-91.60091,14.70701,1074.9645],[-91.59048,14.70437,1067.7922],[-91.58446,14.70226,1151.4512],[-91.57898,14.70096,1093.8397],[-91.5757,14.70086,1172.6447],[-91.57089,14.70236,1217.175],[-91.56495,14.7052,1349.9553],[-91.54451,14.71859,1824.2461],[-91.53836,14.72045,1786.5984],[-91.52627,14.71946,1592.2896],[-91.51051,14.71295,1976.4067],[-91.46968,14.73957,2962.8706],[-91.44049,14.77848,3087.9497],[-91.42829,14.81765,2531.4277],[-91.44798,14.85098,2399.8855],[-91.45886,14.8607,2388.3896],[-91.46188,14.89067,2388.2649],[-91.47048,14.91015,2415.9512],[-91.49165,14.90932,2803.2351],[-91.51108,14.90715,2765.8113],[-91.51782,14.90932,2763.1538],[-91.51934,14.91139,2760.6802],[-91.52061,14.91351,2773.0151],[-91.5365,14.93165,2768.6465],[-91.53841,14.93836,2770.3384],[-91.53833,14.94457,2670.7998],[-91.53629,14.94994,2631.3477],[-91.53604,14.96162,2639.0811],[-91.55273,14.97624,2687.804],[-91.56022,14.98591,2669.5728],[-91.56415,15.00053,2718.4448],[-91.58877,15.09143,2934.2837],[-91.59389,15.12027,2532.6946],[-91.59187,15.12848,2309.9143],[-91.5897,15.12988,2256.052],[-91.58748,15.13101,2286.6392],[-91.53632,15.15045,2199.3989],[-91.51883,15.15597,2058.282]]]}
,"properties": {"ISO3166-1-Alpha-3": "GTM","country": "Guatemala","fill": "#FF0","name": "Quezaltenango","area_km2": 1921.984,"hist_schema_id": "Elevation0-9000","hist_area_km2": {"0": 28.211,"25": 119.25,"50": 67.563,"75": 44.499,"100": 37.666,"125": 31.347,"150": 29.684,"175": 28.104,"200": 24.617,"225": 19.938,"250": 20.082,"275": 18.687,"300": 16.45,"325": 16.183,"350": 14.993,"375": 14.009,"400": 14.214,"425": 11.814,"450": 9.045,"475": 9.024,"500": 8.45,"525": 7.404,"550": 7.609,"575": 7.691,"600": 7.363,"625": 6.952,"650": 7.014,"675": 6.604,"700": 5.599,"725": 5.968,"750": 5.004,"775": 5.455,"800": 6.378,"825": 5.742,"850": 6.788,"875": 6.993,"900": 7.218,"925": 8.079,"950": 9.802,"975": 9.535,"1000": 8.879,"1025": 9.248,"1050": 8.858,"1075": 9.597,"1100": 7.874,"1125": 7.341,"1150": 6.766,"1175": 6.746,"1200": 6.459,"1225": 6.233,"1250": 5.679,"1275": 6.294,"1300": 6.233,"1325": 5.843,"1350": 5.638,"1375": 6.438,"1400": 7.053,"1425": 6.315,"1450": 5.802,"1475": 5.125,"1500": 4.305,"1525": 4.551,"1550": 4.203,"1575": 4.654,"1600": 4.121,"1625": 4.695,"1650": 4.326,"1675": 4.203,"1700": 4.859,"1725": 4.817,"1750": 5.288,"1775": 6.087,"1800": 6.845,"1825": 6.64,"1850": 7.765,"1875": 7.416,"1900": 9.28,"1925": 9.238,"1950": 9.442,"1975": 11.223,"2000": 12.245,"2025": 13.065,"2050": 13.638,"2075": 13.331,"2100": 13.004,"2125": 12.513,"2150": 11.08,"2175": 11.696,"2200": 9.361,"2225": 10.428,"2250": 9.855,"2275": 11.514,"2300": 11.269,"2325": 21.188,"2350": 25.101,"2375": 39.609,"2400": 36.965,"2425": 28.481,"2450": 29.299,"2475": 33.09,"2500": 35.076,"2525": 31.796,"2550": 28.844,"2575": 25.669,"2600": 25.444,"2625": 27.617,"2650": 29.746,"2675": 34.745,"2700": 36.24,"2725": 37.285,"2750": 31.672,"2775": 30.73,"2800": 28.497,"2825": 25.977,"2850": 23.478,"2875": 19.667,"2900": 17.783,"2925": 14.546,"2950": 11.412,"2975": 10.593,"3000": 10.08,"3025": 9.691,"3050": 8.072,"3075": 5.839,"3100": 4.262,"3125": 3.115,"3150": 1.988,"3175": 1.619,"3200": 1.086,"3225": 0.676,"3250": 0.594,"3275": 0.369,"3300": 0.184,"3325": 0.246,"3350": 0.123,"3375": 0.164,"3400": 0.062,"3425": 0.103,"3450": 0.062,"3475": 0.082,"3500": 0.082,"3525": 0.103,"3550": 0.082,"3575": 0.103,"3600": 0.041,"3625": 0.062,"3650": 0.041,"3675": 0.062,"3700": 0.041}}}