{"type":"Feature","properties":{"GID_1":"GTM.13_1","GID_0":"GTM","country":"Guatemala","province":"Quezaltenango","VARNAME_1":"NA","NL_NAME_1":"NA","TYPE_1":"Departamento","ENGTYPE_1":"Department","CC_1":"NA","HASC_1":"GT.QZ","ISO_1":"NA","name":"Quezaltenango.province"},
"geometry":{"type": "MultiPolygon","coordinates": [[[[-91.7911,14.5375,130.0501],[-91.789,14.5403,135.4829],[-91.7825,14.5652,198.5149],[-91.7878,14.5769,263.5551],[-91.7851,14.5882,329.6875],[-91.7807,14.5948,359.6196],[-91.7571,14.5901,350.5188],[-91.7541,14.604799999999999,425.5276],[-91.7541,14.6087,433.9544],[-91.7561,14.6114,436.1565],[-91.755,14.6322,522.9265],[-91.7505,14.6459,573.5441],[-91.7475,14.6479,530.4933],[-91.7421,14.6568,629.2106],[-91.7347,14.6727,694.3544],[-91.7325,14.6707,740.5045],[-91.7339,14.668,701.2153],[-91.7141,14.6563,652.6801],[-91.7161,14.6647,649.8777],[-91.7129,14.6686,635.6311],[-91.7043,14.69,807.3997],[-91.682,14.7097,953.5929],[-91.6722,14.7107,1157.4092],[-91.6716,14.7153,1216.2101],[-91.6694,14.7157,1121.4351],[-91.6655,14.7129,1251.9226],[-91.6678,14.7057,1146.5771],[-91.6678,14.6986,993.7111],[-91.6704,14.6931,997.6173],[-91.6681,14.6881,889.082],[-91.6727,14.6813,904.7448],[-91.6745,14.6664,735.9877],[-91.6811,14.6573,598.5314],[-91.6809,14.646,566.1512],[-91.6824,14.6405,516.4022],[-91.6772,14.6397,581.2042],[-91.6735,14.6469,646.0391],[-91.6693,14.6512,659.0649],[-91.6655,14.6496,653.5635],[-91.6656,14.633,556.8575],[-91.6597,14.6173,463.2095],[-91.6557,14.6168,449.8864],[-91.657,14.6083,416.519],[-91.6502,14.6117,418.2068],[-91.639,14.6231,501.0287],[-91.6376,14.6349,567.6293],[-91.6293,14.6421,632.5206],[-91.6256,14.6543,703.6076],[-91.608,14.6534,698.6031],[-91.6101,14.6489,674.2084],[-91.6091,14.6449,640.4276],[-91.6121,14.6336,577.3905],[-91.6101,14.6268,557.9308],[-91.6086,14.626,558.6548],[-91.5955,14.6324,609.8345],[-91.5916,14.6364,633.7714],[-91.591,14.6458,654.5542],[-91.5871,14.6492,666.527],[-91.5802,14.6516,719.5769],[-91.5715,14.6501,728.1484],[-91.5525,14.6698,915.8367],[-91.5409,14.6778,1015.6095],[-91.5334,14.6885,1131.551],[-91.5338,14.6866,1126.9672],[-91.5305,14.6799,1123.0015],[-91.5235,14.681,1185.167],[-91.5209,14.6848,1268.4758],[-91.5112,14.6874,1440.3333],[-91.4875,14.7109,2923.811],[-91.485,14.7181,3235.7358],[-91.4728,14.7248,3245.3906],[-91.4636,14.737,3046.2292],[-91.4467,14.7414,3420.8877],[-91.444,14.7637,3302.5735],[-91.4069,14.8006,3050.3657],[-91.4036,14.821,3197.6978],[-91.42,14.845,2491.8325],[-91.4407,14.8572,2395.5239],[-91.4368,14.8729,2390.5193],[-91.4365,14.8905,2394.291],[-91.4514,14.8952,2323.5444],[-91.4585,14.8992,2339.8215],[-91.4633,14.8986,2379.3032],[-91.4762,14.8938,2393.5425],[-91.4731,14.8888,2391.2026],[-91.4745,14.8844,2386.3257],[-91.4826,14.8782,2354.6306],[-91.4945,14.8781,2348.8403],[-91.5051,14.8933,2416.7517],[-91.5156,14.9155,2727.8386],[-91.5175,14.9229,2698.1208],[-91.5236,14.9319,2732.7932],[-91.5248,14.9461,2702.917],[-91.5573,14.9382,2825.3225],[-91.5327,14.9581,2634.4861],[-91.5342,14.9608,2626.2966],[-91.5324,14.9644,2599.3628],[-91.5334,14.971,2602.4851],[-91.5401,14.9758,2626.3999],[-91.5485,15.1114,2628.4004],[-91.5115,15.1455,2084.0],[-91.52,15.2056,1879.7032],[-91.5692,15.2244,2194.0305],[-91.5855,15.1714,1978.0591],[-91.6291,15.1485,2374.8574],[-91.6731,15.1464,1900.9764],[-91.6803,15.1385,1973.7657],[-91.6838,15.1388,1929.6455],[-91.6872,15.134,1924.6843],[-91.6855,15.1315,1971.8519],[-91.6911,15.1247,1952.1165],[-91.693,15.1184,1978.7502],[-91.6965,15.118,1982.6348],[-91.6981,15.1143,2039.0911],[-91.7021,15.111,1998.6992],[-91.7031,15.102,2216.2441],[-91.6958,15.0901,2181.0376],[-91.696,15.0832,2326.3979],[-91.6878,15.0781,2367.0417],[-91.6823,15.0714,2402.9128],[-91.6757,15.0694,2394.1655],[-91.6714,15.0592,2452.2458],[-91.6611,15.0549,2495.9309],[-91.6788,14.9645,2688.6631],[-91.6752,14.9537,2850.5063],[-91.6801,14.9466,2686.0591],[-91.6875,14.9429,2687.7288],[-91.6936,14.9353,2646.4084],[-91.7,14.933,2614.4109],[-91.7007,14.9309,2601.9797],[-91.7107,14.9252,2547.3306],[-91.7255,14.9221,2379.9958],[-91.7222,14.9143,2694.2466],[-91.7127,14.9033,2582.2808],[-91.7133,14.9011,2445.218],[-91.7226,14.8949,2229.2749],[-91.7244,14.8919,2309.2754],[-91.738,14.892,1795.9647],[-91.7406,14.884,1671.0208],[-91.7449,14.88,1537.4489],[-91.7542,14.8767,1364.2637],[-91.7571,14.8731,1336.5889],[-91.7584,14.8617,1320.8317],[-91.7628,14.8567,1247.2726],[-91.764,14.8513,1212.407],[-91.7762,14.8318,1009.6398],[-91.7731,14.8239,984.6102],[-91.7823,14.8151,918.3572],[-91.7831,14.8125,1121.7468],[-91.7833,14.7992,911.7646],[-91.7787,14.7919,753.3462],[-91.7818,14.7846,820.7916],[-91.7782,14.7795,719.7925],[-91.7834,14.7715,695.4813],[-91.7846,14.7679,698.1678],[-91.7837,14.7645,625.0681],[-91.7892,14.7556,717.0675],[-91.7909,14.7421,759.8528],[-91.7936,14.7381,534.2618],[-91.8035,14.7311,624.2046],[-91.8209,14.7305,492.3628],[-91.823,14.7293,534.0168],[-91.8247,14.7229,539.5864],[-91.8314,14.7183,483.6618],[-91.8442,14.7145,503.2234],[-91.8467,14.7146,489.7378],[-91.8488,14.7183,489.2345],[-91.8535,14.7189,387.2518],[-91.8629,14.7175,383.2365],[-91.8772,14.7181,325.3486],[-91.8808,14.716,354.7631],[-91.8978,14.7182,256.7345],[-91.9015,14.7157,309.331],[-91.9067,14.7206,274.4795],[-91.9113,14.7203,362.3173],[-91.9126,14.7229,325.2973],[-91.9162,14.7225,332.0818],[-91.9183,14.7252,307.4772],[-91.925299999999993,14.7244,320.3069],[-91.9305,14.7285,215.5698],[-91.9345,14.726,213.6954],[-91.9362,14.7269,189.6558],[-91.9396,14.7237,276.947],[-91.9449,14.7257,181.3047],[-91.9509,14.7193,195.378],[-91.9553,14.717,160.0998],[-91.9559,14.7127,193.4158],[-91.961,14.7112,212.2793],[-91.968,14.7125,159.0751],[-91.9815,14.7105,151.6401],[-92.0098,14.7135,107.2341],[-92.0227,14.7176,85.0922],[-92.0275,14.7172,84.5212],[-92.0324,14.7133,73.7195],[-92.0384,14.7128,70.8465],[-92.042,14.7083,72.7801],[-92.0525,14.7067,57.2325],[-92.0602,14.6945,47.6616],[-92.065,14.6908,53.0859],[-92.0713,14.6827,46.9526],[-92.0835,14.6846,33.6115],[-92.0886,14.6793,30.2107],[-92.0929,14.6647,30.7302],[-92.0969,14.6583,26.215699999999998],[-92.1035,14.6594,24.4215],[-92.1066,14.6575,19.8314],[-92.1084,14.6515,19.9261],[-92.1163,14.6408,16.6658],[-92.1391,14.6253,18.7865],[-92.14,14.6168,16.7516],[-92.0868,14.5917,8.3635],[-92.0849,14.5977,5.1974],[-92.0542,14.5875,8.4346],[-92.0556,14.5711,10.1669],[-92.050299999999993,14.5653,12.4217],[-92.036,14.5594,13.391],[-92.0253,14.5505,15.2369],[-92.007,14.5458,24.3832],[-91.9968,14.5381,28.2917],[-91.9755,14.5387,24.4893],[-91.972,14.5368,26.7661],[-91.9711,14.5339,20.5406],[-91.9687,14.5346,24.7018],[-91.9475,14.5213,28.1014],[-91.9433,14.5246,34.7931],[-91.9372,14.5246,34.9998],[-91.9289,14.5196,28.1564],[-91.9178,14.5176,34.8515],[-91.9118,14.5107,35.9407],[-91.8892,14.5117,49.3649],[-91.8862,14.5088,46.162],[-91.8781,14.5153,51.666],[-91.874,14.5152,46.5139],[-91.8718,14.5112,48.6379],[-91.8564,14.5056,57.3162],[-91.8513,14.5012,56.4784],[-91.8381,14.4991,71.4406],[-91.833,14.4949,56.9968],[-91.8261,14.4943,66.68],[-91.8212,14.498,69.0877],[-91.8164,14.4959,66.7403],[-91.8139,14.4973,82.0136],[-91.8091,14.4961,78.741],[-91.8055,14.5026,93.0474],[-91.8015,14.5059,87.3432],[-91.8026,14.5116,90.9631],[-91.8008,14.514099999999999,87.6669],[-91.801,14.5206,101.2617],[-91.7979,14.5249,111.0823],[-91.7958,14.5333,101.7334],[-91.7928,14.534,103.7695],[-91.7911,14.5375,130.0501]]]]}}