{"type":"Feature","properties":{"featurecla":"River","scalerank":7,"rivernum":498,"dissolve":"498River","name":"Cuilco","name_alt":null,"note":null,"min_zoom":6.0,"strokeweig":0.15,"name_en":"Cuilco","min_label":7.0},
"geometry":{"type": "LineString","coordinates": [[-91.696533203125,15.06464264530662,2399.2717],[-91.70849609375,15.09235260624412,2389.1763],[-91.69921875,15.12225983280662,2232.2754],[-91.679931640625,15.149286199994123,2098.7432],[-91.66171875,15.16828034061912,1836.0454],[-91.627124023437489,15.195428778119123,1952.791],[-91.620849609375,15.201776434369123,1900.4893],[-91.6162109375,15.22077057499412,1699.7518],[-91.621386718749989,15.23419830936912,1730.917],[-91.631396484374989,15.243524481244123,1712.9878],[-91.641284179687489,15.250262762494117,1826.3145]]}}