{"type":"Feature","properties":{"GID_2":"GTM.3.3_1","GID_0":"GTM","country":"Guatemala","GID_1":"GTM.3_1","province":"Chimaltenango","NL_NAME_1":"NA","county":"Comalapa","VARNAME_2":"NA","NL_NAME_2":"NA","TYPE_2":"Municipio","ENGTYPE_2":"Municipality","CC_2":"NA","HASC_2":"NA","name":"Comalapa.county"},
"geometry":{"type": "MultiPolygon","coordinates": [[[[-90.914,14.789,2345.6052],[-90.9322,14.7769,2432.3516],[-90.9339,14.773,2376.748],[-90.9304,14.7583,2210.821],[-90.925,14.7524,2123.7168],[-90.9257,14.7496,2136.1667],[-90.9311,14.7434,2163.2437],[-90.9332,14.7431,2198.3479],[-90.9346,14.738,2166.9622],[-90.9368,14.7362,2152.2288],[-90.9358,14.7222,2117.0503],[-90.9392,14.7151,2080.5459],[-90.9382,14.7102,2098.9363],[-90.936,14.7086,2102.2686],[-90.9347,14.7046,2063.0542],[-90.9287,14.6999,2001.5676],[-90.9273,14.6996,2003.9895],[-90.9244,14.7057,2079.5542],[-90.9222,14.7046,1998.7256],[-90.9187,14.7064,1966.4916],[-90.909,14.6963,1952.407],[-90.8959,14.6959,1858.994],[-90.8945,14.6928,1973.0826],[-90.8844,14.6936,1840.014],[-90.8743,14.69,1846.2948],[-90.869,14.6939,1967.4189],[-90.8596,14.6943,2033.4185],[-90.8627,14.7139,2083.5659],[-90.8607,14.7192,1996.5441],[-90.8538,14.7205,1985.8679],[-90.8484,14.7235,2049.7378],[-90.8392,14.7325,2099.0186],[-90.8502,14.7386,2143.6206],[-90.8616,14.7488,2171.9878],[-90.8672,14.7594,2193.0029],[-90.8654,14.7759,2007.0525],[-90.858,14.8009,1880.2758],[-90.8751,14.8019,2013.5742],[-90.914,14.789,2345.6052]]]]}}