{"type":"Feature","properties":{"GID_2":"GTM.12.10_1","GID_0":"GTM","country":"Guatemala","GID_1":"GTM.12_1","province":"Petén","NL_NAME_1":"NA","county":"SanLuis","VARNAME_2":"NA","NL_NAME_2":"NA","TYPE_2":"Municipio","ENGTYPE_2":"Municipality","CC_2":"NA","HASC_2":"NA","name":"San_Luis.county"},
"geometry":{"type": "MultiPolygon","coordinates": [[[[-89.1979,16.2771,655.3055],[-89.9223,16.2109,167.8276],[-89.9645,16.0097,144.0875],[-89.9549,16.0061,142.049],[-89.9531,16.002,141.1821],[-89.9583,15.9933,143.8062],[-89.9576,15.9901,134.7168],[-89.9476,15.9942,138.9138],[-89.9471,15.9914,150.1237],[-89.9491,15.9885,148.2301],[-89.9523,15.9875,149.6717],[-89.953,15.9787,135.4428],[-89.9415,15.9775,151.3019],[-89.9395,15.9733,145.3297],[-89.9409,15.97,139.3749],[-89.9388,15.9687,140.7341],[-89.9314,15.9724,142.4378],[-89.9317,15.9687,137.0046],[-89.9299,15.9659,145.2552],[-89.9257,15.9726,144.5744],[-89.9202,15.972,145.8582],[-89.9159,15.9679,140.2597],[-89.9122,15.9702,153.6655],[-89.909,15.9696,164.4839],[-89.9081,15.9628,139.6453],[-89.9062,15.9608,141.5622],[-89.9029,15.9622,148.9825],[-89.8996,15.9613,147.2269],[-89.8994,15.9552,143.4429],[-89.8919,15.9578,152.8241],[-89.8928,15.9648,143.0681],[-89.8907,15.9669,139.2151],[-89.887,15.9659,150.3461],[-89.8815,15.9529,153.0444],[-89.8878,15.9488,152.8632],[-89.8789,15.9469,149.8001],[-89.8772,15.9427,164.2881],[-89.8798,15.9381,143.8142],[-89.87,15.9337,140.8282],[-89.8648,15.9342,137.5945],[-89.8612,15.9276,143.8147],[-89.8641,15.9189,143.2261],[-89.8585,15.9133,141.552],[-89.8566,15.9091,140.968],[-89.8514,15.9051,141.0921],[-89.8397,15.9107,141.2641],[-89.8357,15.9098,141.6278],[-89.834,15.9074,141.3706],[-89.8276,15.9089,142.5364],[-89.8239,15.9068,143.2043],[-89.8183,15.9115,142.4908],[-89.7891,15.9106,153.0863],[-89.7853,15.9191,147.0817],[-89.7805,15.9181,150.3839],[-89.7793,15.9227,147.2861],[-89.7739,15.9218,157.1791],[-89.7692,15.9249,148.7915],[-89.7625,15.9213,149.1602],[-89.752,15.9271,158.5443],[-89.7518,15.9322,159.2901],[-89.747,15.9343,169.8189],[-89.743,15.9427,163.1259],[-89.7382,15.9442,187.5393],[-89.7386,15.9563,169.1807],[-89.721,15.9677,167.4549],[-89.7109,15.9666,168.8582],[-89.7069,15.9643,169.5069],[-89.7048,15.9676,186.1062],[-89.6942,15.9571,181.8078],[-89.6688,15.94,196.916],[-89.6356,15.931,234.2345],[-89.602,15.9289,235.1017],[-89.5894,15.9341,253.9993],[-89.5605,15.9342,290.8539],[-89.5513,15.9356,291.7401],[-89.5452,15.9369,281.3825],[-89.5372,15.9418,346.6929],[-89.4973,15.9442,293.7911],[-89.4976,15.8509,141.7971],[-89.4895,15.855,136.8445],[-89.4886,15.8576,136.1869],[-89.4812,15.8576,135.5628],[-89.4818,15.8604,135.6204],[-89.4762,15.8644,136.5987],[-89.4625,15.8654,133.7548],[-89.4583,15.855,131.307],[-89.4513,15.8514,113.3036],[-89.4391,15.8545,94.3907],[-89.4382,15.8578,91.9242],[-89.4195,15.8636,89.2862],[-89.4135,15.8629,87.9073],[-89.4101,15.8608,87.4552],[-89.4099,15.8569,88.7676],[-89.4063,15.8522,86.2597],[-89.3984,15.8648,93.6469],[-89.395,15.8657,85.1115],[-89.3899,15.8605,83.9179],[-89.3854,15.8662,88.1207],[-89.3879,15.8709,82.88],[-89.3773,15.8727,84.4625],[-89.3778,15.8756,88.6591],[-89.3832,15.8768,88.1783],[-89.3857,15.8795,84.4631],[-89.3784,15.8822,86.8735],[-89.3759,15.887,87.7157],[-89.3724,15.9035,111.9059],[-89.3641,15.9145,110.1922],[-89.3353,15.9173,78.3146],[-89.329,15.9131,74.0341],[-89.322,15.9125,86.8516],[-89.3144,15.9166,57.1578],[-89.31,15.9147,81.9847],[-89.2945,15.9146,23.7685],[-89.287,15.9117,22.4295],[-89.2819,15.9133,18.8681],[-89.2699,15.913,22.0071],[-89.2627,15.917,25.6489],[-89.253,15.9137,73.3052],[-89.2441,15.9151,8.6738],[-89.2291,15.9057,77.6424],[-89.2273,15.8984,8.297],[-89.2226,15.9019,127.3137],[-89.2242,15.9286,15.1144],[-89.2163,16.0029,84.4679],[-89.1979,16.2771,655.3055]]]]}}