{"type": "Feature","bbox": [-90.2067,14.2012,-90.0393,14.3425],"geometry": {"type": "MultiPolygon","coordinates": [[[[-90.062,14.2066,1139.2858],[-90.0619,14.2137,1123.0438],[-90.0575,14.2168,1120.7373],[-90.056,14.2242,1117.8474],[-90.05,14.2289,1146.0062],[-90.0487,14.2347,1049.271],[-90.0393,14.2421,993.7632],[-90.0393,14.2447,990.9767],[-90.058,14.2462,1023.8594],[-90.0624,14.2556,1018.1816],[-90.0673,14.2575,1068.1946],[-90.0675,14.2659,1065.4537],[-90.0724,14.271,1023.6818],[-90.073,14.2775,1140.6836],[-90.0807,14.2834,1207.1584],[-90.0823,14.2911,1179.1338],[-90.0911,14.3013,1240.6179],[-90.1114,14.3182,1372.192],[-90.1159,14.324,1556.048],[-90.1131,14.326,1575.7944],[-90.1209,14.334,1667.0568],[-90.1305,14.3356,1702.3906],[-90.1408,14.3425,1544.142],[-90.1943,14.3255,1790.4353],[-90.1988,14.3225,1747.3397],[-90.2002,14.32,1601.6455],[-90.1986,14.3096,1408.8948],[-90.2059,14.2961,1176.9845],[-90.2021,14.2727,911.0747],[-90.2067,14.2642,899.6824],[-90.2022,14.2575,1042.569],[-90.1983,14.2556,1073.9459],[-90.1876,14.2564,1273.707],[-90.1571,14.2526,1376.9337],[-90.0742,14.2012,854.9413],[-90.062,14.2066,1139.2858]]]]}
,"properties": {"GID_2": "GTM.11.14_1","GID_0": "GTM","country": "Guatemala","GID_1": "GTM.11_1","province": "Jutiapa","NL_NAME_1": "NA","county": "SanJoséAcatempa","VARNAME_2": "NA","NL_NAME_2": "NA","TYPE_2": "Municipio","ENGTYPE_2": "Municipality","CC_2": "NA","HASC_2": "NA","name": "San_José_Acatempa.county","area_km2": 147.0995,"hist_schema_id": "Elevation0-9000","hist_area_km2": {"800": 0.0616,"825": 0.3493,"850": 0.5548,"875": 0.4315,"900": 0.9452,"925": 1.0069,"950": 1.3767,"975": 1.5617,"1000": 2.2398,"1025": 4.4797,"1050": 4.0686,"1075": 4.685,"1100": 4.8083,"1125": 5.9386,"1150": 7.0688,"1175": 5.0548,"1200": 5.1987,"1225": 6.3493,"1250": 8.3221,"1275": 9.4526,"1300": 8.8769,"1325": 8.6303,"1350": 11.3219,"1375": 9.5958,"1400": 7.3558,"1425": 5.1776,"1450": 3.2051,"1475": 2.0955,"1500": 2.1571,"1525": 1.7668,"1550": 1.623,"1575": 1.7462,"1600": 1.664,"1625": 1.3764,"1650": 1.2531,"1675": 1.2326,"1700": 0.9039,"1725": 0.7806,"1750": 0.8012,"1775": 0.7601,"1800": 0.5136,"1825": 0.2465,"1850": 0.0616}}}