{"type":"Feature","properties":{"GID_2":"GTM.19.11_1","GID_0":"GTM","country":"Guatemala","GID_1":"GTM.19_1","province":"Sololá","NL_NAME_1":"NA","county":"SanPabloLaLaguna","VARNAME_2":"NA","NL_NAME_2":"NA","TYPE_2":"Municipio","ENGTYPE_2":"Municipality","CC_2":"NA","HASC_2":"NA","name":"San_Pablo_La_Laguna.county"},
"geometry":{"type": "MultiPolygon","coordinates": [[[[-91.2672,14.723,1586.1833],[-91.27,14.7262,1824.4818],[-91.2698,14.7343,2019.6709],[-91.2737,14.7434,2099.1582],[-91.2821,14.7422,2487.748],[-91.2872,14.7252,1942.7432],[-91.2808,14.7148,1575.4865],[-91.2735,14.7155,1583.2181],[-91.2681,14.7187,1555.5],[-91.2672,14.723,1586.1833]]]]}}