{"type": "Feature","bbox": [-91.316,15.3863,-91.0156,15.8154],"geometry": {"type": "MultiPolygon","coordinates": [[[[-91.1645,15.3863,2353.5879],[-91.1558,15.3902,2261.7642],[-91.1414,15.393,1938.4441],[-91.1402,15.4085,1935.1725],[-91.1308,15.4168,2104.002],[-91.1243,15.4196,2198.1294],[-91.1259,15.4337,1894.2249],[-91.1054,15.4612,2071.3296],[-91.0897,15.4722,2115.436],[-91.0803,15.4694,2072.436],[-91.0632,15.475,2024.0265],[-91.0546,15.4806,2202.6113],[-91.0469,15.4968,2261.0613],[-91.0156,15.5101,2275.5007],[-91.0189,15.5228,2347.5771],[-91.0193,15.5344,2562.104],[-91.0347,15.5412,2509.1941],[-91.026,15.5648,2584.9482],[-91.0255,15.5698,2419.4104],[-91.0358,15.5696,2459.9656],[-91.0466,15.5881,1710.3601],[-91.0641,15.5875,1646.1735],[-91.0779,15.5939,1117.7034],[-91.0807,15.6026,1472.0684],[-91.0748,15.6201,1073.4546],[-91.0696,15.6223,1163.0276],[-91.069,15.6339,1209.0759],[-91.0794,15.6479,1287.6786],[-91.0757,15.6595,1040.6161],[-91.0809,15.6646,844.23],[-91.0835,15.6801,1236.4908],[-91.0793,15.6849,1561.7205],[-91.0782,15.6969,1481.2655],[-91.072,15.7153,1293.8992],[-91.0775,15.7315,1127.9475],[-91.0748,15.7363,1091.855],[-91.0763,15.7492,1239.5718],[-91.0989,15.7918,326.1387],[-91.091,15.8073,281.8176],[-91.0995,15.8154,285.9011],[-91.1837,15.6656,796.1811],[-91.1906,15.6678,962.0894],[-91.1974,15.6672,663.1033],[-91.1988,15.6567,1386.4363],[-91.2094,15.6554,1296.2278],[-91.2128,15.6519,1078.7408],[-91.2206,15.6371,1426.7952],[-91.2348,15.6247,1659.3298],[-91.2398,15.626,1289.6827],[-91.2576,15.6239,1712.2446],[-91.2751,15.6062,1876.4402],[-91.2755,15.6005,1980.6078],[-91.2629,15.5946,2344.2268],[-91.2816,15.5756,1962.6378],[-91.2971,15.5684,2216.499],[-91.3046,15.5593,2466.9578],[-91.3128,15.5357,2813.6892],[-91.3134,15.5208,2924.8962],[-91.3111,15.5112,2756.8176],[-91.3123,15.5083,2876.0059],[-91.3108,15.5037,2716.8931],[-91.3108,15.4766,2785.5073],[-91.316,15.4722,3177.2029],[-91.3152,15.4635,3217.4348],[-91.3126,15.4549,3311.8665],[-91.2927,15.4277,3223.0601],[-91.2796,15.4196,3189.6328],[-91.2472,15.3879,2961.7131],[-91.2184,15.3876,2474.05],[-91.171,15.3911,2398.1243],[-91.1645,15.3863,2353.5879]]]]}
,"properties": {"GID_2": "GTM.14.10_1","GID_0": "GTM","country": "Guatemala","GID_1": "GTM.14_1","province": "Quiché","NL_NAME_1": "NA","county": "Nebaj","VARNAME_2": "NA","NL_NAME_2": "NA","TYPE_2": "Municipio","ENGTYPE_2": "Municipality","CC_2": "NA","HASC_2": "NA","name": "Nebaj.county","area_km2": 795.4838,"hist_schema_id": "Elevation0-9000","hist_area_km2": {"275": 0.5508,"300": 2.6726,"325": 1.877,"350": 1.5914,"375": 0.9181,"400": 0.5305,"425": 0.5713,"450": 0.3265,"475": 0.5713,"500": 0.4897,"525": 0.4897,"550": 0.5509,"575": 0.7754,"600": 0.9796,"625": 0.9593,"650": 1.3879,"675": 1.3471,"700": 1.6329,"725": 1.4083,"750": 1.5308,"775": 1.7758,"800": 1.8779,"825": 2.4291,"850": 2.47,"875": 2.3679,"900": 2.2863,"925": 2.7354,"950": 2.9192,"975": 3.4296,"1000": 2.8172,"1025": 3.6136,"1050": 3.9403,"1075": 3.7974,"1100": 3.6135,"1125": 4.5528,"1150": 4.3281,"1175": 4.8592,"1200": 4.757,"1225": 5.7576,"1250": 6.0637,"1275": 7.4518,"1300": 7.6562,"1325": 8.9426,"1350": 7.7793,"1375": 7.8613,"1400": 8.1268,"1425": 7.3719,"1450": 7.8619,"1475": 7.9035,"1500": 8.6794,"1525": 8.7203,"1550": 9.5576,"1575": 9.1492,"1600": 9.4154,"1625": 9.4566,"1650": 11.1519,"1675": 10.2119,"1700": 12.0705,"1725": 12.0501,"1750": 12.7857,"1775": 12.7041,"1800": 13.7664,"1825": 11.929,"1850": 13.605,"1875": 14.2591,"1900": 17.6512,"1925": 15.976,"1950": 16.1195,"1975": 15.8948,"2000": 14.9751,"2025": 14.1989,"2050": 14.2395,"2075": 13.3408,"2100": 13.0749,"2125": 14.2804,"2150": 14.5254,"2175": 14.0145,"2200": 13.9328,"2225": 12.4822,"2250": 12.4414,"2275": 12.3189,"2300": 13.4425,"2325": 12.0739,"2350": 12.6459,"2375": 11.9514,"2400": 11.3381,"2425": 9.8262,"2450": 8.4373,"2475": 7.6609,"2500": 7.7834,"2525": 7.5384,"2550": 6.7824,"2575": 6.5985,"2600": 6.9664,"2625": 6.2515,"2650": 4.8826,"2675": 5.7815,"2700": 5.0256,"2725": 4.2698,"2750": 4.5355,"2775": 4.3721,"2800": 4.5152,"2825": 4.9849,"2850": 5.0054,"2875": 4.3924,"2900": 4.6987,"2925": 4.0861,"2950": 4.331,"2975": 3.3301,"3000": 3.0032,"3025": 2.5335,"3050": 1.7777,"3075": 1.5121,"3100": 1.4509,"3125": 1.3487,"3150": 2.5751,"3175": 3.6582,"3200": 3.6173,"3225": 2.6772,"3250": 2.9634,"3275": 1.8189,"3300": 1.1649,"3325": 0.327,"3350": 0.0613}}}