{"type":"Feature","properties":{"GID_2":"GTM.18.8_1","GID_0":"GTM","country":"Guatemala","GID_1":"GTM.18_1","province":"SantaRosa","NL_NAME_1":"NA","county":"PuebloNuevoViñas","VARNAME_2":"NA","NL_NAME_2":"NA","TYPE_2":"Municipio","ENGTYPE_2":"Municipality","CC_2":"NA","HASC_2":"NA","name":"Pueblo_Nuevo_Viñas.county"},
"geometry":{"type": "MultiPolygon","coordinates": [[[[-90.5296,14.1804,1044.8148],[-90.5238,14.1742,991.8387],[-90.5196,14.1722,950.7987],[-90.5168,14.1734,918.489],[-90.5061,14.1683,1006.7889],[-90.5006,14.1706,1000.6944],[-90.497,14.1659,1005.2102],[-90.4936,14.1643,888.4011],[-90.4886,14.166,874.0139],[-90.486,14.1713,895.915],[-90.4793,14.1697,1032.2388],[-90.4763,14.1719,1153.1531],[-90.4748,14.1713,1068.5472],[-90.4736,14.1681,961.9139],[-90.4674,14.1637,1142.7336],[-90.4619,14.1689,1051.8406],[-90.4574,14.1627,1211.4268],[-90.4547,14.1626,1287.0947],[-90.4494,14.1463,1700.8448],[-90.437,14.1589,1604.6311],[-90.429,14.1594,1773.0281],[-90.4291,14.1519,1823.2329],[-90.4276,14.1473,1644.2334],[-90.4148,14.1421,1251.472],[-90.4128,14.1377,1320.6221],[-90.399,14.1372,960.183],[-90.3953,14.1531,1441.7047],[-90.4012,14.1587,1539.1516],[-90.4116,14.1597,1515.5793],[-90.4099,14.1727,1268.9202],[-90.4009,14.1835,1015.8041],[-90.3948,14.1853,920.0182],[-90.3904,14.1892,875.3948],[-90.3845,14.1893,821.5087],[-90.3736,14.1836,694.0459],[-90.3644,14.1866,663.5649],[-90.3619,14.182,627.8297],[-90.3481,14.1831,558.9524],[-90.3343,14.1903,531.4446],[-90.3346,14.1941,529.8325],[-90.3368,14.196,497.594],[-90.3498,14.1963,561.686],[-90.3602,14.1994,639.3075],[-90.3706,14.1979,675.4663],[-90.3765,14.2023,774.2007],[-90.3884,14.2051,806.9601],[-90.4089,14.2069,1160.0394],[-90.4171,14.2055,1312.1788],[-90.4222,14.1961,1101.4607],[-90.434,14.1973,1101.6318],[-90.4439,14.2092,1153.9006],[-90.4422,14.2231,1035.9774],[-90.4442,14.2298,1055.3181],[-90.4404,14.2514,1074.4941],[-90.4434,14.2562,993.2961],[-90.435,14.2854,1002.8066],[-90.4378,14.2895,995.2765],[-90.4419,14.2898,935.9199],[-90.4448,14.2953,960.537],[-90.4449,14.3022,986.4298],[-90.4409,14.3081,963.0012],[-90.434,14.3268,982.6344],[-90.434,14.3341,972.8487],[-90.4388,14.338,965.8004],[-90.4379,14.3332,993.459],[-90.4465,14.3324,971.7369],[-90.4506,14.3344,1020.7104],[-90.455,14.3304,1005.4363],[-90.4542,14.3212,935.0538],[-90.4561,14.3189,972.1268],[-90.4743,14.3187,975.5024],[-90.4763,14.3146,963.1747],[-90.481,14.314,957.374],[-90.4875,14.3089,812.1323],[-90.4933,14.3091,1059.5316],[-90.4958,14.3058,1109.236],[-90.5048,14.302,861.8809],[-90.506,14.2985,768.7244],[-90.5096,14.298,872.6337],[-90.5132,14.2868,651.8754],[-90.5208,14.2864,728.387],[-90.5227,14.2838,661.5087],[-90.5275,14.2836,723.844],[-90.5326,14.2784,787.1691],[-90.537,14.2787,771.9354],[-90.5425,14.2751,720.8659],[-90.5455,14.2773,706.3931],[-90.5532,14.2746,705.6444],[-90.5559,14.27,664.7472],[-90.5612,14.2682,625.6755],[-90.5633,14.2629,536.6266],[-90.5671,14.2592,453.9758],[-90.5729,14.2566,514.6169],[-90.579,14.2473,453.098],[-90.5884,14.2419,317.3323],[-90.5863,14.2379,379.252],[-90.5897,14.2302,379.4514],[-90.5946,14.2252,269.8532],[-90.6021,14.2072,212.139],[-90.5968,14.1953,291.2511],[-90.5745,14.2027,542.5236],[-90.5645,14.2,632.1829],[-90.5623,14.1961,679.261],[-90.5583,14.1952,693.8353],[-90.5518,14.1969,808.7522],[-90.5286,14.2157,1372.696],[-90.5192,14.2024,1716.7473],[-90.5091,14.1991,1661.859],[-90.5201,14.1928,1634.6737],[-90.5296,14.1804,1044.8148]]]]}}