{"type":"Feature","properties":{"GID_2":"GTM.8.24_1","GID_0":"GTM","country":"Guatemala","GID_1":"GTM.8_1","province":"Huehuetenango","NL_NAME_1":"NA","county":"SantaAnaHuista","VARNAME_2":"NA","NL_NAME_2":"NA","TYPE_2":"Municipio","ENGTYPE_2":"Municipality","CC_2":"NA","HASC_2":"NA","name":"Santa_Ana_Huista.county"},
"geometry":{"type": "MultiPolygon","coordinates": [[[[-91.8587,15.8545,663.8017],[-91.9137,15.7624,710.5066],[-91.8834,15.7367,744.4103],[-91.8806,15.715,753.8534],[-91.8758,15.7032,748.0749],[-91.8678,15.6986,775.8314],[-91.8514,15.7027,796.4248],[-91.8453,15.7055,846.7307],[-91.8386,15.7118,815.0779],[-91.8309,15.7096,835.8105],[-91.8151,15.7108,899.0098],[-91.8104,15.7089,894.0038],[-91.8077,15.7016,963.314],[-91.796,15.692,1084.5464],[-91.7897,15.6797,1201.7531],[-91.7809,15.6687,1389.366],[-91.7665,15.6929,1285.6843],[-91.7599,15.6982,1345.6722],[-91.7605,15.7074,1216.1425],[-91.7497,15.7248,837.7606],[-91.7333,15.7294,1319.4222],[-91.7303,15.7405,978.3019],[-91.7328,15.7666,1036.4814],[-91.7412,15.7721,905.8056],[-91.7477,15.7865,903.0972],[-91.7598,15.7914,870.3698],[-91.7704,15.7987,836.3655],[-91.7752,15.7982,891.9066],[-91.7854,15.8033,853.9474],[-91.7934,15.8084,857.3526],[-91.8002,15.816,838.8749],[-91.807,15.8196,811.8882],[-91.8155,15.8196,782.5812],[-91.8587,15.8545,663.8017]]]]}}