{"type":"Feature","properties":{"GID_1":"GTM.3_1","GID_0":"GTM","country":"Guatemala","province":"Chimaltenango","VARNAME_1":"NA","NL_NAME_1":"NA","TYPE_1":"Departamento","ENGTYPE_1":"Department","CC_1":"NA","HASC_1":"GT.CM","ISO_1":"GT-04","name":"Chimaltenango.province"},
"geometry":{"type": "MultiPolygon","coordinates": [[[[-90.8891,14.456,2482.1929],[-90.88,14.4716,3531.769],[-90.8732,14.4979,3815.625],[-90.8742,14.5032,3856.3652],[-90.8684,14.5314,2641.7893],[-90.8616,14.5333,2443.9189],[-90.8498,14.5592,2378.158],[-90.8359,14.5604,2085.46],[-90.8202,14.5546,1956.8262],[-90.8181,14.5547,1973.6858],[-90.8117,14.5608,2119.7563],[-90.8043,14.5727,1998.4681],[-90.8044,14.5794,1931.9426],[-90.8007,14.5814,1833.7053],[-90.8,14.5884,1814.8801],[-90.7933,14.5952,1774.2488],[-90.7923,14.6053,1722.1595],[-90.7889,14.6111,1757.1548],[-90.7907,14.6242,1680.5103],[-90.7828,14.632,1775.8973],[-90.7775,14.6271,1754.7562],[-90.7782,14.6342,1747.0988],[-90.7747,14.6401,1779.1458],[-90.7684,14.6429,1785.9569],[-90.7635,14.6505,1957.4154],[-90.7592,14.6619,1974.8699],[-90.7708,14.6902,1746.8354],[-90.766,14.7094,1631.8812],[-90.7625,14.7086,1640.1913],[-90.7593,14.711,1561.5529],[-90.7534,14.7219,1500.9165],[-90.7593,14.7316,1455.9072],[-90.7596,14.736,1345.859],[-90.7388,14.7594,1238.7618],[-90.7353,14.7609,1218.9043],[-90.7171,14.7769,1135.4111],[-90.7093,14.7778,1118.969],[-90.701,14.7925,1182.8579],[-90.6943,14.7933,1142.2274],[-90.6923,14.7975,1075.9866],[-90.6874,14.8007,1057.9073],[-90.6852,14.8053,1035.3054],[-90.6954,14.8161,976.8407],[-90.6923,14.8271,943.2753],[-90.6929,14.8332,961.3669],[-90.6803,14.8403,839.8954],[-90.6759,14.8458,800.1171],[-90.668,14.8465,849.4091],[-90.6636,14.8489,896.431],[-90.6605,14.8545,819.6389],[-90.6628,14.8579,755.8574],[-90.653,14.8639,770.4199],[-90.6469,14.8621,724.8156],[-90.6437,14.8659,727.6395],[-90.6374,14.8667,693.8165],[-90.6325,14.8724,761.2475],[-90.6264,14.873,755.8739],[-90.6231,14.8781,682.8208],[-90.6156,14.8776,669.3757],[-90.6292,14.8889,799.2715],[-90.6298,14.8919,861.6992],[-90.635,14.889099999999999,677.9962],[-90.6367,14.893,820.8892],[-90.6446,14.8928,801.0952],[-90.6496,14.8865,693.0349],[-90.6607,14.8903,701.2495],[-90.6777,14.9016,775.72],[-90.6808,14.9053,760.8476],[-90.6919,14.9113,837.1965],[-90.6939,14.9093,769.793],[-90.6974,14.9128,958.6554],[-90.7021,14.9088,844.5204],[-90.7049,14.9114,824.1188],[-90.7114,14.9133,928.023],[-90.7144,14.9165,952.2974],[-90.721,14.9177,885.924],[-90.7235,14.9163,891.6984],[-90.7265,14.918,959.7264],[-90.7307,14.9149,879.0208],[-90.7389,14.9168,885.8089],[-90.757,14.9289,1073.2103],[-90.7625,14.9258,988.1779],[-90.7689,14.9295,1013.3369],[-90.7842,14.9199,990.2023],[-90.7955,14.925,1074.8916],[-90.7969,14.9232,1026.0764],[-90.8088,14.9234,1067.0193],[-90.8122,14.9266,1107.6707],[-90.8154,14.9244,1079.7594],[-90.8185,14.9263,1151.4294],[-90.8217,14.9253,1112.9532],[-90.8264,14.9283,1171.0276],[-90.8458,14.9275,1189.1923],[-90.8476,14.9309,1289.2697],[-90.8527,14.9301,1139.8259],[-90.8577,14.9347,1255.4373],[-90.8682,14.9341,1306.7223],[-90.8732,14.9375,1237.7498],[-90.8761,14.9374,1253.994],[-90.8799,14.9338,1211.0453],[-90.8893,14.9364,1256.4846],[-90.9032,14.9322,1329.6808],[-90.9122,14.9265,1313.0957],[-90.9171,14.9273,1377.4084],[-90.9172,14.9226,1270.8215],[-90.9194,14.9218,1302.7471],[-90.9241,14.9241,1467.3733],[-90.9308,14.9209,1291.2576],[-90.9328,14.9255,1442.5531],[-90.9417,14.9248,1315.5857],[-90.9451,14.9264,1355.3752],[-90.9586,14.9269,1402.0693],[-90.9658,14.9308,1415.2623],[-90.9695,14.9357,1690.868],[-90.9756,14.9377,1482.1232],[-90.9848,14.936,1432.6526],[-90.9968,14.9387,1466.8131],[-90.9997,14.9346,1538.9558],[-91.0067,14.9362,1583.7432],[-91.0112,14.9337,1578.5957],[-91.0115,14.9257,1660.5881],[-91.0162,14.923,1729.4579],[-91.0154,14.9207,1658.8293],[-91.0176,14.913,1648.5393],[-91.0228,14.9109,1772.1647],[-91.0224,14.8868,1922.697],[-91.0202,14.8867,1857.6648],[-91.0194,14.8848,1867.5325],[-91.0226,14.8769,2038.2263],[-91.0279,14.8753,2076.7485],[-91.0278,14.8721,2140.104],[-91.032,14.8704,2137.7461],[-91.033,14.8639,2213.4705],[-91.0379,14.8615,2198.9546],[-91.0433,14.8471,2277.3911],[-91.0405,14.8435,2320.2495],[-91.0419,14.8394,2321.8018],[-91.0343,14.8354,2440.7087],[-91.0336,14.8314,2475.8921],[-91.0248,14.8264,2510.293],[-91.0246,14.8243,2471.1584],[-91.0533,14.8041,2822.0522],[-91.0592,14.8079,2805.356],[-91.0619,14.8049,2792.7764],[-91.0717,14.8019,2671.9973],[-91.0774,14.7918,2446.8271],[-91.0694,14.7911,2370.3555],[-91.0685,14.789,2369.0825],[-91.0723,14.7809,2290.0251],[-91.0767,14.7604,2107.8823],[-91.0731,14.7488,2067.1443],[-91.0773,14.7376,2058.2527],[-91.0727,14.7305,2007.092],[-91.0761,14.7267,2062.1113],[-91.0786,14.7319,1923.1503],[-91.0851,14.7307,2008.5333],[-91.0843,14.7176,1930.1528],[-91.0799,14.718,1859.1842],[-91.077,14.71,1853.4314],[-91.0781,14.7049,1884.3765],[-91.0754,14.6994,1859.1155],[-91.0784,14.6927,1925.8042],[-91.0786,14.6819,1916.1796],[-91.089,14.6696,1693.9058],[-91.0912,14.6625,1707.3032],[-91.0914,14.6531,1567.4436],[-91.0981,14.6424,1549.324],[-91.0984,14.6388,1650.4712],[-91.1018,14.6355,1529.5837],[-91.1032,14.6305,1522.4523],[-91.1083,14.6292,1394.6487],[-91.1101,14.6203,1416.3335],[-91.1076,14.6165,1422.0168],[-91.1105,14.6107,1289.4001],[-91.1119,14.6026,1253.1681],[-91.1091,14.5975,1173.825],[-91.1107,14.5904,1157.6975],[-91.1173,14.5855,1154.6638],[-91.1158,14.5814,1009.553],[-91.1192,14.5739,1232.7507],[-91.1134,14.5682,898.6932],[-91.1156,14.565,1004.9854],[-91.1131,14.5599,953.9763],[-91.1152,14.5549,859.8588],[-91.1136,14.5465,762.5967],[-91.1164,14.5416,754.7721],[-91.1137,14.5308,708.5952],[-91.1154,14.5287,694.7408],[-91.116,14.5194,661.4567],[-91.1187,14.5153,708.13],[-91.1257,14.5106,628.0193],[-91.1244,14.4969,585.7014],[-91.1204,14.4899,541.4561],[-91.123,14.4833,513.4612],[-91.1232,14.4773,492.6015],[-91.1264,14.4733,480.5875],[-91.1259,14.4683,459.1281],[-91.1305,14.4572,422.1192],[-91.1068,14.4521,568.8685],[-91.1026,14.4489,546.1538],[-91.0958,14.4489,547.0874],[-91.0943,14.4435,534.0264],[-91.096,14.4327,549.7168],[-91.1002,14.4277,565.2757],[-91.0972,14.4179,473.1271],[-91.1007,14.4124,463.9526],[-91.0955,14.4106,486.6392],[-91.0943,14.4064,446.8898],[-91.0901,14.4057,413.5495],[-91.0849,14.401,480.0545],[-91.0806,14.4057,506.1741],[-91.0758,14.4069,525.2735],[-91.0724,14.4105,566.8203],[-91.0704,14.417,583.559],[-91.059,14.4192,658.2015],[-91.0523,14.4285,701.0948],[-91.0392,14.4277,750.9069],[-91.0381,14.4239,710.485],[-91.0364,14.4272,760.4116],[-91.0328,14.426,745.6685],[-91.0298,14.416,685.2604],[-91.0323,14.4064,613.397],[-91.0177,14.4122,732.4122],[-91.0156,14.4215,740.1257],[-91.0102,14.4231,834.7374],[-91.0084,14.4333,880.6866],[-90.9986,14.4392,909.973],[-90.9967,14.4368,923.4116],[-90.9992,14.433,883.1234],[-90.9974,14.4297,878.4337],[-90.9949,14.4313,894.7598],[-90.9879,14.4288,908.8459],[-90.9889,14.4202,851.176],[-90.9821,14.4193,818.5004],[-90.9798,14.4116,749.5961],[-90.9759,14.409,769.0482],[-90.9774,14.3975,679.6422],[-90.973,14.3734,603.7499],[-90.9673,14.3803,647.4806],[-90.968,14.3842,665.8796],[-90.9641,14.392,706.5978],[-90.9566,14.3956,759.7485],[-90.9382,14.4191,974.0751],[-90.9322,14.4247,1066.8756],[-90.9226,14.4273,1154.3049],[-90.9099,14.4383,1488.3196],[-90.8957,14.446,2020.9819],[-90.8912,14.4498,2085.2979],[-90.8891,14.456,2482.1929]]]]}}