{"type": "Feature","id": "1949","bbox": [-91.11415,14.38284,-90.65761,14.94188],"geometry": {"type": "Polygon","coordinates": [[[-90.80512,14.92824,1212.7168],[-90.8529,14.94188,1527.5222],[-90.86838,14.94157,1446.153],[-90.8822,14.9393,1368.8162],[-90.89396,14.93681,1298.098],[-90.95896,14.93526,1661.333],[-90.97715,14.93862,1460.4641],[-90.99387,14.92865,1666.5569],[-91.01095,14.92421,1701.5654],[-91.02072,14.91955,1768.3025],[-91.02258,14.91826,1906.0847],[-91.02459,14.91656,1881.6293],[-91.0309,14.90658,2010.6743],[-91.05345,14.84493,2358.5396],[-91.06077,14.83894,2424.1116],[-91.08743,14.82628,2619.1675],[-91.08495,14.81982,2650.5671],[-91.06883,14.74484,2068.6912],[-91.07539,14.72541,2044.5681],[-91.07617,14.72189,2054.0806],[-91.0741,14.70045,1859.874],[-91.09467,14.65265,1562.6812],[-91.10273,14.64164,1576.699],[-91.10573,14.63244,1394.5364],[-91.1058,14.61012,1405.0135],[-91.11415,14.53043,745.3967],[-91.1072,14.52428,897.8455],[-91.10079,14.51756,803.6976],[-91.09722,14.51296,775.6262],[-91.09539,14.5032,702.5491],[-91.09717,14.48072,609.1244],[-91.09717,14.46764,589.5311],[-91.11133,14.43044,529.573],[-91.09741,14.42041,495.4796],[-91.0949,14.41814,481.9352],[-91.0902,14.41592,479.0223],[-91.0857,14.4153,489.3697],[-91.07666,14.41623,555.2708],[-91.07208,14.41747,561.7347],[-91.06852,14.41881,559.9356],[-91.05524,14.42625,673.4253],[-91.05276,14.42723,701.0948],[-91.04989,14.42801,717.216],[-91.04687,14.42842,670.2878],[-91.04242,14.42677,722.7167],[-91.03718,14.42356,701.4077],[-91.02731,14.41499,685.7026],[-91.02139,14.41106,717.8347],[-91.01599,14.40873,719.624],[-91.00865,14.40935,735.3549],[-91.00493,14.41059,749.1337],[-91.00214,14.4123,745.8348],[-90.99702,14.41788,789.4694],[-90.99325,14.42088,835.5172],[-90.99069,14.4216,846.7336],[-90.98806,14.41984,853.1186],[-90.98558,14.41592,806.322],[-90.98351,14.39974,764.236],[-90.98343,14.39163,727.0933],[-90.98281,14.38832,679.8998],[-90.98124,14.38563,630.4576],[-90.97847,14.38284,615.2959],[-90.97134,14.38625,692.0183],[-90.95222,14.42382,928.5804],[-90.94636,14.43834,1071.3148],[-90.94504,14.44093,1105.3326],[-90.93809,14.4494,1225.2524],[-90.91718,14.46873,1765.9952],[-90.89054,14.4893,2731.8831],[-90.89085,14.49043,2661.7979],[-90.89147,14.49622,2922.1626],[-90.88607,14.52371,2778.4546],[-90.8644,14.56423,2442.501],[-90.81931,14.61291,1770.55],[-90.79409,14.63068,1758.6448],[-90.78078,14.65869,1857.1312],[-90.77474,14.66603,1931.9591],[-90.77187,14.67094,1886.1194],[-90.77156,14.67544,1866.8804],[-90.77182,14.68153,1848.7955],[-90.77492,14.69931,1744.63],[-90.77823,14.70882,1715.4615],[-90.78378,14.73771,1434.5701],[-90.78086,14.75026,1594.2935],[-90.76523,14.77791,1880.877],[-90.74691,14.80514,1764.7964],[-90.73763,14.83512,1704.1454],[-90.73182,14.84488,1638.6869],[-90.72761,14.84845,1622.2194],[-90.72342,14.85129,1596.5278],[-90.72105,14.85238,1561.5632],[-90.71841,14.85279,1527.4994],[-90.71549,14.85258,1475.2112],[-90.71298,14.85155,1292.1863],[-90.70901,14.85196,1270.0293],[-90.7041,14.85393,1234.403],[-90.68888,14.8655,1101.8145],[-90.68405,14.86829,985.2015],[-90.67299,14.87191,882.5453],[-90.66849,14.87501,800.9097],[-90.66498,14.87801,860.8657],[-90.66309,14.88075,871.2809],[-90.66185,14.88307,869.6019],[-90.66079,14.88602,713.1325],[-90.66025,14.8885,706.8936],[-90.65761,14.90395,1119.1403],[-90.67139,14.90891,1099.6044],[-90.70727,14.9162,912.4448],[-90.7367,14.92596,1260.3444],[-90.7536,14.92824,1017.3576],[-90.80512,14.92824,1212.7168]]]}
,"properties": {"ISO3166-1-Alpha-3": "GTM","country": "Guatemala","fill": "#00F","name": "Chimaltenango","area_km2": 1738.799,"hist_schema_id": "Elevation0-9000","hist_area_km2": {"400": 0.041,"425": 0.062,"450": 0.431,"475": 0.883,"500": 1.417,"525": 2.238,"550": 2.792,"575": 4.312,"600": 4.024,"625": 4.312,"650": 4.681,"675": 5.708,"700": 6.98,"725": 8.992,"750": 9.074,"775": 9.833,"800": 9.278,"825": 9.483,"850": 10.037,"875": 10.549,"900": 10.918,"925": 10.877,"950": 10.752,"975": 11.656,"1000": 12.312,"1025": 11.675,"1050": 12.208,"1075": 12.125,"1100": 12.556,"1125": 12.822,"1150": 11.837,"1175": 12.472,"1200": 13.457,"1225": 12.738,"1250": 12.551,"1275": 13.885,"1300": 13.474,"1325": 12.981,"1350": 13.493,"1375": 13.472,"1400": 15.397,"1425": 16.3,"1450": 15.665,"1475": 15.666,"1500": 16.138,"1525": 18.722,"1550": 19.685,"1575": 19.664,"1600": 18.515,"1625": 19.909,"1650": 21.2,"1675": 22.512,"1700": 24.849,"1725": 29.134,"1750": 35.533,"1775": 54.854,"1800": 45.435,"1825": 38.218,"1850": 37.706,"1875": 31.801,"1900": 31.944,"1925": 30.489,"1950": 30.982,"1975": 31.638,"2000": 31.25,"2025": 34.205,"2050": 39.661,"2075": 38.083,"2100": 46.594,"2125": 52.378,"2150": 42.122,"2175": 37.262,"2200": 39.395,"2225": 42.472,"2250": 35.006,"2275": 40.725,"2300": 36.234,"2325": 25.94,"2350": 22.741,"2375": 21.162,"2400": 19.297,"2425": 18.004,"2450": 15.173,"2475": 13.778,"2500": 12.507,"2525": 10.477,"2550": 9.185,"2575": 8.324,"2600": 6.991,"2625": 6.274,"2650": 5.249,"2675": 4.531,"2700": 3.875,"2725": 3.855,"2750": 3.342,"2775": 2.911,"2800": 3.034,"2825": 2.132,"2850": 1.866,"2875": 1.415,"2900": 0.923,"2925": 1.702,"2950": 0.923,"2975": 0.759,"3000": 0.636,"3025": 0.656,"3050": 0.267,"3075": 0.103,"3100": 0.041}}}