{"type":"Feature","properties":{"featurecla":"River","scalerank":8,"rivernum":715,"dissolve":"715River","name":"Motagua","name_alt":null,"note":null,"min_zoom":7.0,"strokeweig":0.15,"name_en":"Motagua","min_label":8.0},
"geometry":{"type": "LineString","coordinates": [[-91.103125,14.928094793744123,1985.7405],[-91.100341796875,14.932489324994123,1946.0081],[-91.096923828125,14.954217840619123,2010.8804],[-91.09326171875,14.96222565311912,1877.8396],[-91.085620117187489,14.96723053593162,1987.3973],[-91.080322265625,14.966669012494123,1886.5707],[-91.075439453125,14.96393463749412,1979.8822],[-91.052783203124989,14.95929596561912,2009.4156],[-91.036059570312489,14.95380280155662,2015.5129],[-91.021240234375,14.95087311405662,1844.0815],[-91.010668945312489,14.95538971561912,1893.7979],[-91.004443359374989,14.95538971561912,1955.1958],[-90.988867187499991,14.940692449994117,1693.0037],[-90.959082031249991,14.93512604374412,1661.333],[-90.89404296875,14.93671295780662,1298.098],[-90.88232421875,14.93915436405662,1368.8162]]}}