{"type": "Feature","bbox": [-91.7199,15.6249,-91.5023,15.6989],"geometry": {"type": "MultiPolygon","coordinates": [[[[-91.678,15.6282,2146.8511],[-91.6779,15.6282,2146.8511],[-91.6788,15.6287,2146.8511],[-91.6787,15.6283,2146.8511],[-91.678,15.6282,2146.8511]]],
[[[-91.6769,15.6784,1824.2268],[-91.7,15.6789,1430.9946],[-91.7088,15.6765,1355.0482],[-91.7199,15.6659,1412.9023],[-91.7115,15.6595,1594.0779],[-91.7087,15.6476,1873.5739],[-91.6993,15.6393,2238.6279],[-91.6881,15.6408,2055.3916],[-91.6866,15.6341,2212.9517],[-91.68,15.6331,2171.1577],[-91.6777,15.6281,2146.8511],[-91.6566,15.6249,2157.7385],[-91.6462,15.6319,1737.1863],[-91.6446,15.6402,2020.6506],[-91.6271,15.6454,2371.7307],[-91.614,15.6407,2547.3853],[-91.5993,15.6499,3014.2087],[-91.5795,15.6454,2719.3394],[-91.5637,15.6458,2509.5852],[-91.5259,15.639099999999999,3036.145],[-91.5101,15.6403,2886.7949],[-91.5023,15.6753,2896.3682],[-91.5273,15.6739,2558.4114],[-91.5355,15.6798,2422.2964],[-91.5453,15.6842,2284.9382],[-91.5527,15.6836,2419.3181],[-91.5643,15.6907,2065.9653],[-91.5722,15.6907,2039.6514],[-91.5932,15.6989,1763.2703],[-91.628,15.6931,2030.7062],[-91.6769,15.6784,1824.2268]]]]}
,"properties": {"GID_2": "GTM.8.4_1","GID_0": "GTM","country": "Guatemala","GID_1": "GTM.8_1","province": "Huehuetenango","NL_NAME_1": "NA","county": "ConcepciónHuista","VARNAME_2": "NA","NL_NAME_2": "NA","TYPE_2": "Municipio","ENGTYPE_2": "Municipality","CC_2": "NA","HASC_2": "NA","name": "Concepción_Huista.county","area_km2": 111.24057,"hist_schema_id": "Elevation0-9000","hist_area_km2": {"1225": 0.08166,"1250": 0.1429,"1275": 0.26539,"1300": 0.34704,"1325": 0.4287,"1350": 0.42871,"1375": 0.51037,"1400": 0.93906,"1425": 1.20447,"1450": 1.00032,"1475": 0.9391,"1500": 1.04117,"1525": 0.69412,"1550": 0.91869,"1575": 1.00036,"1600": 0.7758,"1625": 0.79622,"1650": 0.8779,"1675": 0.61248,"1700": 0.97998,"1725": 0.89831,"1750": 0.87789,"1775": 0.97998,"1800": 1.18407,"1825": 1.44945,"1850": 1.28618,"1875": 1.40864,"1900": 1.34741,"1925": 1.36783,"1950": 1.46985,"1975": 1.46986,"2000": 1.51067,"2025": 1.59234,"2050": 1.73522,"2075": 1.77606,"2100": 2.02101,"2125": 1.81686,"2150": 2.20474,"2175": 1.91897,"2200": 2.06179,"2225": 1.9189,"2250": 1.77601,"2275": 1.95971,"2300": 2.30676,"2325": 1.91893,"2350": 1.81686,"2375": 1.67395,"2400": 1.7148,"2425": 1.7148,"2450": 1.65355,"2475": 2.06184,"2500": 1.59231,"2525": 2.16392,"2550": 1.63317,"2575": 1.87814,"2600": 1.91897,"2625": 1.49026,"2650": 2.04148,"2675": 1.63319,"2700": 2.00066,"2725": 1.98026,"2750": 1.95985,"2775": 2.34772,"2800": 1.87819,"2825": 1.85778,"2850": 2.00071,"2875": 1.61281,"2900": 1.98031,"2925": 2.02114,"2950": 1.71492,"2975": 1.77616,"3000": 1.817,"3025": 1.73534,"3050": 1.26579,"3075": 1.44952,"3100": 1.32705,"3125": 0.83706,"3150": 0.34707,"3175": 0.10208}}}