{"type": "Feature","bbox": [-91.5163,15.0689,-91.3882,15.1455],"geometry": {"type": "MultiPolygon","coordinates": [[[[-91.5115,15.1455,2084.0],[-91.5163,15.1411,2115.9944],[-91.5082,15.1253,2130.8267],[-91.5002,15.1209,2143.6399],[-91.5032,15.1157,2291.1809],[-91.5016,15.1064,2209.9937],[-91.4898,15.1,2292.7695],[-91.485,15.106,2136.8909],[-91.4745,15.0995,2216.8555],[-91.4708,15.0912,2210.5566],[-91.4713,15.0878,2225.3965],[-91.4818,15.0813,2411.1331],[-91.4766,15.0707,2340.4102],[-91.4722,15.0689,2260.2861],[-91.4578,15.0719,2343.3513],[-91.4441,15.0714,2298.5784],[-91.4355,15.083,2229.0627],[-91.4381,15.0946,2083.4182],[-91.4296,15.11,1920.3992],[-91.4055,15.1186,1866.8073],[-91.4019,15.127,1933.2805],[-91.3912,15.1319,1798.0707],[-91.3882,15.1373,1767.527],[-91.4662,15.134,2031.7045],[-91.5115,15.1455,2084.0]]]]}
,"properties": {"GID_2": "GTM.21.3_1","GID_0": "GTM","country": "Guatemala","GID_1": "GTM.21_1","province": "Totonicapán","NL_NAME_1": "NA","county": "SanBartolo","VARNAME_2": "NA","NL_NAME_2": "NA","TYPE_2": "Municipio","ENGTYPE_2": "Municipality","CC_2": "NA","HASC_2": "NA","name": "San_Bartolo.county","area_km2": 53.95608,"hist_schema_id": "Elevation0-9000","hist_area_km2": {"1775": 0.1842,"1800": 0.36841,"1825": 0.63449,"1850": 0.77776,"1875": 1.06432,"1900": 1.55554,"1925": 1.9854,"1950": 1.76026,"1975": 1.94447,"2000": 2.80416,"2025": 3.15209,"2050": 4.01181,"2075": 5.44462,"2100": 5.23997,"2125": 5.1582,"2150": 4.3395,"2175": 3.43891,"2200": 3.05004,"2225": 2.088,"2250": 1.82185,"2275": 1.02354,"2300": 0.81884,"2325": 0.53223,"2350": 0.45038,"2375": 0.16378,"2400": 0.14331}}}