{"type": "Feature","bbox": [-90.6105,14.2566,-90.4285,14.5738],"geometry": {"type": "MultiPolygon","coordinates": [[[[-90.5729,14.2566,514.6169],[-90.5671,14.2592,453.9758],[-90.5633,14.2629,536.6266],[-90.5612,14.2682,625.6755],[-90.5559,14.27,664.7472],[-90.5532,14.2746,705.6444],[-90.5455,14.2773,706.3931],[-90.5425,14.2751,720.8659],[-90.537,14.2787,771.9354],[-90.5326,14.2784,787.1691],[-90.5275,14.2836,723.844],[-90.5227,14.2838,661.5087],[-90.5208,14.2864,728.387],[-90.5132,14.2868,651.8754],[-90.5096,14.298,872.6337],[-90.506,14.2985,768.7244],[-90.5048,14.302,861.8809],[-90.4958,14.3058,1109.236],[-90.4933,14.3091,1059.5316],[-90.4875,14.3089,812.1323],[-90.481,14.314,957.374],[-90.4763,14.3146,963.1747],[-90.4743,14.3187,975.5024],[-90.4561,14.3189,972.1268],[-90.4542,14.3212,935.0538],[-90.455,14.3304,1005.4363],[-90.4506,14.3344,1020.7104],[-90.4465,14.3324,971.7369],[-90.4379,14.3332,993.459],[-90.4388,14.338,965.8004],[-90.4334,14.3383,1027.8169],[-90.4323,14.3425,981.8141],[-90.4292,14.3447,1008.9634],[-90.4304,14.3486,1028.442],[-90.4285,14.3547,1052.0463],[-90.4296,14.3579,1052.1145],[-90.4368,14.363,1072.9158],[-90.4411,14.3689,1102.8292],[-90.4438,14.379,1118.9645],[-90.4479,14.3828,1086.645],[-90.4525,14.406,1215.0304],[-90.4551,14.4101,1251.6207],[-90.4692,14.4175,1361.7661],[-90.4737,14.4254,1388.9565],[-90.473,14.4373,1462.2378],[-90.471,14.4431,1488.4929],[-90.4642,14.4526,1520.6589],[-90.4665,14.4724,1616.7534],[-90.4719,14.4724,1690.4854],[-90.4747,14.4742,1699.9922],[-90.4763,14.4792,1729.8608],[-90.4762,14.4998,1817.0962],[-90.4736,14.5035,1825.3159],[-90.4725,14.5152,1866.123],[-90.4683,14.5192,1881.0709],[-90.4685,14.5234,1899.23],[-90.4632,14.5306,1910.7639],[-90.4738,14.5321,1902.6978],[-90.4773,14.5373,1912.358],[-90.477,14.5425,1918.6168],[-90.4834,14.5425,1932.218],[-90.4867,14.5469,1764.0789],[-90.4894,14.5462,1695.6345],[-90.4907,14.5492,1824.142],[-90.4952,14.5471,1623.8961],[-90.5043,14.5528,1512.043],[-90.5051,14.555,1510.1295],[-90.5121,14.5515,1441.563],[-90.5113,14.5583,1441.9722],[-90.5033,14.57,1536.957],[-90.5157,14.5738,1404.7894],[-90.52,14.5738,1484.9314],[-90.5321,14.5558,1325.418],[-90.5378,14.5389,1318.6761],[-90.5305,14.539,1330.7769],[-90.5309,14.5331,1318.0867],[-90.5265,14.5293,1279.1259],[-90.5265,14.5213,1261.6235],[-90.5352,14.5186,1294.3945],[-90.5365,14.5166,1288.0032],[-90.5365,14.5145,1289.8566],[-90.5282,14.5024,1349.0842],[-90.5254,14.5014,1352.9982],[-90.5255,14.4964,1348.0144],[-90.5282,14.4919,1291.7543],[-90.536,14.4849,1224.9813],[-90.5403,14.4891,1282.0502],[-90.5685,14.4872,1222.4972],[-90.5712,14.4892,1285.137],[-90.5698,14.4861,1188.0],[-90.5771,14.4861,1188.0],[-90.5823,14.4782,1188.0],[-90.5625,14.4527,1193.9308],[-90.552,14.4444,1188.5],[-90.5426,14.4329,1188.5],[-90.5385,14.423,1188.5],[-90.5412,14.4081,1684.1797],[-90.5432,14.4055,1680.957],[-90.5709,14.3967,1774.0751],[-90.5879,14.3956,2317.4302],[-90.6105,14.3554,1327.5549],[-90.5905,14.3067,1179.8767],[-90.5775,14.2988,937.334],[-90.5757,14.2904,766.7546],[-90.569,14.2863,670.6635],[-90.5666,14.2813,667.5931],[-90.5687,14.2719,643.7048],[-90.573,14.2683,617.1422],[-90.5729,14.2566,514.6169]]]]}
,"properties": {"GID_2": "GTM.7.15_1","GID_0": "GTM","country": "Guatemala","GID_1": "GTM.7_1","province": "Guatemala","NL_NAME_1": "NA","county": "VillaCanales","VARNAME_2": "NA","NL_NAME_2": "NA","TYPE_2": "Municipio","ENGTYPE_2": "Municipality","CC_2": "NA","HASC_2": "NA","name": "Villa_Canales.county","area_km2": 334.4922,"hist_schema_id": "Elevation0-9000","hist_area_km2": {"425": 0.0205,"450": 0.0205,"475": 0.0411,"500": 0.0411,"525": 0.0411,"550": 0.1438,"575": 0.2671,"600": 0.4315,"625": 0.5548,"650": 0.5137,"675": 0.8835,"700": 1.4383,"725": 1.767,"750": 1.4794,"775": 1.2944,"800": 1.1917,"825": 1.1711,"850": 1.4382,"875": 1.582,"900": 2.4654,"925": 3.7802,"950": 7.6218,"975": 10.3539,"1000": 10.2715,"1025": 13.784,"1050": 13.6395,"1075": 10.825,"1100": 11.3586,"1125": 9.2428,"1150": 10.7214,"1175": 11.0087,"1200": 30.4712,"1225": 10.885,"1250": 9.3239,"1275": 7.8647,"1300": 8.6449,"1325": 9.3632,"1350": 9.7117,"1375": 8.2331,"1400": 7.3501,"1425": 7.145,"1450": 5.5436,"1475": 6.4057,"1500": 6.0363,"1525": 7.9868,"1550": 6.4881,"1575": 7.4532,"1600": 5.9542,"1625": 5.6051,"1650": 6.0774,"1675": 5.4614,"1700": 4.9685,"1725": 4.2293,"1750": 3.4285,"1775": 3.0178,"1800": 2.833,"1825": 2.5455,"1850": 2.648,"1875": 2.6685,"1900": 2.1963,"1925": 0.6159,"1950": 0.5133,"1975": 0.2875,"2000": 0.2054,"2025": 0.2259,"2050": 0.3286,"2075": 0.1027,"2100": 0.1848,"2125": 0.1438,"2150": 0.2259,"2175": 0.1232,"2200": 0.2465,"2225": 0.2259,"2250": 0.0616,"2275": 0.1027,"2300": 0.1232,"2325": 0.1438,"2350": 0.2259,"2375": 0.0821,"2400": 0.0821,"2425": 0.1438,"2450": 0.0411,"2475": 0.0411,"2500": 0.0205,"2525": 0.0616}}}