{"type": "Feature","bbox": [-91.6778,15.3659,-91.6265,15.4762],"geometry": {"type": "MultiPolygon","coordinates": [[[[-91.6762,15.4048,1685.8352],[-91.6778,15.3744,2206.7007],[-91.6689,15.3659,2125.6565],[-91.6616,15.375,1933.6248],[-91.6522,15.3759,2002.7686],[-91.6335,15.3948,1799.3246],[-91.63,15.4027,1911.2147],[-91.6312,15.4123,2121.3696],[-91.627,15.418,2250.7522],[-91.6265,15.4309,2348.0356],[-91.6292,15.4535,2822.1082],[-91.6352,15.4762,2640.0874],[-91.6481,15.4507,2254.6892],[-91.6574,15.4361,2834.9702],[-91.6708,15.4241,2302.0049],[-91.6762,15.4048,1685.8352]]]]}
,"properties": {"GID_2": "GTM.8.21_1","GID_0": "GTM","country": "Guatemala","GID_1": "GTM.8_1","province": "Huehuetenango","NL_NAME_1": "NA","county": "SanRafaelPetzal","VARNAME_2": "NA","NL_NAME_2": "NA","TYPE_2": "Municipio","ENGTYPE_2": "Municipality","CC_2": "NA","HASC_2": "NA","name": "San_Rafael_Petzal.county","area_km2": 37.34306,"hist_schema_id": "Elevation0-9000","hist_area_km2": {"1550": 0.04088,"1575": 0.16353,"1600": 0.30661,"1625": 0.47014,"1650": 0.59279,"1675": 0.65411,"1700": 0.67455,"1725": 0.83808,"1750": 1.0425,"1775": 1.16516,"1800": 1.22648,"1825": 1.24693,"1850": 1.10384,"1875": 1.28782,"1900": 1.43091,"1925": 1.16515,"1950": 1.20603,"1975": 1.41044,"2000": 1.3491,"2025": 0.96071,"2050": 0.71541,"2075": 0.94021,"2100": 1.00152,"2125": 0.7971,"2150": 0.98109,"2175": 0.83799,"2200": 0.83799,"2225": 1.04238,"2250": 0.75622,"2275": 0.81754,"2300": 0.87885,"2325": 0.7562,"2350": 0.87883,"2375": 0.83794,"2400": 0.63357,"2425": 0.51093,"2450": 0.51093,"2475": 0.51093,"2500": 0.36786,"2525": 0.51092,"2550": 0.36785,"2575": 0.3883,"2600": 0.34742,"2625": 0.51091,"2650": 0.28611,"2675": 0.42916,"2700": 0.3474,"2725": 0.3474,"2750": 0.24523,"2775": 0.20436,"2800": 0.16348,"2825": 0.12261,"2850": 0.08174,"2900": 0.04088}}}