{"type":"Feature","properties":{"GID_2":"GTM.14.21_1","GID_0":"GTM","country":"Guatemala","GID_1":"GTM.14_1","province":"Quiché","NL_NAME_1":"NA","county":"Zacualpa","VARNAME_2":"NA","NL_NAME_2":"NA","TYPE_2":"Municipio","ENGTYPE_2":"Municipality","CC_2":"NA","HASC_2":"NA","name":"Zacualpa.county"},
"geometry":{"type": "MultiPolygon","coordinates": [[[[-90.8058,15.1525,1600.4592],[-90.8256,15.1632,1440.1558],[-90.8538,15.1508,1238.8286],[-90.8807,15.1491,1198.7344],[-90.8987,15.144,1428.5914],[-90.9124,15.1486,1215.6982],[-90.9504,15.1325,2037.8447],[-90.9814,15.1016,2170.2051],[-90.972,15.0858,2088.2927],[-90.9698,15.0696,2178.5415],[-90.9631,15.0479,1856.4797],[-90.966,15.0462,1917.4622],[-90.9652,15.0407,1843.6388],[-90.9603,15.0315,1768.2991],[-90.9248,15.0287,1623.0295],[-90.9042,15.0302,1552.9474],[-90.8903,15.0214,1551.764],[-90.8772,15.0163,1542.5961],[-90.8582,15.0241,1517.943],[-90.8376,15.0218,1502.9299],[-90.8278,15.0264,1583.7479],[-90.8247,15.0421,2070.9575],[-90.8086,15.0616,2286.2612],[-90.7903,15.0923,2067.3523],[-90.7763,15.1025,2046.1293],[-90.8058,15.1525,1600.4592]]]]}}