{"type": "Feature","bbox": [-89.0332,15.2207,-88.4698,15.6202],"geometry": {"type": "MultiPolygon","coordinates": [[[[-88.9817,15.52,3.2311],[-88.9754,15.516,4.1246],[-88.9743,15.5038,16.702],[-88.9779,15.5011,36.6841],[-88.9732,15.4893,109.0349],[-88.9682,15.4832,134.3891],[-88.9714,15.4641,434.0925],[-88.9759,15.4571,386.3539],[-88.9849,15.4531,519.3899],[-88.9967,15.453,401.6746],[-89.0307,15.4369,269.614],[-89.0332,15.4342,191.4748],[-89.0269,15.4264,330.4083],[-89.0272,15.4056,145.9731],[-89.017,15.4122,123.0537],[-89.0115,15.4097,97.7221],[-89.0039,15.4145,77.067],[-89.0015,15.4136,75.048],[-88.9949,15.4039,65.3027],[-88.9886,15.4011,61.6999],[-88.9845,15.4004,61.3517],[-88.9797,15.4034,59.1117],[-88.9659,15.4035,54.278],[-88.9509,15.4027,55.4465],[-88.9416,15.3997,58.4137],[-88.9369,15.3923,59.0421],[-88.9292,15.3679,49.7588],[-88.9248,15.3653,54.3627],[-88.9195,15.3722,57.4685],[-88.9152,15.3663,49.4541],[-88.9159,15.3607,50.5538],[-88.9207,15.3569,50.5293],[-88.9234,15.3505,50.0],[-88.9148,15.3477,51.3818],[-88.9135,15.3455,53.2627],[-88.9161,15.3402,52.8076],[-88.9206,15.3389,51.5199],[-88.9235,15.3362,52.8575],[-88.9172,15.3196,57.5593],[-88.9206,15.3119,53.5],[-88.9268,15.3083,55.5608],[-88.937,15.3103,58.1516],[-88.9483,15.2984,61.5654],[-88.9522,15.2883,58.7137],[-88.9485,15.2859,71.9547],[-88.9218,15.2789,327.2211],[-88.9026,15.2806,386.7072],[-88.8988,15.2778,433.8272],[-88.8978,15.2732,453.3177],[-88.8842,15.2589,486.5984],[-88.8864,15.2564,462.6093],[-88.8875,15.2487,523.2965],[-88.8912,15.2448,522.3131],[-88.8917,15.2393,687.4132],[-88.8897,15.2353,899.7083],[-88.8856,15.2347,798.476],[-88.8792,15.2364,907.0309],[-88.8751,15.2354,864.8484],[-88.8713,15.2295,939.02],[-88.8701,15.2207,1020.0445],[-88.8262,15.2552,602.1324],[-88.8182,15.2571,508.9272],[-88.7982,15.2673,431.8242],[-88.6838,15.3349,988.424],[-88.6849,15.3363,1033.8336],[-88.6418,15.3715,725.5755],[-88.6015,15.4126,1055.3496],[-88.5827,15.4244,996.3629],[-88.5782,15.4222,1022.192],[-88.5682,15.4275,929.2911],[-88.541,15.4531,966.9798],[-88.4698,15.5124,533.863],[-88.4839,15.5035,491.0938],[-88.5004,15.5036,528.286],[-88.5076,15.5053,537.0171],[-88.5134,15.5185,277.2382],[-88.5251,15.5278,77.9273],[-88.5278,15.5245,104.8722],[-88.5324,15.5233,162.3157],[-88.5419,15.5365,27.2414],[-88.542,15.5455,27.4931],[-88.5506,15.5525,27.2473],[-88.5602,15.5564,24.997],[-88.5611,15.5626,27.6067],[-88.5534,15.5767,22.4579],[-88.5543,15.5909,17.3301],[-88.5714,15.5925,19.522],[-88.5761,15.5999,65.9789],[-88.5811,15.6136,118.444],[-88.5877,15.6188,83.7484],[-88.5989,15.6202,169.797],[-88.6037,15.6171,105.0265],[-88.6227,15.6118,144.5706],[-88.6262,15.6056,72.9252],[-88.6249,15.5966,113.4466],[-88.6311,15.5894,103.1576],[-88.6507,15.588,114.162],[-88.659,15.5845,225.2722],[-88.6707,15.5829,252.4176],[-88.6745,15.5797,283.5614],[-88.6889,15.5853,364.2005],[-88.6971,15.5834,312.5177],[-88.72,15.5882,531.5939],[-88.7459,15.5725,449.5014],[-88.7722,15.5696,565.3661],[-88.7822,15.5719,436.3551],[-88.7884,15.5711,440.5877],[-88.7961,15.5659,463.9106],[-88.8133,15.567,311.5183],[-88.8182,15.5645,376.713],[-88.8566,15.5692,158.5773],[-88.8692,15.5615,168.9986],[-88.8704,15.5577,141.7073],[-88.8728,15.5561,127.0947],[-88.8925,15.5476,67.268],[-88.896,15.5441,66.9351],[-88.9009,15.554,44.931399999999996],[-88.9057,15.5552,44.431],[-88.9151,15.553,40.3255],[-88.9227,15.5536,33.0622],[-88.9348,15.5604,23.3384],[-88.9424,15.5556,22.9299],[-88.9581,15.5499,15.6653],[-88.9802,15.5517,1.3896],[-88.9817,15.52,3.2311]]]]}
,"properties": {"GID_2": "GTM.9.4_1","GID_0": "GTM","country": "Guatemala","GID_1": "GTM.9_1","province": "Izabal","NL_NAME_1": "NA","county": "Morales","VARNAME_2": "NA","NL_NAME_2": "NA","TYPE_2": "Municipio","ENGTYPE_2": "Municipality","CC_2": "NA","HASC_2": "NA","name": "Morales.county","area_km2": 1325.209,"hist_schema_id": "Elevation0-9000","hist_area_km2": {"0": 15.587,"25": 214.586,"50": 358.22,"75": 69.827,"100": 45.937,"125": 40.503,"150": 36.048,"175": 33.453,"200": 30.47,"225": 28.856,"250": 28.244,"275": 29.491,"300": 25.342,"325": 24.524,"350": 23.666,"375": 22.011,"400": 19.047,"425": 17.74,"450": 16.739,"475": 14.819,"500": 14.778,"525": 12.878,"550": 12.714,"575": 12.898,"600": 12.102,"625": 11.836,"650": 11.325,"675": 12.736,"700": 12.348,"725": 12.327,"750": 11.652,"775": 10.732,"800": 9.424,"825": 9.465,"850": 7.503,"875": 7.584,"900": 6.951,"925": 6.378,"950": 5.438,"975": 5.049,"1000": 4.457,"1025": 3.394,"1050": 3.762,"1075": 3.19,"1100": 2.699,"1125": 1.922,"1150": 1.554,"1175": 1.247,"1200": 0.859,"1225": 0.552,"1250": 0.225,"1275": 0.061,"1300": 0.02,"1325": 0.041}}}