{"type": "Feature","bbox": [-90.5436,14.8063,-90.3939,14.9188],"geometry": {"type": "MultiPolygon","coordinates": [[[[-90.527,14.8855,583.1165],[-90.5265,14.8831,624.3404],[-90.516,14.8714,725.968],[-90.5182,14.8512,884.7042],[-90.5241,14.8465,838.4434],[-90.5316,14.8488,810.2811],[-90.5336,14.8477,869.7805],[-90.5339,14.8344,1127.8057],[-90.5375,14.8202,1414.4003],[-90.5436,14.8108,1297.3679],[-90.5363,14.8065,1377.3491],[-90.5344,14.8068,1325.3215],[-90.5327,14.8132,1438.2317],[-90.5309,14.8144,1411.3687],[-90.528,14.8122,1331.3922],[-90.5197,14.8117,1249.3373],[-90.5151,14.8144,1301.4138],[-90.511,14.8129,1183.2639],[-90.5073,14.8138,1171.8539],[-90.5016,14.8086,1017.2102],[-90.4988,14.809,1067.9464],[-90.4977,14.8064,904.6813],[-90.4944,14.8063,864.574],[-90.4895,14.8123,1005.9683],[-90.4823,14.8161,784.418],[-90.4789,14.8255,870.834],[-90.4699,14.8278,941.6888],[-90.4661,14.8305,943.986],[-90.4583,14.8284,829.4169],[-90.4522,14.83,958.126],[-90.4473,14.8277,889.0223],[-90.4371,14.8303,888.9286],[-90.425299999999993,14.8291,779.7798],[-90.4128,14.8463,617.3832],[-90.4088,14.8466,560.8717],[-90.4013,14.8544,494.582],[-90.4009,14.8618,581.4673],[-90.4034,14.8683,427.5645],[-90.394,14.8776,461.362],[-90.3939,14.8817,495.0894],[-90.3987,14.8863,583.4995],[-90.4022,14.8946,541.585],[-90.4002,14.8997,560.5454],[-90.4083,14.9063,549.3916],[-90.4076,14.9133,485.982],[-90.4199,14.9148,564.2293],[-90.4218,14.9188,512.5187],[-90.427,14.918,627.3561],[-90.4277,14.9125,522.2822],[-90.4296,14.9125,570.9269],[-90.4329,14.9088,507.074],[-90.436,14.8991,504.3353],[-90.4358,14.8895,501.696],[-90.4436,14.886,593.3739],[-90.4588,14.8842,595.4457],[-90.4685,14.8851,609.3257],[-90.4703,14.8822,588.4362],[-90.4749,14.8829,569.2952],[-90.4785,14.887,617.2585],[-90.4825,14.8869,557.4822],[-90.4815,14.8893,681.3099],[-90.4908,14.8916,545.7099],[-90.4936,14.899,805.9516],[-90.5168,14.8903,633.8135],[-90.5237,14.8896,684.3509],[-90.527,14.8855,583.1165]]]]}
,"properties": {"GID_2": "GTM.7.3_1","GID_0": "GTM","country": "Guatemala","GID_1": "GTM.7_1","province": "Guatemala","NL_NAME_1": "NA","county": "Chuarrancho","VARNAME_2": "NA","NL_NAME_2": "NA","TYPE_2": "Municipio","ENGTYPE_2": "Municipality","CC_2": "NA","HASC_2": "NA","name": "Chuarrancho.county","area_km2": 106.83115,"hist_schema_id": "Elevation0-9000","hist_area_km2": {"400": 0.02049,"425": 0.2254,"450": 0.71719,"475": 1.08599,"500": 1.68019,"525": 2.99164,"550": 3.56535,"575": 3.25804,"600": 4.03674,"625": 5.57368,"650": 5.9631,"675": 6.57789,"700": 5.65583,"725": 4.69273,"750": 4.38541,"775": 4.01656,"800": 3.52475,"825": 3.25842,"850": 2.95107,"875": 3.31997,"900": 2.82817,"925": 2.72572,"950": 2.74626,"975": 2.66432,"1000": 2.84879,"1025": 2.64386,"1050": 2.35696,"1075": 2.13152,"1100": 1.76262,"1125": 1.98807,"1150": 1.51669,"1175": 1.55768,"1200": 1.43471,"1225": 1.41423,"1250": 1.43473,"1275": 1.39376,"1300": 1.00434,"1325": 1.04534,"1350": 1.18882,"1375": 1.12732,"1400": 0.59442,"1425": 0.49194,"1450": 0.38945,"1475": 0.04099}}}