{"type":"Feature","properties":{"GID_2":"GTM.5.6_1","GID_0":"GTM","country":"Guatemala","GID_1":"GTM.5_1","province":"ElProgreso","NL_NAME_1":"NA","county":"SanCristóbalAcasaguastlán","VARNAME_2":"NA","NL_NAME_2":"NA","TYPE_2":"Municipio","ENGTYPE_2":"Municipality","CC_2":"NA","HASC_2":"NA","name":"San_Cristóbal_Acasaguastlán.county"},
"geometry":{"type": "MultiPolygon","coordinates": [[[[-89.9199,15.1402,2603.1045],[-89.9135,15.1161,2291.822],[-89.9039,15.0969,2314.4624],[-89.902,15.0883,2693.135],[-89.9066,15.0845,2837.6431],[-89.9174,15.0835,2867.5293],[-89.9159,15.0606,2212.033],[-89.9137,15.0473,1890.7051],[-89.9093,15.0364,1588.7059],[-89.9072,15.0181,1284.6693],[-89.9125,15.0031,1344.5737],[-89.9136,14.993,1146.1548],[-89.931,14.97,804.7593],[-89.9265,14.9638,756.7692],[-89.9274,14.9478,708.5818],[-89.9256,14.9425,553.6158],[-89.9284,14.9317,334.953],[-89.9271,14.9301,326.7152],[-89.9217,14.9337,430.1949],[-89.9162,14.9305,454.62],[-89.9182,14.9254,364.8918],[-89.9187,14.9148,243.9671],[-89.8898,14.9121,266.7169],[-89.8863,14.915,262.7455],[-89.8842,14.92,237.1754],[-89.8767,14.9211,233.9532],[-89.8681,14.9163,257.1516],[-89.855,14.9213,231.3976],[-89.8454,14.9199,270.5923],[-89.8323,14.9265,230.5913],[-89.8198,14.9371,223.4729],[-89.8652,15.0216,899.8592],[-89.8267,15.0124,848.8935],[-89.7806,15.0122,886.4231],[-89.8097,15.0488,2076.2354],[-89.8289,15.0656,2366.0938],[-89.893,15.1403,2451.4644],[-89.9199,15.1402,2603.1045]]]]}}