{"type":"Feature","properties":{"GID_2":"GTM.22.7_1","GID_0":"GTM","country":"Guatemala","GID_1":"GTM.22_1","province":"Zacapa","NL_NAME_1":"NA","county":"SanDiego","VARNAME_2":"NA","NL_NAME_2":"NA","TYPE_2":"Municipio","ENGTYPE_2":"Municipality","CC_2":"NA","HASC_2":"NA","name":"San_Diego.county"},
"geometry":{"type": "MultiPolygon","coordinates": [[[[-89.7058,14.8231,1080.7396],[-89.7113,14.8238,1201.6971],[-89.7172,14.8342,1117.717],[-89.7215,14.8352,1098.2013],[-89.7305,14.8254,1059.3805],[-89.7598,14.8323,729.3915],[-89.764,14.8358,642.6493],[-89.7652,14.8417,674.2228],[-89.7785,14.8424,666.7361],[-89.7861,14.8369,827.8105],[-89.7952,14.8344,811.3844],[-89.8017,14.8366,569.9152],[-89.8077,14.8327,597.2551],[-89.8119,14.8264,743.6031],[-89.8173,14.8252,845.2228],[-89.8211,14.8212,867.7728],[-89.7757,14.7325,1124.1146],[-89.7322,14.7408,1178.2384],[-89.7267,14.7402,1135.6016],[-89.7037,14.7519,1169.4302],[-89.7012,14.7741,1328.9764],[-89.6967,14.7804,1489.5681],[-89.7078,14.8169,1242.1147],[-89.7058,14.8231,1080.7396]]]]}}