{"type":"Feature","properties":{"GID_2":"GTM.11.4_1","GID_0":"GTM","country":"Guatemala","GID_1":"GTM.11_1","province":"Jutiapa","NL_NAME_1":"NA","county":"Comapa","VARNAME_2":"NA","NL_NAME_2":"NA","TYPE_2":"Municipio","ENGTYPE_2":"Municipality","CC_2":"NA","HASC_2":"NA","name":"Comapa.county"},
"geometry":{"type": "MultiPolygon","coordinates": [[[[-89.8616,14.0431,334.6284],[-89.858,14.0454,373.72],[-89.8528,14.0532,409.3597],[-89.8483,14.0569,373.2325],[-89.8428,14.0585,373.6696],[-89.8589,14.0597,380.0969],[-89.8663,14.0633,351.4367],[-89.8662,14.0666,356.2315],[-89.8619,14.0704,386.1812],[-89.8606,14.0771,371.4953],[-89.8501,14.0834,397.4741],[-89.8482,14.0875,410.9544],[-89.8499,14.0914,382.0446],[-89.849,14.094,431.1733],[-89.8394,14.1077,528.2213],[-89.839,14.1205,618.6153],[-89.8476,14.1305,554.4246],[-89.8584,14.1339,469.0454],[-89.8666,14.1444,557.0696],[-89.8671,14.1507,602.5074],[-89.8789,14.1605,561.6097],[-89.8838,14.159,580.5185],[-89.9005,14.1602,616.6501],[-89.9115,14.1897,819.7257],[-89.9185,14.1925,687.1949],[-89.9194,14.1978,682.1068],[-89.9412,14.1931,871.1439],[-89.9477,14.1874,1021.6146],[-89.9565,14.1874,955.2747],[-89.9592,14.19,933.5134],[-89.9668,14.1823,993.1006],[-89.9617,14.174,1079.0197],[-89.9628,14.172,1122.3718],[-89.9704,14.1763,1080.3789],[-89.9747,14.1769,1063.2533],[-89.9914,14.1717,1072.176],[-90.0049,14.1731,1092.1549],[-90.0068,14.1754,1089.639],[-90.0136,14.1753,1084.1968],[-90.0142,14.1695,1035.4792],[-90.004,14.166,987.4432],[-89.9911,14.1589,1074.2471],[-89.979,14.1567,1117.563],[-89.9501,14.1407,1284.6075],[-89.9497,14.1214,1058.4771],[-89.9575,14.1169,754.3475],[-89.9571,14.1134,753.3723],[-89.9596,14.1119,733.8621],[-89.9657,14.0947,570.8552],[-89.9652,14.0913,548.0977],[-89.9625,14.0887,535.35],[-89.9553,14.0899,463.5343],[-89.9534,14.088,486.9747],[-89.9453,14.0659,364.4059],[-89.9365,14.0642,476.4958],[-89.9343,14.0608,423.2818],[-89.9237,14.0595,326.5462],[-89.9162,14.0544,321.2735],[-89.9131,14.0494,322.0144],[-89.9048,14.0471,325.7929],[-89.8956,14.0405,318.0581],[-89.892,14.0437,320.0482],[-89.8713,14.0453,441.4637],[-89.8661,14.0431,433.4204],[-89.8616,14.0431,334.6284]]]]}}