{"type":"Feature","properties":{"GID_2":"GTM.17.18_1","GID_0":"GTM","country":"Guatemala","GID_1":"GTM.17_1","province":"SanMarcos","NL_NAME_1":"NA","county":"SanJoséOjetenam","VARNAME_2":"NA","NL_NAME_2":"NA","TYPE_2":"Municipio","ENGTYPE_2":"Municipality","CC_2":"NA","HASC_2":"NA","name":"San_José_Ojetenam.county"},
"geometry":{"type": "MultiPolygon","coordinates": [[[[-92.0084,15.2643,2955.6243],[-92.0025,15.2589,3028.6018],[-92.0009,15.2198,2600.0586],[-92.0075,15.2125,2534.4949],[-92.0064,15.2095,2580.6152],[-92.0032,15.2071,2577.7744],[-91.9708,15.1993,3052.7576],[-91.967,15.1939,3263.6567],[-91.9669,15.1889,3240.6421],[-91.95,15.1751,3354.335],[-91.9436,15.1792,3474.3999],[-91.9412,15.1787,3466.1782],[-91.9392,15.1739,3343.6143],[-91.9224,15.1754,3276.9636],[-91.91,15.1834,3340.8306],[-91.9066,15.1939,3542.1274],[-91.9069,15.2047,3516.8291],[-91.9163,15.2175,3459.9463],[-91.925,15.2385,3252.8818],[-91.9245,15.2449,2845.6255],[-91.9345,15.2459,2810.1802],[-91.9406,15.2445,2809.5967],[-91.9476,15.2471,2650.6768],[-91.955,15.2527,2453.0569],[-91.9579,15.2651,2122.1956],[-91.9607,15.2678,2148.0251],[-91.9609,15.2786,2132.178],[-91.9701,15.2807,2048.8328],[-91.9771,15.2967,2156.0479],[-92.0084,15.2643,2955.6243]]]]}}