{"type": "Feature","bbox": [-91.7712,15.4833,-91.6735,15.6408],"geometry": {"type": "MultiPolygon","coordinates": [[[[-91.6926,15.487,2458.4038],[-91.6836,15.4889,2354.3125],[-91.6883,15.4992,2062.3955],[-91.6883,15.5077,1876.4695],[-91.6752,15.5388,2375.6079],[-91.6735,15.5508,2134.9392],[-91.6793,15.5723,1772.6473],[-91.6918,15.5959,1681.9214],[-91.6914,15.6196,1868.3621],[-91.6866,15.6341,2212.9517],[-91.6881,15.6408,2055.3916],[-91.6993,15.6393,2238.6279],[-91.7096,15.6336,1928.7161],[-91.7261,15.6282,1482.0942],[-91.7345,15.6134,1263.6584],[-91.7438,15.5913,1651.3005],[-91.7536,15.5848,1904.738],[-91.7599,15.5728,1468.3181],[-91.7622,15.5623,1369.3347],[-91.7617,15.5509,1536.8934],[-91.7712,15.5131,2368.7627],[-91.7686,15.505,1880.6317],[-91.74,15.5044,2265.3567],[-91.7289,15.4994,2282.144],[-91.7192,15.4976,2351.801],[-91.7099,15.4833,2476.9961],[-91.6926,15.487,2458.4038]]],
[[[-91.6781,15.6284,2146.8511],[-91.6854,15.6337,2228.3804],[-91.6864,15.6344,2212.9517],[-91.6865,15.6338,2212.9517],[-91.6781,15.6284,2146.8511]]]]}
,"properties": {"GID_2": "GTM.8.19_1","GID_0": "GTM","country": "Guatemala","GID_1": "GTM.8_1","province": "Huehuetenango","NL_NAME_1": "NA","county": "SanPedroNecta","VARNAME_2": "NA","NL_NAME_2": "NA","TYPE_2": "Municipio","ENGTYPE_2": "Municipality","CC_2": "NA","HASC_2": "NA","name": "San_Pedro_Necta.county","area_km2": 115.85373,"hist_schema_id": "Elevation0-9000","hist_area_km2": {"1150": 0.02042,"1175": 0.06126,"1200": 0.08168,"1225": 0.12252,"1250": 0.12252,"1275": 0.28588,"1300": 0.49011,"1325": 0.73517,"1350": 1.04151,"1375": 1.22529,"1400": 1.69497,"1425": 1.61334,"1450": 1.53168,"1475": 1.83804,"1500": 2.10351,"1525": 2.45077,"1550": 2.24655,"1575": 2.61418,"1600": 2.69588,"1625": 2.941,"1650": 3.1044,"1675": 3.28824,"1700": 3.57424,"1725": 2.98196,"1750": 2.69603,"1775": 2.96158,"1800": 2.92071,"1825": 3.06375,"1850": 2.85951,"1875": 3.28849,"1900": 2.94122,"1925": 2.51232,"1950": 2.49193,"1975": 2.38982,"2000": 2.635,"2025": 2.5124,"2050": 2.65544,"2075": 2.24692,"2100": 2.36945,"2125": 2.36952,"2150": 2.41034,"2175": 2.28783,"2200": 2.20607,"2225": 2.18564,"2250": 2.51236,"2275": 2.41043,"2300": 1.75676,"2325": 2.08374,"2350": 1.65476,"2375": 1.7365,"2400": 1.6548,"2425": 1.51179,"2450": 1.77738,"2475": 1.61394,"2500": 1.59355,"2525": 1.26665,"2550": 0.81724,"2575": 0.51076,"2600": 0.81723,"2625": 0.36776,"2650": 0.20431,"2675": 0.34733,"2700": 0.10216,"2725": 0.10216,"2750": 0.14303}}}