{"type":"Feature","properties":{"ISO3166-1-Alpha-3":"GTM","country":"Guatemala","fill":"#00F","id":"1947","name":"San Marcos"},
"geometry":{"type": "Polygon","coordinates": [[[-91.99298,15.2779,2564.2896],[-92.04407,15.28015,2300.7539],[-92.05523,15.2885,2267.3564],[-92.06502,15.39229,1324.2285],[-92.06755,15.40712,1012.2914],[-92.08246,15.4126,1243.4479],[-92.09977,15.43361,1004.9493],[-92.10593,15.45447,896.2643],[-92.13745,15.40183,1648.7614],[-92.18618,15.32038,1685.5598],[-92.20465,15.28951,2031.2089],[-92.21129,15.27207,2480.7324],[-92.21093,15.25336,2578.3115],[-92.20336,15.23716,2060.1411],[-92.07381,15.07371,1275.4258],[-92.0936,15.02942,918.7852],[-92.10383,15.01787,781.9989],[-92.11698,15.01239,617.8286],[-92.12988,15.01095,587.7795],[-92.14236,15.00748,527.0202],[-92.15422,14.99593,522.2219],[-92.15757,14.96304,399.0044],[-92.15468,14.9008,225.4281],[-92.16602,14.87082,167.7995],[-92.1868,14.84726,123.7766],[-92.19165,14.8353,106.7952],[-92.19083,14.81424,84.6999],[-92.18866,14.80589,81.2764],[-92.17938,14.78124,66.7329],[-92.17881,14.77339,62.9251],[-92.18011,14.75879,59.6147],[-92.17938,14.75158,46.4011],[-92.16173,14.70233,28.9185],[-92.1608,14.6835,27.7876],[-92.16473,14.66815,30.301],[-92.18607,14.62957,15.74],[-92.20806,14.57051,7.6036],[-92.2261,14.54935,4.4144],[-92.24623,14.54628,0.0],[-92.16239,14.48733,6.2019],[-92.16233,14.48744,6.2019],[-92.1607,14.49012,11.1717],[-92.15799,14.49105,18.8587],[-92.15398,14.49178,13.9563],[-92.14352,14.4893,16.2697],[-92.13853,14.48966,25.6664],[-92.13354,14.49183,13.0818],[-92.12468,14.49798,6.8852],[-92.11574,14.50594,2.4853],[-92.11236,14.50723,3.9903],[-92.10747,14.50821,4.6123],[-92.09745,14.50754,1.7703],[-92.08797,14.50563,2.1149],[-92.08272,14.50377,3.6536],[-92.07988,14.50335,4.0861],[-92.07678,14.5032,4.2232],[-92.07396,14.50356,5.3256],[-92.07027,14.50511,5.9787],[-92.06634,14.5078,5.1333],[-92.05518,14.51979,7.7824],[-92.04649,14.52371,8.6176],[-92.01663,14.53095,24.984],[-92.04047,14.59921,7.9468],[-92.04954,14.61642,18.8352],[-92.05215,14.61756,17.4999],[-92.06068,14.61962,11.7573],[-92.1198,14.62552,20.7198],[-92.12509,14.62686,16.373],[-92.1337,14.63006,10.875],[-92.13677,14.63301,19.4112],[-92.13796,14.63595,19.9618],[-92.13409,14.64205,17.578],[-92.09967,14.6804,38.0721],[-92.07244,14.70179,64.7564],[-92.06076,14.70753,74.7794],[-92.03931,14.71151,73.5761],[-91.95149,14.7361,274.1258],[-91.88883,14.72959,374.9769],[-91.86074,14.72804,451.5938],[-91.85067,14.72897,551.6224],[-91.84193,14.73238,530.3694],[-91.83214,14.73848,653.0992],[-91.81922,14.76153,844.84],[-91.81679,14.76484,899.7599],[-91.81225,14.7698,894.643],[-91.79907,14.77925,972.347],[-91.79535,14.78297,1018.8058],[-91.79294,14.78669,1060.5559],[-91.79189,14.78974,1106.9702],[-91.76496,14.84514,1380.3339],[-91.76331,14.84762,1433.1757],[-91.75576,14.8607,1549.9556],[-91.74915,14.89816,1765.1921],[-91.73998,14.91041,2371.9116],[-91.73832,14.91997,2256.1299],[-91.73905,14.92694,2077.7524],[-91.73773,14.93108,2120.2788],[-91.73649,14.93377,2315.3049],[-91.72853,14.93847,2449.8384],[-91.72078,14.94178,2647.96],[-91.69161,14.96947,2775.8003],[-91.68339,14.98017,2748.3882],[-91.67967,14.9904,2656.3599],[-91.67329,15.03319,2539.2922],[-91.67737,15.04926,2514.9016],[-91.69641,15.06477,2399.2717],[-91.70838,15.09246,2390.4487],[-91.69913,15.12238,2232.2754],[-91.67985,15.14941,2098.7432],[-91.66166,15.16843,1836.0454],[-91.62701,15.19558,1952.791],[-91.62068,15.20194,1900.4893],[-91.61611,15.22088,1699.7518],[-91.62128,15.23429,1730.917],[-91.63127,15.24364,1712.9878],[-91.64117,15.25036,1826.3145],[-91.66094,15.26648,1865.9169],[-91.67939,15.28586,1642.1902],[-91.69595,15.30808,1666.7346],[-91.71008,15.33291,1649.4177],[-91.71499,15.34632,1483.4427],[-91.71574,15.35012,1473.5762],[-91.73111,15.34994,2119.9482],[-91.78563,15.33496,1978.7249],[-91.80682,15.33656,2220.6797],[-91.8408,15.35728,1763.5903],[-91.84961,15.36123,1681.0897],[-91.85622,15.36069,1727.043],[-91.86291,15.35829,1714.897],[-91.87994,15.34818,1852.2778],[-91.91025,15.32984,2403.3657],[-91.94288,15.32741,2426.7959],[-91.95658,15.31894,2072.0142],[-91.99025,15.28116,2542.7419],[-91.99298,15.2779,2564.2896]]]}}