{"type":"Feature","properties":{"GID_1":"GTM.17_1","GID_0":"GTM","country":"Guatemala","province":"SanMarcos","VARNAME_1":"NA","NL_NAME_1":"NA","TYPE_1":"Departamento","ENGTYPE_1":"Department","CC_1":"NA","HASC_1":"GT.SM","ISO_1":"GT-12","name":"San_Marcos.province"},
"geometry":{"type": "MultiPolygon","coordinates": [[[[-92.050299999999993,14.5653,12.4217],[-92.0556,14.5711,10.1669],[-92.0542,14.5875,8.4346],[-92.0849,14.5977,5.1974],[-92.0868,14.5917,8.3635],[-92.14,14.6168,16.7516],[-92.1391,14.6253,18.7865],[-92.1163,14.6408,16.6658],[-92.1084,14.6515,19.9261],[-92.1066,14.6575,19.8314],[-92.1035,14.6594,24.4215],[-92.0969,14.6583,26.215699999999998],[-92.0929,14.6647,30.7302],[-92.0886,14.6793,30.2107],[-92.0835,14.6846,33.6115],[-92.0713,14.6827,46.9526],[-92.065,14.6908,53.0859],[-92.0602,14.6945,47.6616],[-92.0525,14.7067,57.2325],[-92.042,14.7083,72.7801],[-92.0384,14.7128,70.8465],[-92.0324,14.7133,73.7195],[-92.0275,14.7172,84.5212],[-92.0227,14.7176,85.0922],[-92.0098,14.7135,107.2341],[-91.9815,14.7105,151.6401],[-91.968,14.7125,159.0751],[-91.961,14.7112,212.2793],[-91.9559,14.7127,193.4158],[-91.9553,14.717,160.0998],[-91.9509,14.7193,195.378],[-91.9449,14.7257,181.3047],[-91.9396,14.7237,276.947],[-91.9362,14.7269,189.6558],[-91.9345,14.726,213.6954],[-91.9305,14.7285,215.5698],[-91.925299999999993,14.7244,320.3069],[-91.9183,14.7252,307.4772],[-91.9162,14.7225,332.0818],[-91.9126,14.7229,325.2973],[-91.9113,14.7203,362.3173],[-91.9067,14.7206,274.4795],[-91.9015,14.7157,309.331],[-91.8978,14.7182,256.7345],[-91.8808,14.716,354.7631],[-91.8772,14.7181,325.3486],[-91.8629,14.7175,383.2365],[-91.8535,14.7189,387.2518],[-91.8488,14.7183,489.2345],[-91.8467,14.7146,489.7378],[-91.8442,14.7145,503.2234],[-91.8314,14.7183,483.6618],[-91.8247,14.7229,539.5864],[-91.823,14.7293,534.0168],[-91.8209,14.7305,492.3628],[-91.8035,14.7311,624.2046],[-91.7936,14.7381,534.2618],[-91.7909,14.7421,759.8528],[-91.7892,14.7556,717.0675],[-91.7837,14.7645,625.0681],[-91.7846,14.7679,698.1678],[-91.7834,14.7715,695.4813],[-91.7782,14.7795,719.7925],[-91.7818,14.7846,820.7916],[-91.7787,14.7919,753.3462],[-91.7833,14.7992,911.7646],[-91.7831,14.8125,1121.7468],[-91.7823,14.8151,918.3572],[-91.7731,14.8239,984.6102],[-91.7762,14.8318,1009.6398],[-91.764,14.8513,1212.407],[-91.7628,14.8567,1247.2726],[-91.7584,14.8617,1320.8317],[-91.7571,14.8731,1336.5889],[-91.7542,14.8767,1364.2637],[-91.7449,14.88,1537.4489],[-91.7406,14.884,1671.0208],[-91.738,14.892,1795.9647],[-91.7244,14.8919,2309.2754],[-91.7226,14.8949,2229.2749],[-91.7133,14.9011,2445.218],[-91.7127,14.9033,2582.2808],[-91.7222,14.9143,2694.2466],[-91.7255,14.9221,2379.9958],[-91.7107,14.9252,2547.3306],[-91.7007,14.9309,2601.9797],[-91.7,14.933,2614.4109],[-91.6936,14.9353,2646.4084],[-91.6875,14.9429,2687.7288],[-91.6801,14.9466,2686.0591],[-91.6752,14.9537,2850.5063],[-91.6788,14.9645,2688.6631],[-91.6611,15.0549,2495.9309],[-91.6714,15.0592,2452.2458],[-91.6757,15.0694,2394.1655],[-91.6823,15.0714,2402.9128],[-91.6878,15.0781,2367.0417],[-91.696,15.0832,2326.3979],[-91.6958,15.0901,2181.0376],[-91.7031,15.102,2216.2441],[-91.7021,15.111,1998.6992],[-91.6981,15.1143,2039.0911],[-91.6965,15.118,1982.6348],[-91.693,15.1184,1978.7502],[-91.6911,15.1247,1952.1165],[-91.6855,15.1315,1971.8519],[-91.6872,15.134,1924.6843],[-91.6838,15.1388,1929.6455],[-91.6803,15.1385,1973.7657],[-91.6731,15.1464,1900.9764],[-91.6291,15.1485,2374.8574],[-91.5855,15.1714,1978.0591],[-91.5692,15.2244,2194.0305],[-91.5805,15.2333,2002.6521],[-91.6227,15.2345,1671.405],[-91.6636,15.2926,2005.0183],[-91.6821,15.3042,1815.8674],[-91.6988,15.3238,1907.7935],[-91.7073,15.3369,1785.134],[-91.7293,15.3425,2040.079],[-91.7309,15.3447,2028.2378],[-91.7415,15.3455,2302.1877],[-91.7447,15.3409,2181.2278],[-91.7498,15.3403,2266.2524],[-91.764,15.3434,2218.7888],[-91.7947,15.3287,2384.8057],[-91.8231,15.3278,2113.8892],[-91.8809,15.3616,1842.6699],[-91.9397,15.3185,2521.9417],[-91.9569,15.3192,2072.0142],[-92.0112,15.2621,2887.7319],[-92.077,15.2764,2633.085],[-92.0809,15.3934,1391.6815],[-92.1045,15.4016,1150.1534],[-92.1183,15.4188,1056.7264],[-92.2106,15.2614,2766.512],[-92.0747,15.0893,1536.2593],[-92.0762,15.0793,1335.7969],[-92.0704,15.0653,1158.114],[-92.0732,15.0614,1066.1997],[-92.0703,15.0545,1129.0978],[-92.0736,15.0459,961.907],[-92.0784,15.0451,817.1515],[-92.08,15.0337,767.3352],[-92.0861,15.0222,803.0516],[-92.0915,15.0217,819.9069],[-92.1008,15.0114,662.1495],[-92.1153,15.0134,604.1913],[-92.1177,15.0154,595.084],[-92.121,15.0134,587.3428],[-92.1262,15.0156,556.9681],[-92.1339,15.0133,487.4725],[-92.1355,15.0122,604.6567],[-92.1367,15.0058,584.2979],[-92.14,15.0027,499.4088],[-92.1387,14.9998,471.5625],[-92.1394,14.9952,503.7249],[-92.1435,14.9942,463.2287],[-92.1508,14.9869,380.7384],[-92.1508,14.9836,369.2954],[-92.1454,14.9773,357.204],[-92.1474,14.9715,352.7353],[-92.1467,14.9611,333.2115],[-92.1489,14.9482,300.9376],[-92.143,14.9387,273.9673],[-92.1436,14.9279,252.7754],[-92.1421,14.9186,246.2276],[-92.1447,14.9095,224.1096],[-92.1416,14.9064,221.7753],[-92.1364,14.8913,196.1602],[-92.1376,14.8872,187.4594],[-92.142,14.8845,178.2024],[-92.1466,14.8702,174.4392],[-92.1636,14.8614,133.2539],[-92.1706,14.8617,135.235],[-92.1722,14.8561,118.7293],[-92.1757,14.8516,112.1237],[-92.1818,14.8476,112.4524],[-92.183,14.843,100.643],[-92.1814,14.84,99.1651],[-92.1848,14.8283,85.8802],[-92.1772,14.8161,76.7657],[-92.1789,14.8116,69.5922],[-92.1785,14.8036,63.5532],[-92.1717,14.793,63.6569],[-92.1711,14.7894,54.3467],[-92.1649,14.783,52.7651],[-92.1647,14.7774,48.0079],[-92.1609,14.773,58.4041],[-92.1628,14.7607,40.2761],[-92.1694,14.7593,42.5428],[-92.1718,14.7567,44.9373],[-92.1718,14.7527,49.0744],[-92.1695,14.749,35.4537],[-92.1702,14.7446,40.5798],[-92.1576,14.736,32.0685],[-92.1549,14.7266,29.5344],[-92.1478,14.7187,29.2493],[-92.149,14.7054,29.3795],[-92.1474,14.6978,24.6534],[-92.143,14.6912,21.896],[-92.147,14.6814,24.3662],[-92.146,14.6626,18.0],[-92.1501,14.6559,17.8211],[-92.1604,14.6507,17.1951],[-92.1591,14.6419,20.8498],[-92.1683,14.6406,16.8861],[-92.1725,14.6309,14.9132],[-92.1771,14.6262,15.1011],[-92.1771,14.6206,18.2903],[-92.1814,14.6142,10.3407],[-92.1746,14.6114,13.5261],[-92.1778,14.6074,9.9862],[-92.178,14.6007,11.1861],[-92.1818,14.5911,12.5346],[-92.1833,14.5777,7.335],[-92.1982,14.5643,6.6995],[-92.2043,14.5643,6.5149],[-92.2084,14.559,5.662],[-92.2155,14.5566,5.9627],[-92.2168,14.5448,3.3623],[-92.2224,14.5304,4.3489],[-92.1921,14.5049,0.3443],[-92.189,14.504,0.0],[-92.1893,14.5063,0.0],[-92.1835,14.5088,2.1835],[-92.1862,14.5032,0.7064],[-92.1826,14.4987,0.0],[-92.1804,14.4982,2.1207],[-92.1799,14.5018,9.2027],[-92.1746,14.5021,15.7865],[-92.1735,14.4993,12.8716],[-92.1779,14.501,0.5],[-92.1743,14.4979,2.8045],[-92.1751,14.4949,1.1941],[-92.1643,14.4863,0.6843],[-92.159,14.4911,18.8587],[-92.1525,14.4903,16.7048],[-92.1428,14.4937,12.9431],[-92.1437,14.5009,17.782],[-92.1425,14.5036,3.903],[-92.1393,14.507,10.9274],[-92.1344,14.508,4.6514],[-92.133,14.5102,12.0826],[-92.1246,14.508,6.6895],[-92.1232,14.5046,2.1757],[-92.1197,14.5066,5.0853],[-92.1179,14.5033,6.8799],[-92.1146,14.5044,3.2972],[-92.1151,14.5096,2.3521],[-92.1088,14.5161,3.6016],[-92.109,14.5228,5.5103],[-92.1044,14.5267,5.4388],[-92.1052,14.5304,5.5234],[-92.0817,14.5409,7.592],[-92.08,14.5481,8.7582],[-92.0608,14.5573,9.3304],[-92.0587,14.5605,17.5739],[-92.050299999999993,14.5653,12.4217]]]]}}