{"type": "Feature","bbox": [-91.6123,15.3677,-91.4834,15.5046],"geometry": {"type": "MultiPolygon","coordinates": [[[[-91.4884,15.4952,3577.001],[-91.5038,15.4946,3552.3494],[-91.5182,15.4905,3614.3828],[-91.5301,15.4966,3722.5483],[-91.5371,15.4954,3704.8547],[-91.5489,15.5046,3691.0122],[-91.5632,15.4983,2947.3958],[-91.5668,15.4913,2848.3928],[-91.5678,15.4657,3721.4058],[-91.5714,15.4478,3168.8054],[-91.5831,15.4334,2790.7246],[-91.5922,15.4266,2341.4817],[-91.5945,15.4131,2289.7471],[-91.6071,15.4105,1999.3502],[-91.6123,15.3895,1757.3508],[-91.6056,15.389,1860.5806],[-91.5843,15.3953,1916.0791],[-91.5467,15.388,2117.6997],[-91.5395,15.3759,1884.0087],[-91.5216,15.3677,1883.5503],[-91.514,15.3778,2011.3464],[-91.5113,15.3915,2153.1946],[-91.4996,15.4011,2656.093],[-91.484,15.4398,3190.8381],[-91.4834,15.4477,3230.1404],[-91.4886,15.4599,3186.8872],[-91.4884,15.4952,3577.001]]]]}
,"properties": {"GID_2": "GTM.8.23_1","GID_0": "GTM","country": "Guatemala","GID_1": "GTM.8_1","province": "Huehuetenango","NL_NAME_1": "NA","county": "SanSebastiánHuehuetenango","VARNAME_2": "NA","NL_NAME_2": "NA","TYPE_2": "Municipio","ENGTYPE_2": "Municipality","CC_2": "NA","HASC_2": "NA","name": "San_Sebastián_Huehuetenango.county","area_km2": 121.23412,"hist_schema_id": "Elevation0-9000","hist_area_km2": {"1800": 0.04088,"1825": 0.04088,"1850": 0.1431,"1875": 0.40886,"1900": 0.77684,"1925": 0.87903,"1950": 1.18565,"1975": 1.39004,"2000": 0.96077,"2025": 1.67623,"2050": 1.574,"2075": 1.90107,"2100": 1.65575,"2125": 2.08502,"2150": 1.61485,"2175": 1.38999,"2200": 1.61483,"2225": 1.75791,"2250": 1.63525,"2275": 1.28775,"2300": 1.41039,"2325": 1.24686,"2350": 1.08333,"2375": 1.34904,"2400": 1.022,"2425": 1.2877,"2450": 1.16506,"2475": 1.38989,"2500": 1.2877,"2525": 1.32856,"2550": 1.61471,"2575": 1.32855,"2600": 1.45119,"2625": 1.10371,"2650": 1.12415,"2675": 0.85844,"2700": 0.91975,"2725": 0.94019,"2750": 1.41027,"2775": 1.10369,"2800": 1.02193,"2825": 1.14455,"2850": 1.20585,"2875": 1.10365,"2900": 1.10361,"2925": 1.30797,"2950": 1.16492,"2975": 1.43058,"3000": 1.2875,"3025": 1.34882,"3050": 1.41011,"3075": 1.0014,"3100": 1.02178,"3125": 1.53271,"3150": 1.71664,"3175": 3.67858,"3200": 3.53545,"3225": 2.71797,"3250": 2.53402,"3275": 4.00526,"3300": 2.32962,"3325": 2.57482,"3350": 2.28872,"3375": 2.43171,"3400": 2.28865,"3425": 2.00256,"3450": 2.30909,"3475": 2.53388,"3500": 2.41124,"3525": 2.49294,"3550": 2.0638,"3575": 2.10466,"3600": 1.67556,"3625": 1.18516,"3650": 1.69597,"3675": 1.47116,"3700": 1.30769,"3725": 0.85815,"3750": 0.73556,"3775": 0.34735,"3800": 0.36778,"3825": 0.04086}}}