{"type":"Feature","properties":{"GID_2":"GTM.17.24_1","GID_0":"GTM","country":"Guatemala","GID_1":"GTM.17_1","province":"SanMarcos","NL_NAME_1":"NA","county":"SanRafaélPiedelaCuesta","VARNAME_2":"NA","NL_NAME_2":"NA","TYPE_2":"Municipio","ENGTYPE_2":"Municipality","CC_2":"NA","HASC_2":"NA","name":"San_Rafaél_Piedela_Cuesta.county"},
"geometry":{"type": "MultiPolygon","coordinates": [[[[-91.9585,14.9111,823.5206],[-91.9434,14.9081,901.0433],[-91.9422,14.8953,930.1299],[-91.9384,14.8928,961.9113],[-91.9176,14.889,1127.9287],[-91.9047,14.8828,1274.2181],[-91.8999,14.8828,1291.8708],[-91.8927,14.887,1315.6218],[-91.874,14.9131,1552.093],[-91.875,14.9393,1782.0273],[-91.8821,14.9368,1675.6926],[-91.8894,14.9368,1412.2156],[-91.8919,14.9386,1196.0847],[-91.8961,14.9497,1425.9878],[-91.8928,14.9626,1591.6089],[-91.8993,14.9686,1258.3088],[-91.9031,14.963,1191.2917],[-91.9406,14.9343,966.4692],[-91.9425,14.9277,880.0368],[-91.9392,14.9237,781.2383],[-91.9438,14.9188,797.5281],[-91.9585,14.9111,823.5206]]]]}}