{"type":"Feature","properties":{"GID_2":"GTM.1.4_1","GID_0":"GTM","country":"Guatemala","GID_1":"GTM.1_1","province":"AltaVerapaz","NL_NAME_1":"NA","county":"FrayBartolomédelasCasas","VARNAME_2":"NA","NL_NAME_2":"NA","TYPE_2":"Municipio","ENGTYPE_2":"Municipality","CC_2":"NA","HASC_2":"NA","name":"Fray_Bartolomédelas_Casas.county"},
"geometry":{"type": "MultiPolygon","coordinates": [[[[-89.4973,15.8554,136.8508],[-89.4973,15.9442,293.7911],[-89.5372,15.9418,346.6929],[-89.5452,15.9369,281.3825],[-89.5513,15.9356,291.7401],[-89.5605,15.9342,290.8539],[-89.5894,15.9341,253.9993],[-89.602,15.9289,235.1017],[-89.6356,15.931,234.2345],[-89.6688,15.94,196.916],[-89.6942,15.9571,181.8078],[-89.7048,15.9676,186.1062],[-89.7069,15.9643,169.5069],[-89.7109,15.9666,168.8582],[-89.721,15.9677,167.4549],[-89.7386,15.9563,169.1807],[-89.7382,15.9442,187.5393],[-89.743,15.9427,163.1259],[-89.747,15.9343,169.8189],[-89.7518,15.9322,159.2901],[-89.752,15.9271,158.5443],[-89.7625,15.9213,149.1602],[-89.7692,15.9249,148.7915],[-89.7739,15.9218,157.1791],[-89.7793,15.9227,147.2861],[-89.7805,15.9181,150.3839],[-89.7853,15.9191,147.0817],[-89.7891,15.9106,153.0863],[-89.8183,15.9115,142.4908],[-89.8239,15.9068,143.2043],[-89.8276,15.9089,142.5364],[-89.834,15.9074,141.3706],[-89.8357,15.9098,141.6278],[-89.8397,15.9107,141.2641],[-89.8514,15.9051,141.0921],[-89.8566,15.9091,140.968],[-89.8585,15.9133,141.552],[-89.8641,15.9189,143.2261],[-89.8612,15.9276,143.8147],[-89.8648,15.9342,137.5945],[-89.87,15.9337,140.8282],[-89.8798,15.9381,143.8142],[-89.8772,15.9427,164.2881],[-89.8789,15.9469,149.8001],[-89.8878,15.9488,152.8632],[-89.8815,15.9529,153.0444],[-89.887,15.9659,150.3461],[-89.8907,15.9669,139.2151],[-89.8928,15.9648,143.0681],[-89.8919,15.9578,152.8241],[-89.8994,15.9552,143.4429],[-89.8996,15.9613,147.2269],[-89.9029,15.9622,148.9825],[-89.9062,15.9608,141.5622],[-89.9081,15.9628,139.6453],[-89.909,15.9696,164.4839],[-89.9122,15.9702,153.6655],[-89.9159,15.9679,140.2597],[-89.9202,15.972,145.8582],[-89.9257,15.9726,144.5744],[-89.9299,15.9659,145.2552],[-89.9317,15.9687,137.0046],[-89.9314,15.9724,142.4378],[-89.9388,15.9687,140.7341],[-89.9409,15.97,139.3749],[-89.9395,15.9733,145.3297],[-89.9415,15.9775,151.3019],[-89.953,15.9787,135.4428],[-89.9523,15.9875,149.6717],[-89.9491,15.9885,148.2301],[-89.9471,15.9914,150.1237],[-89.9476,15.9942,138.9138],[-89.9576,15.9901,134.7168],[-89.9583,15.9933,143.8062],[-89.9531,16.002,141.1821],[-89.9549,16.0061,142.049],[-89.9723,16.0116,144.4024],[-89.9731,16.0171,143.9175],[-89.9771,16.0163,145.2941],[-89.9808,16.0095,140.8493],[-89.9752,16.009,143.9994],[-89.974,15.9975,148.6932],[-89.9776,15.9944,152.1572],[-89.9827,15.9975,133.93],[-90.0036,15.9895,142.9801],[-90.0165,15.9786,137.4853],[-90.01,15.9718,133.5414],[-90.0065,15.9596,132.8078],[-90.0106,15.9573,130.5831],[-90.0202,15.9653,134.2488],[-90.0231,15.965,140.3477],[-90.0172,15.9497,132.3792],[-90.0134,15.9453,147.7883],[-90.0056,15.9534,148.2041],[-90.0046,15.9373,132.9886],[-89.9989,15.941,148.6689],[-89.9947,15.9573,139.8139],[-89.9928,15.9581,133.9465],[-89.991,15.9548,133.4847],[-89.991,15.9456,143.4924],[-89.9884,15.9409,133.2827],[-89.99,15.9358,132.3464],[-89.9943,15.9343,143.8492],[-89.9929,15.9292,136.1418],[-89.9975,15.9228,141.8007],[-89.9958,15.9194,139.1415],[-89.9902,15.9192,139.3218],[-89.9871,15.9175,147.8117],[-89.9854,15.9124,133.2837],[-89.9879,15.9093,146.2211],[-89.9973,15.9067,140.5342],[-89.998,15.9046,133.6279],[-89.9932,15.9031,138.8586],[-89.9926,15.901,134.6959],[-89.9941,15.8937,146.7348],[-89.9867,15.8935,144.8593],[-89.9861,15.9007,146.1334],[-89.9836,15.9027,147.1333],[-89.9757,15.8988,137.8945],[-89.9798,15.8962,155.1968],[-89.9816,15.8927,146.4247],[-89.9694,15.8921,149.4426],[-89.9646,15.886,149.877],[-89.9602,15.887,152.4184],[-89.9587,15.8899,154.6101],[-89.9543,15.8893,152.4871],[-89.9535,15.8868,152.3023],[-89.9567,15.8812,138.2483],[-89.9488,15.8769,155.6684],[-89.9478,15.8728,144.4083],[-89.9485,15.8715,147.9547],[-89.9523,15.8735,152.9171],[-89.9507,15.8579,142.9293],[-89.9367,15.8558,156.7388],[-89.9362,15.8508,158.2111],[-89.9297,15.8454,154.6038],[-89.9311,15.8397,147.1944],[-89.9406,15.8354,148.9907],[-89.9433,15.8312,149.875],[-89.9413,15.8235,148.6538],[-89.9442,15.8074,161.7119],[-89.9445,15.7937,147.1871],[-89.9554,15.7728,298.6917],[-89.9509,15.7637,174.5674],[-89.9489,15.7522,195.0214],[-89.9549,15.7453,182.3565],[-89.9568,15.73,185.6173],[-89.9557,15.7252,181.6781],[-89.953,15.7222,178.1165],[-89.9249,15.7223,239.7471],[-89.9165,15.7207,270.2914],[-89.9008,15.7223,365.1201],[-89.8871,15.7214,403.6007],[-89.8777,15.7237,387.3044],[-89.8345,15.7217,355.4165],[-89.7748,15.7254,481.1072],[-89.7121,15.7261,211.4597],[-89.6757,15.7406,178.2314],[-89.661,15.7398,171.5338],[-89.6512,15.7513,171.8977],[-89.6461,15.76,173.2308],[-89.6472,15.7638,185.3205],[-89.6444,15.7764,172.0829],[-89.6434,15.7897,177.6962],[-89.6445,15.7941,196.2119],[-89.6381,15.8008,221.0467],[-89.6166,15.7995,175.1435],[-89.6062,15.8066,203.9315],[-89.5923,15.8056,175.1926],[-89.5871,15.8089,181.2612],[-89.5771,15.8076,167.827],[-89.5696,15.8114,194.0582],[-89.567,15.816,204.8288],[-89.5549,15.8211,184.2201],[-89.5468,15.8304,198.7243],[-89.5143,15.8431,165.7884],[-89.5106,15.8474,146.2492],[-89.4973,15.8554,136.8508]]]]}}