{"type": "Feature","bbox": [-89.9672,14.5596,-89.7322,14.8719],"geometry": {"type": "MultiPolygon","coordinates": [[[[-89.9114,14.849,1209.6943],[-89.9249,14.836,1242.9175],[-89.9364,14.8215,1149.9656],[-89.9555,14.8158,1459.155],[-89.9672,14.7982,1579.7484],[-89.9582,14.7957,1835.4955],[-89.9476,14.798,1853.771],[-89.9351,14.7852,1829.5619],[-89.9326,14.7761,1857.1744],[-89.9339,14.756,1765.795],[-89.9305,14.7506,1767.262],[-89.9254,14.7469,1772.2892],[-89.9255,14.731,1812.4282],[-89.9224,14.7234,2016.7487],[-89.9236,14.7166,1990.0254],[-89.9358,14.7001,1928.2329],[-89.9425,14.6951,1775.3384],[-89.9416,14.6834,1464.8514],[-89.9356,14.6727,1315.0082],[-89.9368,14.6698,1434.9156],[-89.9388,14.6688,1434.9156],[-89.9436,14.6729,1361.2834],[-89.9468,14.6743,1318.6821],[-89.9488,14.6734,1422.5255],[-89.9368,14.6508,1430.4014],[-89.9383,14.6472,1363.9547],[-89.9432,14.6434,1544.8881],[-89.9432,14.6347,1495.9385],[-89.9371,14.6284,1372.1134],[-89.9478,14.6169,1474.8104],[-89.9477,14.6131,1493.8143],[-89.9428,14.6075,1363.9644],[-89.9311,14.6099,1225.1066],[-89.925,14.6084,1197.2827],[-89.9213,14.6009,1205.0063],[-89.926,14.5975,1356.499],[-89.9299,14.5969,1384.5173],[-89.926,14.582,1357.2651],[-89.9109,14.5812,1208.1388],[-89.902,14.5762,1087.8312],[-89.8984,14.5772,1157.4844],[-89.9002,14.5836,1184.0645],[-89.8979,14.5878,1152.6589],[-89.8951,14.5893,1197.4496],[-89.8837,14.5911,1219.4663],[-89.8687,14.5905,1138.937],[-89.8651,14.5883,1124.8342],[-89.8576,14.5606,1043.1968],[-89.8558,14.5599,1036.0367],[-89.8504,14.5675,1089.6384],[-89.8453,14.5663,1094.9623],[-89.8381,14.5611,1096.4326],[-89.8289,14.565,1110.1263],[-89.8145,14.5758,1211.2683],[-89.8076,14.5758,1256.2111],[-89.8032,14.5777,1280.2212],[-89.7968,14.5898,1379.4],[-89.7943,14.5889,1382.7345],[-89.791,14.5597,1110.826],[-89.7858,14.5596,1016.265],[-89.7827,14.5673,1056.5352],[-89.7835,14.5738,1105.5964],[-89.7808,14.5769,1127.4535],[-89.7674,14.5709,1128.8669],[-89.7651,14.5722,1076.8608],[-89.7616,14.5815,1140.1874],[-89.7541,14.5859,1054.729],[-89.7574,14.6016,1112.1077],[-89.7611,14.6045,1155.4133],[-89.7616,14.6151,1106.2959],[-89.7643,14.6214,1186.4972],[-89.7721,14.6248,1284.6594],[-89.7761,14.6519,1600.6176],[-89.7756,14.6667,1384.8782],[-89.7729,14.6723,1373.0153],[-89.7623,14.6786,1113.5619],[-89.7609,14.6814,1073.6775],[-89.7507,14.6891,801.1216],[-89.7621,14.6968,1082.3374],[-89.7581,14.7073,954.5021],[-89.7452,14.7167,955.9175],[-89.7475,14.7249,1096.1809],[-89.7322,14.7408,1178.2384],[-89.7757,14.7325,1124.1146],[-89.8211,14.8212,867.7728],[-89.8372,14.8199,629.3622],[-89.8861,14.843,1222.665],[-89.8824,14.8454,1181.2737],[-89.8682,14.8493,868.931],[-89.8608,14.8547,886.2023],[-89.8584,14.8602,989.3662],[-89.8576,14.8679,987.6179],[-89.8633,14.8676,1075.8719],[-89.874,14.8719,1104.6433],[-89.9114,14.849,1209.6943]]]]}
,"properties": {"GID_2": "GTM.10.7_1","GID_0": "GTM","country": "Guatemala","GID_1": "GTM.10_1","province": "Jalapa","NL_NAME_1": "NA","county": "SanPedroPinula","VARNAME_2": "NA","NL_NAME_2": "NA","TYPE_2": "Municipio","ENGTYPE_2": "Municipality","CC_2": "NA","HASC_2": "NA","name": "San_Pedro_Pinula.county","area_km2": 502.2007,"hist_schema_id": "Elevation0-9000","hist_area_km2": {"475": 0.0615,"500": 0.3075,"525": 0.246,"550": 0.4919,"575": 0.7379,"600": 0.7789,"625": 0.6559,"650": 1.0864,"675": 1.1684,"700": 1.1069,"725": 1.2504,"750": 1.4963,"775": 1.4759,"800": 1.7834,"825": 2.2754,"850": 2.6239,"875": 3.4235,"900": 3.7104,"925": 3.936,"950": 4.346,"975": 4.838,"1000": 7.0526,"1025": 9.5133,"1050": 13.6359,"1075": 32.1808,"1100": 43.6481,"1125": 32.2009,"1150": 28.1203,"1175": 25.1053,"1200": 23.1363,"1225": 20.449,"1250": 16.4696,"1275": 17.9262,"1300": 15.9565,"1325": 15.4234,"1350": 14.2335,"1375": 13.1667,"1400": 13.4131,"1425": 10.7671,"1450": 9.0235,"1475": 9.5566,"1500": 9.1466,"1525": 8.7566,"1550": 6.4187,"1575": 6.5211,"1600": 6.234,"1625": 5.5161,"1650": 4.5113,"1675": 3.896,"1700": 3.1781,"1725": 3.8342,"1750": 3.8135,"1775": 4.8591,"1800": 4.7977,"1825": 4.1415,"1850": 4.3466,"1875": 3.8956,"1900": 2.9321,"1925": 2.6245,"1950": 1.4968,"1975": 1.2302,"2000": 0.6561,"2025": 0.4716,"2050": 0.1435}}}