{"type": "Feature","bbox": [-91.3782,14.3089,-91.2359,14.4676],"geometry": {"type": "MultiPolygon","coordinates": [[[[-91.2565,14.3356,121.7185],[-91.2531,14.3474,140.6821],[-91.2488,14.3497,138.2197],[-91.2478,14.3521,146.6755],[-91.2488,14.3575,155.8796],[-91.2411,14.3664,160.4666],[-91.2359,14.3822,197.7934],[-91.2395,14.3948,228.407],[-91.258,14.4063,224.9524],[-91.2783,14.4105,233.5703],[-91.2804,14.4137,238.1501],[-91.2802,14.4184,255.752],[-91.285,14.4262,295.3041],[-91.2854,14.4335,297.2433],[-91.2839,14.4375,326.7022],[-91.2881,14.4445,313.7988],[-91.2885,14.4622,366.0227],[-91.3156,14.4636,325.6841],[-91.3377,14.4676,263.8941],[-91.343,14.4493,243.271],[-91.3487,14.4427,246.0873],[-91.3525,14.4309,163.1296],[-91.3631,14.425,131.294],[-91.367,14.4061,103.8473],[-91.3761,14.3971,120.8108],[-91.3782,14.3839,101.17],[-91.3743,14.3718,78.6431],[-91.3734,14.3745,81.2468],[-91.3645,14.3773,98.4168],[-91.3604,14.3804,104.6839],[-91.3483,14.3814,110.8959],[-91.3312,14.3954,133.2839],[-91.3271,14.3981,145.5403],[-91.3235,14.3985,149.6771],[-91.3233,14.3963,147.2913],[-91.3292,14.39,133.9324],[-91.3348,14.3791,155.5931],[-91.3314,14.3763,139.1831],[-91.3344,14.3724,121.0211],[-91.335,14.366,116.0662],[-91.3397,14.357,107.813],[-91.3403,14.3523,112.358],[-91.3372,14.34,95.33],[-91.3452,14.3266,87.0279],[-91.3423,14.3176,89.2513],[-91.332,14.3224,90.2822],[-91.32,14.3179,87.1017],[-91.2817,14.3089,118.2782],[-91.2798,14.3144,109.0765],[-91.2801,14.3217,125.0481],[-91.276,14.3278,141.3935],[-91.268,14.329,119.3326],[-91.2678,14.3363,125.6918],[-91.2565,14.3356,121.7185]]]]}
,"properties": {"GID_2": "GTM.20.6_1","GID_0": "GTM","country": "Guatemala","GID_1": "GTM.20_1","province": "Suchitepéquez","NL_NAME_1": "NA","county": "RíoBravo","VARNAME_2": "NA","NL_NAME_2": "NA","TYPE_2": "Municipio","ENGTYPE_2": "Municipality","CC_2": "NA","HASC_2": "NA","name": "Río_Bravo.county","area_km2": 152.1197,"hist_schema_id": "Elevation0-9000","hist_area_km2": {"75": 1.3967,"100": 25.3673,"125": 30.2344,"150": 25.8783,"175": 20.0441,"200": 13.9232,"225": 10.6781,"250": 7.5562,"275": 6.4471,"300": 4.3938,"325": 3.9626,"350": 1.9915,"375": 0.2464}}}