{"type": "Feature","bbox": [-91.8442,14.553,-91.6689,14.8319],"geometry": {"type": "MultiPolygon","coordinates": [[[[-91.8065,14.6845,699.1204],[-91.802,14.6821,692.8875],[-91.803,14.6738,671.7623],[-91.8092,14.6705,654.1534],[-91.8132,14.661,600.0227],[-91.8072,14.6526,568.4647],[-91.8005,14.6528,574.119],[-91.7952,14.66,634.6989],[-91.7891,14.6611,648.3102],[-91.7805,14.6757,757.3972],[-91.7781,14.6765,788.8004],[-91.7727,14.6729,769.6603],[-91.7672,14.6717,769.3292],[-91.7665,14.6697,758.2276],[-91.7668,14.6492,655.7513],[-91.7856,14.6338,548.4587],[-91.7865,14.6275,502.3337],[-91.7935,14.6163,416.015],[-91.7958,14.596,349.1994],[-91.8027,14.5824,267.445],[-91.8015,14.5742,233.2616],[-91.8072,14.5659,193.4043],[-91.8052,14.5605,192.4391],[-91.802,14.5576,223.8753],[-91.7854,14.553,166.4145],[-91.7825,14.5652,198.5149],[-91.7878,14.5769,263.5551],[-91.7851,14.5882,329.6875],[-91.7807,14.5948,359.6196],[-91.7571,14.5901,350.5188],[-91.7541,14.604799999999999,425.5276],[-91.7541,14.6087,433.9544],[-91.7561,14.6114,436.1565],[-91.755,14.6322,522.9265],[-91.7505,14.6459,573.5441],[-91.7475,14.6479,530.4933],[-91.7421,14.6568,629.2106],[-91.7347,14.6727,694.3544],[-91.7325,14.6707,740.5045],[-91.7339,14.668,701.2153],[-91.7141,14.6563,652.6801],[-91.7161,14.6647,649.8777],[-91.7129,14.6686,635.6311],[-91.7043,14.69,807.3997],[-91.682,14.7097,953.5929],[-91.6722,14.7107,1157.4092],[-91.6716,14.7153,1216.2101],[-91.6694,14.7157,1121.4351],[-91.6689,14.7195,1128.6544],[-91.6795,14.7333,1408.062],[-91.6818,14.7411,1454.5105],[-91.6844,14.7419,1448.7227],[-91.6919,14.7408,1384.3462],[-91.7024,14.7275,1296.7362],[-91.7278,14.7319,1067.2239],[-91.7255,14.7421,1048.8552],[-91.7163,14.7642,1272.3051],[-91.7201,14.7719,1385.5726],[-91.721,14.7805,1427.8286],[-91.7243,14.7821,1436.2462],[-91.7277,14.7771,1308.3002],[-91.73,14.7764,1295.9103],[-91.7336,14.7854,1357.1848],[-91.7325,14.7912,1418.3892],[-91.7234,14.8122,2088.4663],[-91.723,14.8319,1926.1749],[-91.7413,14.8244,1949.5981],[-91.7464,14.8256,1582.7042],[-91.7569,14.8227,1271.9331],[-91.7609,14.8182,1358.4813],[-91.7684,14.8032,948.2052],[-91.7805,14.7902,946.5899],[-91.7818,14.7846,820.7916],[-91.7782,14.7795,719.7925],[-91.7834,14.7715,695.4813],[-91.7846,14.7679,698.1678],[-91.7837,14.7645,625.0681],[-91.7892,14.7556,717.0675],[-91.7909,14.7421,759.8528],[-91.7936,14.7381,534.2618],[-91.8035,14.7311,624.2046],[-91.8209,14.7305,492.3628],[-91.823,14.7293,534.0168],[-91.8247,14.7229,539.5864],[-91.8314,14.7183,483.6618],[-91.8442,14.7145,503.2234],[-91.833,14.7101,551.7744],[-91.8222,14.7104,593.301],[-91.8085,14.706,665.383],[-91.8093,14.7004,671.8934],[-91.8142,14.6952,687.9102],[-91.8105,14.6942,693.7444],[-91.8034,14.6881,712.7753],[-91.8065,14.6845,699.1204]]]]}
,"properties": {"GID_2": "GTM.13.6_1","GID_0": "GTM","country": "Guatemala","GID_1": "GTM.13_1","province": "Quezaltenango","NL_NAME_1": "NA","county": "Colomba","VARNAME_2": "NA","NL_NAME_2": "NA","TYPE_2": "Municipio","ENGTYPE_2": "Municipality","CC_2": "NA","HASC_2": "NA","name": "Colomba.county","area_km2": 196.3177,"hist_schema_id": "Elevation0-9000","hist_area_km2": {"150": 0.1231,"175": 0.3694,"200": 1.1081,"225": 1.8263,"250": 1.9084,"275": 1.3132,"300": 0.7387,"325": 0.9438,"350": 1.149,"375": 2.1954,"400": 2.8519,"425": 2.6877,"450": 2.3183,"475": 2.3592,"500": 2.1745,"525": 2.3386,"550": 2.1332,"575": 2.6048,"600": 3.3227,"625": 4.2251,"650": 4.184,"675": 4.5531,"700": 5.3529,"725": 6.5219,"750": 5.7426,"775": 6.2142,"800": 6.6037,"825": 5.7627,"850": 5.9676,"875": 5.8241,"900": 5.9881,"925": 6.6852,"950": 7.444,"975": 6.8902,"1000": 6.3978,"1025": 5.7824,"1050": 5.926,"1075": 6.5616,"1100": 4.675,"1125": 3.4651,"1150": 3.465,"1175": 3.711,"1200": 3.7724,"1225": 3.3624,"1250": 2.7882,"1275": 2.9317,"1300": 3.0137,"1325": 2.1937,"1350": 2.1117,"1375": 1.7016,"1400": 1.6812,"1425": 1.0661,"1450": 0.697,"1475": 0.5945,"1500": 0.3895,"1525": 0.3485,"1550": 0.2665,"1575": 0.2665,"1600": 0.1435,"1625": 0.205,"1650": 0.3895,"1675": 0.246,"1700": 0.2665,"1725": 0.3485,"1750": 0.3075,"1775": 0.2665,"1800": 0.2255,"1825": 0.41,"1850": 0.2255,"1875": 0.205,"1900": 0.3485,"1925": 0.328,"1950": 0.3484,"1975": 0.246,"2000": 0.287,"2025": 0.2255,"2050": 0.1845,"2075": 0.164,"2100": 0.1845,"2125": 0.2665,"2150": 0.082,"2175": 0.2255,"2200": 0.082,"2225": 0.123,"2250": 0.1025,"2275": 0.0615,"2300": 0.0615,"2325": 0.041,"2350": 0.082,"2375": 0.0205,"2425": 0.0205}}}