{"type":"Feature","properties":{"GID_2":"GTM.13.9_1","GID_0":"GTM","country":"Guatemala","GID_1":"GTM.13_1","province":"Quezaltenango","NL_NAME_1":"NA","county":"FloresCostaCuca","VARNAME_2":"NA","NL_NAME_2":"NA","TYPE_2":"Municipio","ENGTYPE_2":"Municipality","CC_2":"NA","HASC_2":"NA","name":"Flores_Costa_Cuca.county"},
"geometry":{"type": "MultiPolygon","coordinates": [[[[-91.8783,14.5661,104.5159],[-91.8745,14.5692,109.8182],[-91.8748,14.5749,129.8927],[-91.8672,14.5884,163.5045],[-91.8587,14.5963,224.1858],[-91.8556,14.6079,259.5301],[-91.8488,14.6144,299.7511],[-91.8331,14.6352,422.0631],[-91.8324,14.641,430.3605],[-91.8231,14.6469,491.4344],[-91.8193,14.6515,537.4315],[-91.8092,14.6705,654.1534],[-91.8033,14.6728,661.0984],[-91.802,14.6821,692.8875],[-91.8065,14.6845,699.1204],[-91.8212,14.6746,599.1899],[-91.828,14.676,589.4116],[-91.8355,14.6802,566.527],[-91.8546,14.6758,460.905],[-91.8551,14.6741,444.3739],[-91.8607,14.6723,430.0978],[-91.8621,14.6694,396.9697],[-91.8728,14.6654,353.7387],[-91.8787,14.6564,291.96],[-91.8831,14.6545,277.3422],[-91.893,14.6587,308.2685],[-91.8948,14.6567,292.0621],[-91.8936,14.6479,237.2888],[-91.8851,14.6356,242.8661],[-91.8848,14.6298,245.8309],[-91.913,14.6035,128.7826],[-91.9166,14.6038,125.3711],[-91.9208,14.6005,117.8536],[-91.908,14.5934,121.2827],[-91.9102,14.583,85.0075],[-91.9151,14.5807,88.7917],[-91.9085,14.577,86.1397],[-91.8881,14.5708,114.7476],[-91.8783,14.5661,104.5159]]]]}}