{"type": "Feature","id": "1963","bbox": [-89.878,14.77987,-89.14694,15.30289],"geometry": {"type": "Polygon","coordinates": [[[-89.14694,15.07128,602.038],[-89.14747,15.07169,602.038],[-89.15019,15.07376,572.2968],[-89.15742,15.07686,437.754],[-89.16179,15.07986,433.6278],[-89.18124,15.10259,406.9928],[-89.18321,15.10817,349.6742],[-89.18915,15.13639,332.7274],[-89.19065,15.1521,187.7784],[-89.19003,15.16171,173.9066],[-89.19039,15.16791,196.2842],[-89.19819,15.19969,176.9305],[-89.1983,15.20633,286.7056],[-89.19721,15.21039,214.7084],[-89.18468,15.21525,186.5304],[-89.18057,15.21801,136.2898],[-89.17879,15.21959,97.1567],[-89.17711,15.2216,86.3668],[-89.17463,15.22607,88.6629],[-89.17375,15.22832,88.6189],[-89.17259,15.23483,95.3298],[-89.17037,15.25987,170.9184],[-89.17083,15.26625,368.5978],[-89.17161,15.26904,631.7092],[-89.17321,15.27217,466.2514],[-89.17556,15.27561,383.6187],[-89.18052,15.28077,515.7964],[-89.18372,15.28349,645.7032],[-89.18659,15.28535,715.3618],[-89.20987,15.29762,250.1019],[-89.21987,15.29994,377.7961],[-89.25052,15.30289,761.4184],[-89.27372,15.29803,742.4661],[-89.28819,15.29106,890.1329],[-89.31428,15.27212,1142.2195],[-89.43131,15.22638,1336.0284],[-89.5498,15.18776,1524.1426],[-89.56466,15.18455,2222.0483],[-89.60551,15.1799,1934.2354],[-89.67468,15.16429,1872.0878],[-89.70661,15.16636,2218.0425],[-89.77025,15.15696,2122.4829],[-89.78203,15.15933,2417.1821],[-89.81704,15.17236,2656.2349],[-89.84012,15.17318,2330.186],[-89.85053,15.17174,2376.438],[-89.878,15.15985,2137.6646],[-89.84105,15.10848,1506.001],[-89.79655,15.04327,1377.1361],[-89.79557,15.02983,942.9492],[-89.84394,15.02885,1394.8002],[-89.8487,15.02823,1305.0911],[-89.85273,15.02668,1156.7471],[-89.8518,15.02275,1131.1357],[-89.84908,15.018,948.5863],[-89.80511,14.95924,245.1276],[-89.79712,14.94824,221.6376],[-89.78493,14.94198,211.5402],[-89.77211,14.94023,206.7399],[-89.76705,14.93723,207.1921],[-89.76457,14.93402,223.8975],[-89.76669,14.91428,343.0441],[-89.76868,14.90953,347.4255],[-89.77268,14.90788,370.6492],[-89.77756,14.90705,474.4308],[-89.79901,14.90643,480.6751],[-89.81159,14.90105,472.7421],[-89.83399,14.87651,654.0107],[-89.84172,14.85982,752.5922],[-89.83885,14.8562,607.3748],[-89.83291,14.84597,642.6796],[-89.82363,14.8332,681.6025],[-89.80769,14.80359,836.0662],[-89.79945,14.79217,950.2644],[-89.79366,14.78571,931.7373],[-89.79043,14.7853,826.3641],[-89.76364,14.7853,828.0539],[-89.74772,14.78292,893.0869],[-89.73635,14.77987,897.1613],[-89.71268,14.82137,1353.1984],[-89.70863,14.8378,706.3146],[-89.7117,14.86225,789.917],[-89.71036,14.86726,892.4408],[-89.68752,14.88824,757.8361],[-89.67041,14.90105,805.9794],[-89.65866,14.89961,940.5522],[-89.62468,14.88266,729.7766],[-89.59259,14.86746,838.4527],[-89.57786,14.86416,774.0098],[-89.52432,14.86318,436.3668],[-89.5091,14.86674,517.4213],[-89.44867,14.91382,1065.3955],[-89.42934,14.91924,1283.738],[-89.42107,14.91904,1472.198],[-89.39916,14.91258,1325.4897],[-89.38539,14.90348,1559.4395],[-89.36911,14.90348,1158.907],[-89.31976,14.91966,974.0732],[-89.30413,14.9149,1584.9153],[-89.3001,14.90979,1355.1257],[-89.29369,14.9055,1058.1406],[-89.28617,14.90581,1060.0621],[-89.27429,14.90963,1211.2722],[-89.26816,14.91449,1186.6948],[-89.26351,14.91961,1077.6169],[-89.25834,14.9272,996.8264],[-89.25424,14.93098,952.8599],[-89.24754,14.93547,843.7621],[-89.22545,14.94643,823.7949],[-89.21786,14.94855,791.3916],[-89.21259,14.94932,848.5024],[-89.21003,14.94824,929.1669],[-89.20812,14.94694,993.6664],[-89.20633,14.94534,1011.8987],[-89.20473,14.94353,1049.5278],[-89.20318,14.94141,1072.2906],[-89.19936,14.93454,1000.9778],[-89.19644,14.92751,1045.9871],[-89.19512,14.92524,1071.6963],[-89.19411,14.92297,1053.5173],[-89.19272,14.92069,1029.5223],[-89.18956,14.91382,1054.7284],[-89.18921,14.91306,1027.1895],[-89.18153,14.92366,1169.5334],[-89.16915,14.95206,1020.1704],[-89.1691,14.97842,1135.0198],[-89.18858,14.99609,1020.8768],[-89.17277,15.04221,923.9493],[-89.16081,15.06024,578.0898],[-89.14694,15.07128,602.038]]]}
,"properties": {"ISO3166-1-Alpha-3": "GTM","country": "Guatemala","fill": "#F00","name": "Zacapa","area_km2": 2587.359,"hist_schema_id": "Elevation0-9000","hist_area_km2": {"75": 1.227,"100": 21.319,"125": 33.95,"150": 50.512,"175": 91.056,"200": 144.908,"225": 129.46,"250": 91.289,"275": 66.631,"300": 53.095,"325": 49.982,"350": 46.973,"375": 48.16,"400": 45.969,"425": 48.222,"450": 46.114,"475": 48.817,"500": 48.265,"525": 47.712,"550": 48.962,"575": 48.922,"600": 51.974,"625": 52.423,"650": 48.554,"675": 46.547,"700": 46.179,"725": 45.502,"750": 43.229,"775": 42.923,"800": 43.639,"825": 41.939,"850": 41.776,"875": 41.222,"900": 38.375,"925": 37.618,"950": 34.854,"975": 33.154,"1000": 31.27,"1025": 28.054,"1050": 26.293,"1075": 23.22,"1100": 20.496,"1125": 17.157,"1150": 17.199,"1175": 15.826,"1200": 15.396,"1225": 14.863,"1250": 15.375,"1275": 15.007,"1300": 13.798,"1325": 13.205,"1350": 13.654,"1375": 14.371,"1400": 14.555,"1425": 12.999,"1450": 14.042,"1475": 12.752,"1500": 13.223,"1525": 12.773,"1550": 12.937,"1575": 12.772,"1600": 12.691,"1625": 11.523,"1650": 10.684,"1675": 11.175,"1700": 10.274,"1725": 10.52,"1750": 10.09,"1775": 9.067,"1800": 8.351,"1825": 9.026,"1850": 7.675,"1875": 7.941,"1900": 7.962,"1925": 8.166,"1950": 7.798,"1975": 7.798,"2000": 7.613,"2025": 7.388,"2050": 7.982,"2075": 7.839,"2100": 6.897,"2125": 8.002,"2150": 7.184,"2175": 7.04,"2200": 6.426,"2225": 6.774,"2250": 5.587,"2275": 4.994,"2300": 4.359,"2325": 4.359,"2350": 3.622,"2375": 3.315,"2400": 3.234,"2425": 2.865,"2450": 2.62,"2475": 2.824,"2500": 2.19,"2525": 1.944,"2550": 1.596,"2575": 1.903,"2600": 1.821,"2625": 1.76,"2650": 1.289,"2675": 1.392,"2700": 1.494,"2725": 1.453,"2750": 1.31,"2775": 0.88,"2800": 1.146,"2825": 0.778,"2850": 0.634,"2875": 0.614,"2900": 0.389,"2925": 0.164,"2950": 0.143,"2975": 0.082,"3000": 0.02}}}