{"type": "Feature","bbox": [-89.893,14.7325,-89.1477,15.2991],"geometry": {"type": "MultiPolygon","coordinates": [[[[-89.7037,14.7519,1169.4302],[-89.7012,14.7741,1328.9764],[-89.6967,14.7804,1489.5681],[-89.7078,14.8169,1242.1147],[-89.7005,14.8432,887.7205],[-89.6614,14.875,1399.5171],[-89.6465,14.8718,805.4249],[-89.626,14.8642,954.7914],[-89.5072,14.8633,554.9075],[-89.502,14.8573,679.8878],[-89.497,14.8593,704.0149],[-89.4935,14.8646,578.1918],[-89.4844,14.891,699.7838],[-89.4327,14.9027,1510.8127],[-89.4223,14.91,1321.3352],[-89.3744,14.8951,1492.9552],[-89.3456,14.9026,1317.7495],[-89.3147,14.9143,1117.8176],[-89.279,14.8965,929.4219],[-89.2538,14.9008,1062.4165],[-89.2179,14.9524,850.9832],[-89.2142,14.9505,873.8571],[-89.1958,14.9509,1021.9658],[-89.1826,14.9371,1052.7705],[-89.1726,14.9216,959.3378],[-89.1667,14.932,970.7561],[-89.1666,14.9352,984.3206],[-89.1695,14.9391,930.3754],[-89.1691,14.9422,1036.8752],[-89.1607,14.9474,934.96],[-89.156,14.9697,999.8535],[-89.1577,14.9715,997.6944],[-89.1516,14.9794,941.5598],[-89.1517,14.9846,1023.7345],[-89.1618,14.9866,1209.1072],[-89.1632,14.9929,1075.4358],[-89.1732,14.9961,1175.713],[-89.1733,15.0,1061.8159],[-89.1765,15.005,1028.3724],[-89.1805,15.0048,1080.3145],[-89.1785,15.014,957.2308],[-89.1718,15.0208,975.4331],[-89.1702,15.0341,839.1125],[-89.1585,15.0529,529.8819],[-89.1544,15.0653,426.0821],[-89.1477,15.0697,621.4858],[-89.1564,15.0764,519.7113],[-89.1589,15.0803,476.6645],[-89.1628,15.0798,433.6278],[-89.1633,15.0834,508.4327],[-89.1699,15.0885,545.2271],[-89.1742,15.0997,523.9933],[-89.1813,15.1076,402.4319],[-89.1747,15.1159,289.4083],[-89.1733,15.1274,405.0121],[-89.1752,15.1297,445.0454],[-89.1746,15.1334,532.7686],[-89.1776,15.1353,354.4658],[-89.1749,15.1381,345.9618],[-89.1778,15.1455,297.3105],[-89.1859,15.1502,217.5205],[-89.1858,15.1581,188.097],[-89.1879,15.1594,183.0522],[-89.1893,15.168,196.4881],[-89.1936,15.1687,190.1884],[-89.1916,15.1755,225.7723],[-89.1965,15.1776,207.7406],[-89.1959,15.1797,207.7443],[-89.2084,15.1799,158.0025],[-89.2138,15.1842,110.0484],[-89.2041,15.1921,103.2369],[-89.1743,15.2059,104.2684],[-89.1701,15.2114,83.6237],[-89.1724,15.2696,631.7092],[-89.18,15.27,629.0696],[-89.1833,15.272,672.5642],[-89.1842,15.2818,601.5813],[-89.1871,15.2834,689.5095],[-89.1997,15.2778,700.6981],[-89.2135,15.2749,710.1196],[-89.2173,15.2802,439.196],[-89.2185,15.287,421.1176],[-89.2221,15.2921,281.9246],[-89.2281,15.2965,354.0994],[-89.2325,15.2963,324.1799],[-89.2444,15.2836,661.9464],[-89.2484,15.2842,735.0401],[-89.25,15.2883,810.6207],[-89.2481,15.2976,773.0639],[-89.2543,15.2991,767.0629],[-89.2623,15.2918,667.6015],[-89.2722,15.2936,812.2362],[-89.2945,15.2918,944.8735],[-89.2983,15.2866,897.8541],[-89.3038,15.2739,1064.371],[-89.3062,15.2728,1159.2632],[-89.3109,15.2737,1109.2449],[-89.321,15.2721,1087.2489],[-89.3311,15.2785,1070.3207],[-89.3399,15.2751,1296.3038],[-89.3564,15.2772,1069.8495],[-89.3645,15.2725,942.7521],[-89.3757,15.2687,938.652],[-89.3808,15.2625,986.4315],[-89.3901,15.244,1269.715],[-89.3912,15.2378,1212.5054],[-89.3936,15.2359,1322.8071],[-89.3965,15.2394,1301.2753],[-89.408,15.2222,1319.3618],[-89.4176,15.2163,1830.4553],[-89.4652,15.1962,1816.5408],[-89.5025,15.1844,1881.7196],[-89.5155,15.1768,1860.7883],[-89.5361,15.1735,1824.6672],[-89.55,15.1755,1895.6031],[-89.5587,15.1827,1993.3823],[-89.562,15.1823,2134.2051],[-89.5655,15.1763,2079.8459],[-89.611,15.1589,2447.1523],[-89.6222,15.1566,2515.0681],[-89.6313,15.1614,2200.4404],[-89.6661,15.1485,2168.3181],[-89.6676,15.1449,2181.2517],[-89.6643,15.1385,1993.2319],[-89.6648,15.1301,1973.2942],[-89.6626,15.1225,1916.2114],[-89.6661,15.1197,2097.335],[-89.6776,15.1223,2092.0432],[-89.6869,15.1377,2173.48],[-89.6894,15.139099999999999,2262.0994],[-89.7041,15.1382,2441.1665],[-89.7145,15.1479,2320.9561],[-89.7223,15.1517,2704.2166],[-89.7331,15.1468,2746.7588],[-89.7462,15.1446,2754.2629],[-89.7521,15.1479,2576.2781],[-89.7665,15.1493,2473.7419],[-89.7775,15.1699,2270.4097],[-89.7843,15.1714,2520.3357],[-89.7938,15.1702,2706.7161],[-89.8033,15.1658,2732.0461],[-89.8113,15.1719,2623.8264],[-89.8192,15.1722,2647.3516],[-89.8351,15.1619,2755.1445],[-89.844,15.1639,2730.6477],[-89.8613,15.1605,2788.8948],[-89.8662,15.1474,2190.6692],[-89.8841,15.1481,2363.6255],[-89.8874,15.1521,2009.6187],[-89.8909,15.1499,2365.9658],[-89.8903,15.1441,2258.9321],[-89.893,15.1403,2451.4644],[-89.8289,15.0656,2366.0938],[-89.8097,15.0488,2076.2354],[-89.7806,15.0122,886.4231],[-89.8267,15.0124,848.8935],[-89.8652,15.0216,899.8592],[-89.8198,14.9371,223.4729],[-89.816,14.9322,222.4655],[-89.8107,14.9313,258.6172],[-89.8059,14.9224,271.4436],[-89.8081,14.9114,385.4809],[-89.8125,14.903,432.1779],[-89.8398,14.8848,699.8649],[-89.8451,14.8731,843.5756],[-89.8508,14.869,885.7464],[-89.8576,14.8679,987.6179],[-89.8584,14.8602,989.3662],[-89.8608,14.8547,886.2023],[-89.8682,14.8493,868.931],[-89.8824,14.8454,1181.2737],[-89.8861,14.843,1222.665],[-89.8372,14.8199,629.3622],[-89.8211,14.8212,867.7728],[-89.7757,14.7325,1124.1146],[-89.7322,14.7408,1178.2384],[-89.7267,14.7402,1135.6016],[-89.7037,14.7519,1169.4302]]]]}
,"properties": {"GID_1": "GTM.22_1","GID_0": "GTM","country": "Guatemala","province": "Zacapa","VARNAME_1": "NA","NL_NAME_1": "NA","TYPE_1": "Departamento","ENGTYPE_1": "Department","CC_1": "NA","HASC_1": "GT.ZA","ISO_1": "GT-19","name": "Zacapa.province","area_km2": 2729.127,"hist_schema_id": "Elevation0-9000","hist_area_km2": {"75": 2.312,"100": 22.445,"125": 34.175,"150": 50.778,"175": 90.851,"200": 147.202,"225": 136.834,"250": 98.212,"275": 71.464,"300": 56.516,"325": 52.728,"350": 49.186,"375": 50.251,"400": 47.629,"425": 50.333,"450": 47.713,"475": 50.13,"500": 49.802,"525": 49.065,"550": 50.028,"575": 50.07,"600": 53.143,"625": 53.428,"650": 50.174,"675": 49.151,"700": 49.192,"725": 49.418,"750": 47.268,"775": 47.432,"800": 48.497,"825": 47.678,"850": 49.563,"875": 49.767,"900": 46.183,"925": 45.651,"950": 42.661,"975": 40.797,"1000": 38.093,"1025": 34.018,"1050": 31.355,"1075": 28.118,"1100": 25.783,"1125": 21.605,"1150": 22.198,"1175": 20.129,"1200": 19.597,"1225": 17.876,"1250": 18.286,"1275": 16.729,"1300": 15.275,"1325": 14.169,"1350": 14.312,"1375": 14.414,"1400": 14.516,"1425": 12.98,"1450": 13.593,"1475": 12.119,"1500": 12.303,"1525": 11.648,"1550": 11.689,"1575": 11.545,"1600": 11.648,"1625": 10.664,"1650": 10.398,"1675": 10.009,"1700": 9.722,"1725": 9.845,"1750": 9.395,"1775": 8.617,"1800": 7.696,"1825": 8.433,"1850": 7.266,"1875": 7.41,"1900": 7.491,"1925": 7.368,"1950": 6.979,"1975": 6.816,"2000": 6.672,"2025": 6.324,"2050": 6.386,"2075": 6.631,"2100": 5.895,"2125": 6.079,"2150": 5.792,"2175": 5.731,"2200": 5.117,"2225": 5.485,"2250": 4.564,"2275": 4.093,"2300": 3.5,"2325": 3.725,"2350": 3.152,"2375": 3.131,"2400": 2.906,"2425": 2.661,"2450": 2.047,"2475": 2.231,"2500": 1.658,"2525": 1.392,"2550": 1.31,"2575": 1.555,"2600": 1.596,"2625": 1.474,"2650": 1.105,"2675": 1.187,"2700": 1.126,"2725": 1.167,"2750": 0.798,"2775": 0.471,"2800": 0.778,"2825": 0.43,"2850": 0.409,"2875": 0.43,"2900": 0.143,"2925": 0.102,"2950": 0.041}}}