{"type": "Feature","bbox": [-90.7307,14.8836,-90.6151,14.9659],"geometry": {"type": "MultiPolygon","coordinates": [[[[-90.6602,14.9659,1312.1833],[-90.6894,14.9631,1823.1481],[-90.7007,14.9574,1757.7344],[-90.7234,14.9404,1104.9844],[-90.7297,14.9297,1235.6967],[-90.7307,14.9149,879.0208],[-90.7265,14.918,959.7264],[-90.7235,14.9163,891.6984],[-90.721,14.9177,885.924],[-90.7144,14.9165,952.2974],[-90.7114,14.9133,928.023],[-90.7049,14.9114,824.1188],[-90.7021,14.9088,844.5204],[-90.6974,14.9128,958.6554],[-90.6939,14.9093,769.793],[-90.6919,14.9113,837.1965],[-90.6808,14.9053,760.8476],[-90.6777,14.9016,775.72],[-90.6607,14.8903,701.2495],[-90.6496,14.8865,693.0349],[-90.6446,14.8928,801.0952],[-90.6367,14.893,820.8892],[-90.635,14.889099999999999,677.9962],[-90.6298,14.8919,861.6992],[-90.6292,14.8889,799.2715],[-90.6238,14.8836,732.0764],[-90.6183,14.898,745.1999],[-90.6151,14.9015,849.8083],[-90.6166,14.9151,1125.7681],[-90.63,14.9199,1228.8169],[-90.6366,14.9249,1227.4353],[-90.6355,14.9303,1223.074],[-90.6409,14.9382,1184.3701],[-90.6421,14.9465,1207.6757],[-90.6461,14.9526,1231.0283],[-90.6556,14.9557,1315.9353],[-90.6602,14.9632,1334.186],[-90.6602,14.9659,1312.1833]]]]}
,"properties": {"GID_2": "GTM.14.11_1","GID_0": "GTM","country": "Guatemala","GID_1": "GTM.14_1","province": "Quiché","NL_NAME_1": "NA","county": "Pachalúm","VARNAME_2": "NA","NL_NAME_2": "NA","TYPE_2": "Municipio","ENGTYPE_2": "Municipality","CC_2": "NA","HASC_2": "NA","name": "Pachalúm.county","area_km2": 64.10324,"hist_schema_id": "Elevation0-9000","hist_area_km2": {"650": 0.02049,"675": 0.14343,"700": 0.2049,"725": 0.49176,"750": 0.38931,"775": 0.55322,"800": 0.88105,"825": 1.29083,"850": 1.14739,"875": 1.59815,"900": 1.53665,"925": 1.57764,"950": 1.63906,"975": 1.55709,"1000": 1.63906,"1025": 1.8849,"1050": 1.86441,"1075": 1.70047,"1100": 2.31509,"1125": 2.15118,"1150": 2.33557,"1175": 3.01161,"1200": 4.19981,"1225": 4.75291,"1250": 4.26116,"1275": 2.23296,"1300": 2.21247,"1325": 2.41731,"1350": 1.78223,"1375": 1.39299,"1400": 1.29055,"1425": 0.94231,"1450": 0.96278,"1475": 0.81939,"1500": 0.59405,"1525": 0.73744,"1550": 0.6555,"1575": 0.57356,"1600": 0.43017,"1625": 0.63501,"1650": 0.67597,"1675": 0.38919,"1700": 0.40968,"1725": 0.38919,"1750": 0.28677,"1775": 0.34822,"1800": 0.18435,"1825": 0.18435,"1850": 0.18435,"1875": 0.10242,"1900": 0.08193,"1925": 0.04097}}}