{"type": "Feature","bbox": [-89.4873,15.5785,-88.7474,15.92],"geometry": {"type": "MultiPolygon","coordinates": [[[[-89.2226,15.9019,127.3137],[-89.2273,15.8984,8.297],[-89.2291,15.9057,77.6424],[-89.2441,15.9151,8.6738],[-89.253,15.9137,73.3052],[-89.2627,15.917,25.6489],[-89.2699,15.913,22.0071],[-89.2819,15.9133,18.8681],[-89.287,15.9117,22.4295],[-89.2945,15.9146,23.7685],[-89.31,15.9147,81.9847],[-89.3144,15.9166,57.1578],[-89.322,15.9125,86.8516],[-89.329,15.9131,74.0341],[-89.3353,15.9173,78.3146],[-89.3641,15.9145,110.1922],[-89.3724,15.9035,111.9059],[-89.3759,15.887,87.7157],[-89.3784,15.8822,86.8735],[-89.3857,15.8795,84.4631],[-89.3832,15.8768,88.1783],[-89.3778,15.8756,88.6591],[-89.3773,15.8727,84.4625],[-89.3879,15.8709,82.88],[-89.3854,15.8662,88.1207],[-89.3899,15.8605,83.9179],[-89.395,15.8657,85.1115],[-89.3984,15.8648,93.6469],[-89.4076,15.8491,91.3901],[-89.4102,15.8509,87.895],[-89.4129,15.8497,86.5254],[-89.4172,15.8387,90.0101],[-89.4132,15.835,88.2357],[-89.4145,15.8332,88.6679],[-89.4233,15.8311,93.796],[-89.4258,15.8248,89.6851],[-89.4313,15.8253,89.0334],[-89.434,15.8213,91.8432],[-89.4422,15.8167,89.9449],[-89.451,15.8184,129.9708],[-89.4633,15.8128,175.8559],[-89.4644,15.8149,114.9063],[-89.4671,15.8155,123.8776],[-89.47,15.8134,112.6555],[-89.473,15.8154,124.4371],[-89.4757,15.8146,118.2246],[-89.4774,15.8076,136.7826],[-89.4732,15.8057,139.052],[-89.476,15.7984,164.3858],[-89.4725,15.7904,225.2609],[-89.4741,15.7859,142.6671],[-89.4778,15.7844,129.9917],[-89.4827,15.7541,265.9594],[-89.4873,15.7365,242.5414],[-89.4873,15.7201,338.1139],[-89.4827,15.7089,397.5595],[-89.4757,15.6977,426.0961],[-89.4493,15.6648,727.308],[-89.4495,15.6599,728.5352],[-89.4438,15.6655,597.2015],[-89.4289,15.6676,376.8372],[-89.3921,15.6652,878.7775],[-89.3657,15.6663,483.331],[-89.3272,15.6636,783.207],[-89.1523,15.6621,307.5887],[-89.1532,15.6582,326.8932],[-89.1472,15.6558,173.5273],[-89.1462,15.6513,211.6073],[-89.1315,15.6377,94.3471],[-89.1314,15.6348,80.1825],[-89.1003,15.5844,2.5503999999999998],[-89.0983,15.5785,2.0804],[-89.0795,15.5825,0.0],[-89.0762,15.587,0.0],[-89.0667,15.5868,0.0],[-89.0646,15.5889,0.0],[-89.0627,15.5878,0.0],[-89.0614,15.5954,0.0],[-89.0584,15.5958,0.0],[-89.0549,15.6016,0.0],[-89.0522,15.6029,0.0],[-89.0512,15.6061,0.0],[-89.0478,15.6089,0.0],[-89.0497,15.6108,0.0],[-89.0489,15.6122,0.0],[-89.0415,15.6186,1.3198],[-89.0352,15.6154,0.0],[-89.031,15.6165,0.0],[-89.0223,15.6231,0.0],[-89.0225,15.6257,0.0],[-89.007,15.626,0.0],[-89.0017,15.6272,0.0],[-88.9983,15.6299,0.0],[-88.9912,15.6366,0.0],[-89.0008,15.641,0.0],[-88.9972,15.6507,2.8575],[-88.9961,15.6578,0.0],[-88.9982,15.6593,0.0],[-88.9955,15.6666,0.0],[-88.9824,15.6741,0.0],[-88.9822,15.6725,0.0],[-88.9697,15.6771,0.0],[-88.9659,15.6754,0.0],[-88.9636,15.6793,4.3362],[-88.9607,15.6766,0.0],[-88.955,15.6819,0.0],[-88.9485,15.6838,0.0],[-88.9379,15.6956,0.0],[-88.941,15.6963,0.0],[-88.9465,15.7096,0.0],[-88.9359,15.7165,0.0],[-88.9401,15.7174,11.6914],[-88.9363,15.7204,12.637],[-88.9346,15.7166,0.0],[-88.9302,15.7172,0.0],[-88.9269,15.7205,0.8662],[-88.9201,15.7229,0.0],[-88.9241,15.7316,0.0],[-88.9174,15.7325,5.2598],[-88.9141,15.731,0.0],[-88.9088,15.7325,12.106],[-88.906,15.7298,0.0],[-88.9012,15.7336,0.0],[-88.8982,15.7394,0.0],[-88.8925,15.7404,0.0],[-88.8741,15.7533,13.7868],[-88.8739,15.749,4.8732],[-88.8854,15.7413,0.0],[-88.8829,15.7399,0.0],[-88.8714,15.7472,0.0],[-88.866,15.7554,0.0],[-88.8655,15.758,0.0],[-88.8687,15.7598,0.0],[-88.8612,15.7701,0.0],[-88.8573,15.7725,0.0],[-88.8609,15.7756,0.0],[-88.8585,15.7776,0.0],[-88.8598,15.7813,0.0],[-88.8472,15.7851,1.4721],[-88.8467,15.7873,3.8049],[-88.8411,15.7863,0.0],[-88.8305,15.7897,0.0],[-88.8243,15.7886,33.0112],[-88.8215,15.7841,35.1307],[-88.8102,15.7763,38.8905],[-88.8067,15.7764,2.6478],[-88.800299999999993,15.782,0.0],[-88.7869,15.7845,19.9723],[-88.7813,15.7847,56.5143],[-88.776,15.7802,38.3404],[-88.7729,15.7897,5.114],[-88.7806,15.799,0.0],[-88.7798,15.8032,22.0886],[-88.7627,15.8059,8.3396],[-88.7551,15.8146,0.0],[-88.7551,15.8168,0.0],[-88.749,15.8221,0.0],[-88.7474,15.826,7.7115],[-88.7479,15.8304,1.6458],[-88.7776,15.8476,1.8658],[-88.7957,15.8613,3.1277],[-88.8165,15.8654,29.0777],[-88.8218,15.871,2.5584],[-88.8243,15.871,4.5767],[-88.8279,15.8737,6.4837],[-88.8371,15.8646,0.8715],[-88.8526,15.8665,6.3289],[-88.8621,15.8607,0.0],[-88.869,15.8612,2.2808],[-88.8729,15.864,0.0],[-88.8771,15.861,2.2712],[-88.8807,15.861,2.8683],[-88.8943,15.8754,16.9436],[-88.9126,15.9042,0.0],[-88.9242,15.8982,14.3691],[-88.94,15.8934,13.648],[-88.9498,15.8927,12.5741],[-88.9685,15.8969,13.1693],[-88.985,15.8985,10.9043],[-88.9975,15.9049,13.7291],[-89.0011,15.9046,15.4293],[-89.0122,15.8985,10.0589],[-89.0164,15.8988,5.3968],[-89.0199,15.9079,15.097],[-89.0238,15.9112,8.7449],[-89.0338,15.915,5.7164],[-89.0424,15.914,5.8615],[-89.0477,15.907,8.2663],[-89.0517,15.9184,18.2722],[-89.0543,15.92,14.4346],[-89.0569,15.9192,9.7128],[-89.0586,15.9163,10.7165],[-89.0574,15.9117,16.9147],[-89.059,15.9076,9.7627],[-89.0585,15.9032,17.9991],[-89.063,15.9056,8.9251],[-89.0628,15.9004,19.0312],[-89.0659,15.9013,4.1096],[-89.0738,15.91,2.7443],[-89.0744,15.9004,17.7428],[-89.0773,15.9001,2.0843],[-89.0783,15.902,3.9497],[-89.0786,15.8976,3.0697],[-89.0814,15.8973,6.509],[-89.0883,15.9099,3.2054],[-89.0928,15.9122,13.426],[-89.102,15.9119,5.4264],[-89.1109,15.9089,9.1468],[-89.1084,15.9031,1.0355],[-89.1091,15.9013,2.8151],[-89.1131,15.9022,4.4378],[-89.113,15.8986,2.291],[-89.1196,15.9017,10.6753],[-89.1269,15.9006,4.7336],[-89.1341,15.9068,2.586],[-89.1443,15.8989,2.4486],[-89.1502,15.8972,4.6262],[-89.1606,15.9011,10.3341],[-89.1731,15.9118,1.7677],[-89.1776,15.9129,2.2099],[-89.1804,15.9121,6.191],[-89.1824,15.9036,4.9009],[-89.1901,15.9035,3.3001],[-89.213,15.8952,2.8421],[-89.2181,15.8976,140.4482],[-89.2191,15.9024,41.291],[-89.2226,15.9019,127.3137]]]]}
,"properties": {"GID_2": "GTM.9.2_1","GID_0": "GTM","country": "Guatemala","GID_1": "GTM.9_1","province": "Izabal","NL_NAME_1": "NA","county": "Livingston","VARNAME_2": "NA","NL_NAME_2": "NA","TYPE_2": "Municipio","ENGTYPE_2": "Municipality","CC_2": "NA","HASC_2": "NA","name": "Livingston.county","area_km2": 1779.663,"hist_schema_id": "Elevation0-9000","hist_area_km2": {"0": 237.109,"25": 312.06,"50": 180.44,"75": 144.893,"100": 104.801,"125": 74.566,"150": 80.303,"175": 54.841,"200": 41.986,"225": 36.357,"250": 33.99,"275": 33.153,"300": 36.214,"325": 38.706,"350": 38.035,"375": 32.487,"400": 28.53,"425": 23.123,"450": 20.347,"475": 19.348,"500": 17.573,"525": 16.736,"550": 16.716,"575": 16.573,"600": 17.206,"625": 18.819,"650": 19.942,"675": 14.655,"700": 12.308,"725": 10.655,"750": 10.451,"775": 7.062,"800": 6.144,"825": 5.287,"850": 4.205,"875": 3.45,"900": 3.307,"925": 2.613,"950": 1.735,"975": 1.429,"1000": 0.776,"1025": 0.429,"1050": 0.143,"1075": 0.163}}}