{"type": "Feature","bbox": [-91.3333,15.1001,-91.205,15.2057],"geometry": {"type": "MultiPolygon","coordinates": [[[[-91.2141,15.1001,1998.8612],[-91.2062,15.1086,2000.3391],[-91.205,15.111,1920.2888],[-91.2063,15.1127,1926.7764],[-91.2199,15.1173,1868.489],[-91.2282,15.1226,1834.4935],[-91.2348,15.1312,1809.9274],[-91.236,15.1369,1822.0203],[-91.2387,15.1372,1828.8088],[-91.2411,15.1426,1819.694],[-91.2524,15.1445,1822.99],[-91.2542,15.1526,1779.2963],[-91.2586,15.1552,1812.6157],[-91.2627,15.1613,1741.9327],[-91.2669,15.1614,1736.6791],[-91.2694,15.1582,1798.9906],[-91.2849,15.1633,1743.7227],[-91.2903,15.1679,1637.999],[-91.2919,15.1729,1629.0836],[-91.2971,15.1766,1628.6907],[-91.2992,15.1872,1606.2522],[-91.3022,15.1879,1672.0713],[-91.3089,15.1948,1616.7427],[-91.3095,15.1992,1602.0074],[-91.3187,15.2008,1611.5403],[-91.3186,15.2057,1585.0011],[-91.3233,15.2013,1650.3699],[-91.3256,15.1985,1607.0476],[-91.3255,15.1917,1711.3896],[-91.329,15.1853,1673.1689],[-91.3284,15.1711,1701.0027],[-91.33,15.1631,1751.718],[-91.3333,15.1604,1758.6106],[-91.3318,15.1584,1804.3167],[-91.3254,15.1591,1714.9285],[-91.32,15.1393,1891.77],[-91.3131,15.1452,1852.844],[-91.3127,15.1498,1775.9093],[-91.3104,15.1507,1718.9105],[-91.3067,15.1389,1795.7947],[-91.3052,15.1385,1789.5133],[-91.3011,15.1419,1793.6027],[-91.2874,15.1298,1785.6414],[-91.2794,15.1264,1807.6802],[-91.2787,15.1236,1809.9768],[-91.2724,15.1258,1804.2415],[-91.2675,15.1251,1759.0443],[-91.259,15.1194,1835.8744],[-91.2581,15.125,1762.104],[-91.2558,15.1247,1809.6462],[-91.2534,15.1235,1729.9269],[-91.2514,15.115,1739.7871],[-91.2488,15.1109,1749.1279],[-91.2141,15.1001,1998.8612]]]]}
,"properties": {"GID_2": "GTM.21.6_1","GID_0": "GTM","country": "Guatemala","GID_1": "GTM.21_1","province": "Totonicapán","NL_NAME_1": "NA","county": "SantaLucíaLaReforma","VARNAME_2": "NA","NL_NAME_2": "NA","TYPE_2": "Municipio","ENGTYPE_2": "Municipality","CC_2": "NA","HASC_2": "NA","name": "Santa_Lucía_La_Reforma.county","area_km2": 49.60835,"hist_schema_id": "Elevation0-9000","hist_area_km2": {"1575": 0.08184,"1600": 0.28646,"1625": 0.32739,"1650": 0.98218,"1675": 2.33277,"1700": 3.96987,"1725": 6.24149,"1750": 6.38505,"1775": 6.18058,"1800": 5.87375,"1825": 5.23943,"1850": 4.52322,"1875": 2.68121,"1900": 1.69885,"1925": 1.31,"1950": 0.69595,"1975": 0.51174,"2000": 0.18423,"2025": 0.10235}}}