{"type":"Feature","properties":{"GID_2":"GTM.11.10_1","GID_0":"GTM","country":"Guatemala","GID_1":"GTM.11_1","province":"Jutiapa","NL_NAME_1":"NA","county":"Jutiapa","VARNAME_2":"NA","NL_NAME_2":"NA","TYPE_2":"Municipio","ENGTYPE_2":"Municipality","CC_2":"NA","HASC_2":"NA","name":"Jutiapa.county"},
"geometry":{"type": "MultiPolygon","coordinates": [[[[-90.0469,14.4299,1571.7887],[-90.0579,14.3892,1726.5286],[-90.0615,14.3859,1762.8391],[-90.0573,14.3793,1728.5469],[-90.0521,14.3791,1834.5658],[-90.0502,14.3767,1851.9283],[-90.0456,14.3608,1724.0288],[-90.0562,14.3477,1608.3311],[-90.0441,14.3347,1354.7047],[-90.0411,14.3357,1345.1609],[-90.0397,14.3442,1431.5034],[-90.0286,14.3401,1154.3195],[-90.0278,14.3357,1149.2742],[-90.0328,14.3246,1094.0369],[-90.0216,14.2912,960.0131],[-90.0022,14.2914,1090.5836],[-89.9907,14.2933,1112.1132],[-89.9836,14.2916,1062.0002],[-89.9827,14.288,1073.3032],[-89.9794,14.2873,1088.8639],[-89.9856,14.2728,1023.3435],[-89.9927,14.2644,908.8412],[-89.9933,14.2589,921.1306],[-89.9996,14.2536,997.4781],[-90.0029,14.2324,1084.7834],[-90.0077,14.2269,1050.1127],[-90.0235,14.2259,1052.6179],[-90.0245,14.2236,1056.9524],[-90.0248,14.2014,1105.478],[-90.0094,14.1858,1004.2285],[-90.0095,14.1825,1013.7502],[-90.0132,14.1843,1003.9021],[-90.016,14.1834,1021.3693],[-90.0136,14.1753,1084.1968],[-90.0068,14.1754,1089.639],[-90.0049,14.1731,1092.1549],[-89.9914,14.1717,1072.176],[-89.9747,14.1769,1063.2533],[-89.9704,14.1763,1080.3789],[-89.9628,14.172,1122.3718],[-89.9617,14.174,1079.0197],[-89.9668,14.1823,993.1006],[-89.9592,14.19,933.5134],[-89.9565,14.1874,955.2747],[-89.9477,14.1874,1021.6146],[-89.9412,14.1931,871.1439],[-89.9194,14.1978,682.1068],[-89.9185,14.1925,687.1949],[-89.9115,14.1897,819.7257],[-89.9005,14.1602,616.6501],[-89.8955,14.1706,921.8082],[-89.891,14.1745,957.0391],[-89.8839,14.176,784.4304],[-89.8771,14.174,716.0156],[-89.8683,14.1867,658.5741],[-89.8648,14.1886,654.0682],[-89.8597,14.1905,754.6329],[-89.846,14.1891,798.0208],[-89.8415,14.1914,877.5909],[-89.8355,14.1992,1022.5571],[-89.8304,14.2011,1047.2222],[-89.8193,14.2,1164.6781],[-89.8138,14.2022,1260.8099],[-89.8112,14.2044,1265.0193],[-89.8119,14.2144,1343.9287],[-89.8091,14.2196,1320.4349],[-89.8095,14.2237,1232.5774],[-89.8054,14.225,1267.214],[-89.8007,14.2306,1362.2694],[-89.7965,14.2327,1263.3662],[-89.7791,14.2354,872.5963],[-89.778,14.2627,979.4418],[-89.7836,14.2752,1020.5186],[-89.7837,14.2834,910.0903],[-89.7773,14.2988,575.326],[-89.7804,14.316,869.264],[-89.7855,14.3223,871.3528],[-89.7864,14.329,877.6215],[-89.7841,14.3385,907.664],[-89.7685,14.3577,982.8951],[-89.7729,14.3687,1101.3646],[-89.776,14.3724,1186.3721],[-89.7831,14.3749,1262.3401],[-89.7925,14.3726,1126.2773],[-89.7958,14.3736,1113.4878],[-89.803,14.3814,1119.0125],[-89.8086,14.3753,1053.6355],[-89.8114,14.3744,1025.8041],[-89.8186,14.3775,1030.8947],[-89.817,14.3323,900.9364],[-89.8186,14.3191,843.7849],[-89.8179,14.3149,831.9487],[-89.8143,14.3119,745.9641],[-89.823,14.308,840.4371],[-89.8264,14.3027,724.965],[-89.8355,14.3005,839.7775],[-89.8397,14.3033,845.819],[-89.845,14.3167,901.6078],[-89.8484,14.3209,925.7353],[-89.8638,14.3287,946.7156],[-89.8662,14.3604,1057.54],[-89.8713,14.3611,1036.2921],[-89.8765,14.3661,1051.5715],[-89.8805,14.3888,1199.4346],[-89.885,14.3902,1179.5477],[-89.893,14.4057,1198.1874],[-89.8921,14.4164,1199.9303],[-89.8892,14.4171,1110.4573],[-89.8845,14.4229,1142.4408],[-89.8882,14.4248,1174.0853],[-89.8936,14.4311,1470.4674],[-89.8943,14.4411,1286.0118],[-89.926,14.4631,1314.854],[-89.9751,14.4542,1434.6389],[-89.9809,14.4513,1404.1545],[-89.9825,14.4349,1516.7853],[-89.9849,14.4318,1500.3877],[-90.0469,14.4299,1571.7887]]]]}}