{"type":"Feature","properties":{"GID_2":"GTM.12.12_1","GID_0":"GTM","country":"Guatemala","GID_1":"GTM.12_1","province":"Petén","NL_NAME_1":"NA","county":"Sayaxché","VARNAME_2":"NA","NL_NAME_2":"NA","TYPE_2":"Municipio","ENGTYPE_2":"Municipality","CC_2":"NA","HASC_2":"NA","name":"Sayaxché.county"},
"geometry":{"type": "MultiPolygon","coordinates": [[[[-90.4385,16.0942,127.7059],[-90.4369,16.096,127.9202],[-90.4377,16.0953,127.7059],[-90.4385,16.0942,127.7059]]],
[[[-89.9839,15.9988,130.1132],[-89.9776,15.9944,152.1572],[-89.974,15.9975,148.6932],[-89.9752,16.009,143.9994],[-89.9808,16.0095,140.8493],[-89.9771,16.0163,145.2941],[-89.9731,16.0171,143.9175],[-89.9723,16.0116,144.4024],[-89.9645,16.0097,144.0875],[-89.9223,16.2109,167.8276],[-90.001,16.2047,138.6344],[-90.0,16.2085,129.4769],[-89.9955,16.2118,125.9747],[-89.9851,16.2139,130.2596],[-89.9823,16.2157,136.7984],[-89.9815,16.219,137.3342],[-89.9742,16.2234,139.5973],[-89.9738,16.2197,134.9417],[-89.9627,16.2176,135.237],[-89.9591,16.2141,143.3171],[-89.9576,16.2163,142.3122],[-89.9612,16.2326,132.8692],[-89.9576,16.2331,133.7523],[-89.9573,16.2377,134.7541],[-89.9486,16.2444,132.7737],[-89.9489,16.2551,134.0169],[-89.9444,16.2586,135.9093],[-89.945,16.2676,135.3712],[-89.9419,16.2684,135.8631],[-89.9433,16.2717,135.9813],[-89.9412,16.2748,138.6617],[-89.9317,16.2801,143.5099],[-89.9296,16.2788,144.131],[-89.9268,16.2795,143.108],[-89.9256,16.283,149.769],[-89.9199,16.2844,143.9412],[-89.919,16.2828,150.1539],[-89.9166,16.2848,144.979],[-89.9158,16.2831,147.5486],[-89.9088,16.2843,140.7271],[-89.8765,16.4417,200.752],[-89.9217,16.5008,146.7618],[-89.9204,16.6542,135.011],[-90.0225,16.6541,123.3085],[-90.0364,16.6591,123.4155],[-90.0463,16.66,124.3142],[-90.0555,16.658,122.9025],[-90.0688,16.6494,124.5651],[-90.1031,16.644,119.4972],[-90.1087,16.641,119.7222],[-90.1274,16.6444,118.9682],[-90.1312,16.6421,119.3733],[-90.1367,16.6425,121.5385],[-90.1546,16.6384,123.5932],[-90.1669,16.639,138.6147],[-90.1714,16.6356,123.3329],[-90.1758,16.6375,132.6996],[-90.1836,16.6368,125.13],[-90.1873,16.6348,123.0952],[-90.1937,16.6351,119.262],[-90.1999,16.6317,122.1045],[-90.2121,16.6324,118.6357],[-90.221,16.629,117.8947],[-90.2265,16.6297,121.4868],[-90.2263,16.6254,121.0521],[-90.2379,16.6237,119.765],[-90.2392,16.6146,127.7551],[-90.2376,16.6097,125.8923],[-90.2382,16.5939,123.2405],[-90.2406,16.5896,116.2386],[-90.2364,16.5862,123.3497],[-90.2424,16.5709,110.5107],[-90.2523,16.5728,113.3267],[-90.256,16.5652,122.0633],[-90.2552,16.5604,119.7471],[-90.2617,16.5592,113.3913],[-90.2669,16.5622,113.1114],[-90.295,16.5692,114.241],[-90.3069,16.5647,119.2075],[-90.3055,16.5601,116.9507],[-90.3075,16.5544,111.7471],[-90.3099,16.5536,109.0],[-90.3229,16.5614,110.3345],[-90.3307,16.5694,110.4357],[-90.3426,16.5762,115.4292],[-90.3539,16.5713,116.7358],[-90.3552,16.5747,109.7949],[-90.3513,16.5853,117.0034],[-90.3425,16.5861,113.7046],[-90.3386,16.5954,116.0054],[-90.3459,16.6005,122.6307],[-90.3648,16.5993,112.349],[-90.3715,16.6016,113.0676],[-90.3756,16.6009,119.6984],[-90.3775,16.599,119.9385],[-90.3747,16.596,119.924],[-90.3733,16.5875,112.9412],[-90.3678,16.5793,117.3074],[-90.3699,16.5747,119.3439],[-90.4112,16.575,113.0805],[-90.4154,16.5707,113.28],[-90.4204,16.5604,125.8619],[-90.4259,16.5565,135.4363],[-90.4325,16.5562,118.7653],[-90.4378,16.5606,111.0054],[-90.4425,16.5607,109.9783],[-90.4475,16.5539,117.5037],[-90.4598,16.5502,115.4811],[-90.4634,16.5468,120.1219],[-90.4643,16.5442,115.0672],[-90.4599,16.5389,116.1662],[-90.4541,16.5393,109.605],[-90.4463,16.5446,114.471],[-90.4394,16.5415,122.2816],[-90.4392,16.5391,125.543],[-90.4429,16.5333,125.1487],[-90.4486,16.5088,116.345],[-90.4516,16.5055,108.9956],[-90.4424,16.4882,123.2071],[-90.4455,16.4839,111.4946],[-90.4572,16.4872,114.1959],[-90.4583,16.4887,114.5223],[-90.4599,16.4957,108.5],[-90.4579,16.5025,115.6916],[-90.462,16.511,112.0877],[-90.4621,16.5169,114.5789],[-90.4707,16.522,119.3544],[-90.4772,16.5227,131.9948],[-90.487799999999993,16.5047,118.0606],[-90.4955,16.5104,109.5862],[-90.4975,16.5199,108.0],[-90.5008,16.5148,114.2127],[-90.5093,16.5116,115.765],[-90.5182,16.498,111.862],[-90.5182,16.4781,112.5529],[-90.5288,16.4837,117.8267],[-90.5395,16.4805,114.2811],[-90.5414,16.4781,112.8501],[-90.5465,16.4762,108.0],[-90.5491,16.4711,110.1531],[-90.5473,16.4672,111.7216],[-90.5278,16.4577,108.5],[-90.5251,16.4587,115.612],[-90.5253,16.464,108.5],[-90.5236,16.467,108.5],[-90.5142,16.4699,110.9433],[-90.5014,16.4663,108.5],[-90.4991,16.4565,109.4443],[-90.4958,16.4535,111.4012],[-90.4916,16.454,113.2713],[-90.4851,16.4611,109.0],[-90.4797,16.46,110.2201],[-90.4785,16.4575,111.7416],[-90.4807,16.4506,112.3978],[-90.4793,16.4434,109.25],[-90.4883,16.4287,116.2498],[-90.487799999999993,16.4256,111.25],[-90.4846,16.423,111.5],[-90.4718,16.425,113.7268],[-90.4588,16.421,118.0687],[-90.4439,16.4243,111.5],[-90.4208,16.4249,114.2576],[-90.4172,16.4224,112.0],[-90.4121,16.4065,116.5466],[-90.4077,16.404,114.7669],[-90.4022,16.407,115.7406],[-90.3979,16.4162,112.0],[-90.3915,16.4142,116.5334],[-90.3892,16.4115,113.3389],[-90.3899,16.4055,117.0655],[-90.3925,16.4023,115.1511],[-90.4026,16.3982,112.5],[-90.4033,16.3955,114.5485],[-90.4014,16.3903,114.2497],[-90.3981,16.3861,115.3276],[-90.3865,16.3778,113.7428],[-90.3747,16.3746,113.0],[-90.3718,16.369,115.8727],[-90.3739,16.3617,113.0],[-90.3781,16.3596,113.375],[-90.3824,16.3622,116.7351],[-90.3839,16.3674,116.0949],[-90.3889,16.3728,114.0],[-90.3961,16.3751,114.0],[-90.4011,16.3729,115.6889],[-90.4122,16.3623,123.4879],[-90.4131,16.3532,117.571],[-90.4106,16.3469,115.9766],[-90.4086,16.3457,115.0],[-90.4065,16.3466,118.7724],[-90.408,16.3573,115.5],[-90.4067,16.3601,119.861],[-90.4035,16.3611,117.1837],[-90.4001,16.3495,118.3811],[-90.3845,16.3456,118.0471],[-90.3827,16.339,116.0],[-90.3879,16.335,116.375],[-90.3933,16.3392,119.6614],[-90.3998,16.3395,119.6306],[-90.404,16.3323,117.6444],[-90.412,16.329,117.0],[-90.4134,16.3253,117.4887],[-90.4101,16.3188,117.0],[-90.4103,16.3122,119.6767],[-90.4122,16.3086,117.0],[-90.4162,16.3056,119.3781],[-90.4346,16.3053,119.8582],[-90.4386,16.3031,121.1512],[-90.4399,16.3004,117.875],[-90.4391,16.2972,118.0],[-90.4338,16.2948,118.5874],[-90.4331,16.2922,118.0],[-90.4417,16.2867,118.0],[-90.441,16.2792,118.5],[-90.4391,16.2767,123.9796],[-90.4309,16.2734,118.5],[-90.4243,16.264,124.3077],[-90.4236,16.2603,121.0245],[-90.4264,16.2554,122.2265],[-90.4303,16.2542,120.6028],[-90.4388,16.2608,127.5519],[-90.4458,16.2622,122.3694],[-90.4503,16.2591,121.2832],[-90.4561,16.2487,119.5],[-90.4552,16.2434,120.1387],[-90.4506,16.2405,120.1979],[-90.4473,16.241,122.6665],[-90.4444,16.2456,122.8444],[-90.4404,16.247,123.5126],[-90.4387,16.2397,120.0],[-90.4311,16.2365,122.9016],[-90.4294,16.2334,120.5],[-90.4313,16.2303,123.2163],[-90.4399,16.2322,123.6198],[-90.4526,16.2252,122.0822],[-90.456,16.2198,121.0],[-90.458,16.209,121.0],[-90.4541,16.1864,124.5132],[-90.4475,16.1824,122.2732],[-90.4372,16.1806,125.2463],[-90.4296,16.1756,129.43],[-90.4277,16.1738,130.6936],[-90.4262,16.1651,122.0],[-90.4264,16.1628,122.0],[-90.4372,16.1568,123.6613],[-90.4487,16.1546,125.4852],[-90.452,16.1496,132.1854],[-90.448,16.1432,126.4085],[-90.4383,16.1427,123.0],[-90.4302,16.1398,130.3353],[-90.4295,16.1369,123.5],[-90.4316,16.1286,128.7911],[-90.4308,16.1194,124.0],[-90.4364,16.1175,127.8572],[-90.45,16.1245,128.7317],[-90.4536,16.1248,126.7916],[-90.4589,16.1096,127.4008],[-90.4564,16.1002,125.5],[-90.4572,16.0944,128.3693],[-90.4522,16.092,129.3178],[-90.4464,16.0934,129.2467],[-90.4429,16.0989,129.7742],[-90.4338,16.1051,129.7805],[-90.4286,16.106,127.5647],[-90.4261,16.1041,128.4251],[-90.4267,16.0973,129.5771],[-90.4303,16.0963,127.0],[-90.4361,16.0877,129.9223],[-90.4418,16.0852,130.6457],[-90.4437,16.0825,130.5477],[-90.4432,16.0788,128.3005],[-90.4392,16.0741,131.3494],[-90.2229,16.0473,177.2918],[-90.0408,15.9902,141.0532],[-90.0356,15.9983,142.4489],[-90.0394,16.0086,127.5452],[-90.0351,16.0118,126.8105],[-90.027,16.0066,131.6264],[-90.0154,16.0084,125.9697],[-90.0083,15.9994,137.9884],[-90.0138,15.9945,127.3578],[-90.0091,15.9916,131.6803],[-90.0006,15.9974,133.1861],[-89.9908,16.0002,129.8804],[-89.9839,15.9988,130.1132]]]]}}