{"type": "Feature","bbox": [-90.5636,14.5555,-90.5329,14.6144],"geometry": {"type": "MultiPolygon","coordinates": [[[[-90.5558,14.5555,1409.0083],[-90.552,14.5558,1421.2366],[-90.5499,14.5608,1432.6404],[-90.5462,14.556,1422.5487],[-90.5453,14.5604,1435.4384],[-90.5405,14.5604,1444.3063],[-90.5432,14.5617,1444.7288],[-90.5442,14.5656,1445.5812],[-90.5376,14.5858,1476.6122],[-90.5386,14.6011,1521.7933],[-90.5357,14.6035,1524.1171],[-90.5373,14.6058,1529.2257],[-90.5329,14.6076,1537.2139],[-90.537,14.6144,1527.4719],[-90.56,14.5945,1489.9751],[-90.5636,14.5888,1476.7141],[-90.5603,14.5865,1479.4763],[-90.5627,14.58,1464.2035],[-90.56,14.565,1408.6882],[-90.5621,14.5591,1387.062],[-90.5558,14.5555,1409.0083]]]]}
,"properties": {"GID_2": "GTM.7.20_1","GID_0": "GTM","country": "Guatemala","GID_1": "GTM.7_1","province": "Guatemala","NL_NAME_1": "NA","county": "ZONA12","VARNAME_2": "NA","NL_NAME_2": "NA","TYPE_2": "Municipio","ENGTYPE_2": "Municipality","CC_2": "NA","HASC_2": "NA","name": "Z_O_N_A12.county","area_km2": 12.065249,"hist_schema_id": "Elevation0-9000","hist_area_km2": {"1350": 0.061564,"1375": 0.246252,"1400": 0.718237,"1425": 0.964481,"1450": 2.339299,"1475": 3.180466,"1500": 3.36496,"1525": 1.18999}}}