{"type": "Feature","bbox": [-90.4492,15.2595,-90.3734,15.4197],"geometry": {"type": "MultiPolygon","coordinates": [[[[-90.4384,15.4103,1439.3649],[-90.4329,15.403,1457.522],[-90.428,15.4011,1474.2922],[-90.4277,15.3992,1445.6428],[-90.4319,15.3917,1452.479],[-90.4491,15.3744,1384.6292],[-90.448,15.3562,1441.9233],[-90.4492,15.3515,1469.1826],[-90.4441,15.3536,1423.8423],[-90.4375,15.3293,1500.6395],[-90.4403,15.326,1551.2737],[-90.4415,15.3281,1521.2444],[-90.444,15.3238,1591.0374],[-90.4422,15.2996,1902.3555],[-90.4463,15.2823,1424.127],[-90.4239,15.2814,1592.9423],[-90.4202,15.2798,1459.6716],[-90.4168,15.2828,1681.381],[-90.407,15.2793,1539.7173],[-90.4031,15.2796,1674.9203],[-90.4003,15.2759,1549.072],[-90.4035,15.2724,1590.2294],[-90.4029,15.2693,1567.7505],[-90.3788,15.2595,1293.1289],[-90.3875,15.2785,1160.6421],[-90.3941,15.2843,1611.6334],[-90.4059,15.3011,1785.6909],[-90.4048,15.3091,1502.9109],[-90.3941,15.3124,1512.7632],[-90.389,15.3189,1508.0994],[-90.4042,15.3202,1583.1282],[-90.4017,15.3309,1476.1766],[-90.3988,15.3342,1635.1659],[-90.4005,15.3363,1613.0458],[-90.3981,15.3432,1827.8502],[-90.4006,15.3502,1661.1265],[-90.3901,15.3755,1417.2886],[-90.3843,15.3785,1443.5984],[-90.3734,15.3789,1416.6445],[-90.3759,15.3889,1464.6013],[-90.3855,15.3894,1439.6044],[-90.3931,15.4033,1447.0382],[-90.4002,15.4072,1458.368],[-90.4189,15.4107,1443.9297],[-90.4229,15.4197,1438.3077],[-90.4299,15.4133,1466.8843],[-90.4384,15.4103,1439.3649]]]]}
,"properties": {"GID_2": "GTM.1.10_1","GID_0": "GTM","country": "Guatemala","GID_1": "GTM.1_1","province": "AltaVerapaz","NL_NAME_1": "NA","county": "SantaCruzVerapaz","VARNAME_2": "NA","NL_NAME_2": "NA","TYPE_2": "Municipio","ENGTYPE_2": "Municipality","CC_2": "NA","HASC_2": "NA","name": "Santa_Cruz_Verapaz.county","area_km2": 75.44716,"hist_schema_id": "Elevation0-9000","hist_area_km2": {"1000": 0.02045,"1025": 0.12272,"1050": 0.16363,"1075": 0.14317,"1100": 0.14317,"1125": 0.12272,"1150": 0.14317,"1175": 0.14317,"1200": 0.08181,"1225": 0.10227,"1250": 0.16363,"1275": 0.20454,"1300": 0.16363,"1325": 0.20453,"1350": 0.12272,"1375": 0.9814,"1400": 10.87623,"1425": 9.11807,"1450": 9.97634,"1475": 7.31895,"1500": 4.45716,"1525": 2.98525,"1550": 2.53538,"1575": 2.47415,"1600": 2.53562,"1625": 2.59696,"1650": 2.41303,"1675": 1.55416,"1700": 1.32928,"1725": 1.41105,"1750": 1.10433,"1775": 1.57468,"1800": 1.28837,"1825": 1.14524,"1850": 1.04297,"1875": 0.96117,"1900": 1.00208,"1925": 0.85894,"1950": 0.73622,"1975": 0.57262,"2000": 0.32721,"2025": 0.1227,"2050": 0.10225}}}