{"type": "Feature","bbox": [-91.5605,14.414,-91.4683,14.5668],"geometry": {"type": "MultiPolygon","coordinates": [[[[-91.5537,14.414,122.7472],[-91.5486,14.4297,130.6726],[-91.5433,14.4381,137.33],[-91.5405,14.4506,161.6151],[-91.5368,14.456,166.1524],[-91.532,14.4773,203.507],[-91.5332,14.4848,219.8092],[-91.5322,14.489,229.4636],[-91.5205,14.523,328.0717],[-91.5174,14.5254,333.6526],[-91.4683,14.5193,332.8099],[-91.4689,14.5238,338.2736],[-91.4744,14.5298,367.0816],[-91.4751,14.5333,370.9771],[-91.4721,14.5562,494.3056],[-91.475,14.5586,503.7993],[-91.5037,14.5663,505.3162],[-91.5303,14.5668,501.2445],[-91.5335,14.5638,496.4969],[-91.5402,14.5382,361.9115],[-91.5481,14.524,310.9646],[-91.5485,14.5185,291.7231],[-91.5509,14.5144,281.4709],[-91.5579,14.4877,221.4342],[-91.5581,14.4809,207.7769],[-91.5549,14.4711,188.3438],[-91.5556,14.4644,173.9884],[-91.5605,14.452,171.0195],[-91.5597,14.4469,158.9502],[-91.5573,14.4435,150.4435],[-91.559,14.4366,141.6738],[-91.557,14.4302,130.8803],[-91.5587,14.424,132.624],[-91.5537,14.414,122.7472]]]]}
,"properties": {"GID_2": "GTM.20.3_1","GID_0": "GTM","country": "Guatemala","GID_1": "GTM.20_1","province": "Suchitepéquez","NL_NAME_1": "NA","county": "Mazatenango","VARNAME_2": "NA","NL_NAME_2": "NA","TYPE_2": "Municipio","ENGTYPE_2": "Municipality","CC_2": "NA","HASC_2": "NA","name": "Mazatenango.county","area_km2": 59.29819,"hist_schema_id": "Elevation0-9000","hist_area_km2": {"100": 0.16427,"125": 2.13546,"150": 2.66915,"175": 4.22931,"200": 3.7979,"225": 4.22877,"250": 2.70955,"275": 2.89418,"300": 2.68882,"325": 3.0787,"350": 5.37735,"375": 4.72045,"400": 4.24829,"425": 4.3508,"450": 4.33017,"475": 3.75546,"500": 3.57068,"525": 0.34885}}}