{"type":"Feature","properties":{"GID_2":"GTM.2.6_1","GID_0":"GTM","country":"Guatemala","GID_1":"GTM.2_1","province":"BajaVerapaz","NL_NAME_1":"NA","county":"SanJerónimo","VARNAME_2":"NA","NL_NAME_2":"NA","TYPE_2":"Municipio","ENGTYPE_2":"Municipality","CC_2":"NA","HASC_2":"NA","name":"San_Jerónimo.county"},
"geometry":{"type": "MultiPolygon","coordinates": [[[[-90.224,14.9803,738.8629],[-90.1935,15.0001,820.8497],[-90.1206,15.0271,2367.8435],[-90.116,15.0266,2397.6816],[-90.1203,15.0369,2457.7681],[-90.0853,15.0461,2600.3154],[-90.0685,15.0413,2558.7346],[-90.0618,15.0416,2401.4565],[-90.0501,15.0455,2509.4104],[-90.045,15.0519,2476.6072],[-90.0348,15.0568,2277.2327],[-90.0275,15.0627,2367.7295],[-90.0169,15.066,2294.6802],[-90.0087,15.0763,2576.2603],[-90.0023,15.0755,2579.1567],[-90.0105,15.0838,2365.762],[-90.0265,15.0916,2180.5032],[-90.0524,15.1073,2107.6787],[-90.0604,15.1076,2020.9283],[-90.0679,15.1106,1988.0947],[-90.0859,15.1113,1958.7943],[-90.1065,15.1159,1877.259],[-90.1081,15.1109,1849.8945],[-90.1111,15.1108,1843.593],[-90.112799999999993,15.1073,1844.3191],[-90.117,15.106,1849.6577],[-90.1511,15.1085,1567.178],[-90.1548,15.1152,1601.345],[-90.1777,15.126,1603.8783],[-90.1833,15.1215,1510.0076],[-90.1848,15.1173,1536.1063],[-90.1912,15.1141,1526.2545],[-90.2016,15.1152,1524.3187],[-90.2168,15.108,1702.9028],[-90.22,15.1118,1623.5332],[-90.2241,15.1104,1644.0076],[-90.2282,15.1121,1574.2322],[-90.2346,15.1084,1454.9871],[-90.2365,15.1003,1728.36],[-90.2456,15.0992,1290.7357],[-90.2494,15.0968,1407.8146],[-90.2518,15.0902,1367.4198],[-90.2633,15.0891,1084.9496],[-90.2704,15.0962,1089.7723],[-90.2757,15.0966,1044.4711],[-90.283,15.0916,967.2628],[-90.286,15.0872,958.197],[-90.2842,15.0807,971.972],[-90.2798,15.0757,980.6229],[-90.2787,15.0721,979.5354],[-90.2854,15.0608,977.9433],[-90.289,15.0373,1041.6118],[-90.2741,15.0157,1654.1899],[-90.2626,15.0066,1863.7548],[-90.2572,15.0086,1776.1438],[-90.2477,15.0089,1604.6621],[-90.2427,15.0072,1451.0588],[-90.2347,14.9955,1133.3412],[-90.2327,14.9881,806.0767],[-90.224,14.9803,738.8629]]]]}}