{"type": "Feature","bbox": [-91.5126,15.6567,-91.0995,15.8305],"geometry": {"type": "MultiPolygon","coordinates": [[[[-91.1988,15.6567,1386.4363],[-91.1974,15.6672,663.1033],[-91.1906,15.6678,962.0894],[-91.1837,15.6656,796.1811],[-91.0995,15.8154,285.9011],[-91.1537,15.8003,1045.0641],[-91.1644,15.7763,1135.4958],[-91.1655,15.7507,1175.9579],[-91.1829,15.749,632.3141],[-91.2017,15.7604,665.4075],[-91.2087,15.7683,959.6187],[-91.2215,15.7692,1117.0914],[-91.234,15.7765,1004.161],[-91.2522,15.7801,912.0112],[-91.258,15.7779,1079.3667],[-91.2678,15.7791,1163.6534],[-91.2786,15.7754,1079.9622],[-91.306,15.7748,1612.4673],[-91.3205,15.793,1814.4543],[-91.326,15.8042,1496.7188],[-91.3378,15.8124,1671.5083],[-91.341,15.8181,1816.9061],[-91.3551,15.8205,1974.3905],[-91.3646,15.8177,1999.4119],[-91.387,15.8001,2033.1357],[-91.4047,15.7995,2131.7197],[-91.4199,15.8015,2248.5112],[-91.4264,15.8138,2505.0947],[-91.438,15.8184,2411.7307],[-91.4392,15.8276,2602.9065],[-91.4498,15.8305,2514.5669],[-91.4714,15.8188,2555.252],[-91.481,15.8175,2821.0083],[-91.4875,15.8145,3073.9644],[-91.5016,15.7966,3024.9089],[-91.5106,15.7916,3188.8381],[-91.5126,15.7824,2968.5186],[-91.5071,15.7677,2947.1021],[-91.4859,15.7602,2774.7517],[-91.4516,15.7436,2474.0286],[-91.4449,15.7388,2493.4744],[-91.4344,15.7353,2437.2256],[-91.4182,15.7365,2479.5259],[-91.409,15.7398,2581.6826],[-91.3965,15.741,2180.625],[-91.392,15.7386,2167.2754],[-91.3784,15.7399,2462.1304],[-91.3583,15.7284,2650.8123],[-91.349,15.7192,2269.2607],[-91.3339,15.7185,2451.3999],[-91.3191,15.714,2240.8127],[-91.3137,15.705,1742.2661],[-91.3121,15.6899,1657.103],[-91.2896,15.6901,1567.4557],[-91.2725,15.6922,1880.6594],[-91.2665,15.6889,1983.3357],[-91.2577,15.6904,1507.0287],[-91.25,15.688,1759.2632],[-91.235,15.6901,1723.9364],[-91.2222,15.6811,1598.8888],[-91.1988,15.6567,1386.4363]]]]}
,"properties": {"GID_2": "GTM.8.27_1","GID_0": "GTM","country": "Guatemala","GID_1": "GTM.8_1","province": "Huehuetenango","NL_NAME_1": "NA","county": "SantaEulalia","VARNAME_2": "NA","NL_NAME_2": "NA","TYPE_2": "Municipio","ENGTYPE_2": "Municipality","CC_2": "NA","HASC_2": "NA","name": "Santa_Eulalia.county","area_km2": 358.143,"hist_schema_id": "Elevation0-9000","hist_area_km2": {"275": 0.102,"300": 0.6528,"325": 0.7344,"350": 0.1428,"375": 0.102,"400": 0.5713,"425": 0.8163,"450": 1.1428,"475": 1.857,"500": 2.6121,"525": 2.1632,"550": 1.9796,"575": 2.7753,"600": 3.4897,"625": 3.6529,"650": 3.0815,"675": 3.7958,"700": 3.6325,"725": 3.5917,"750": 4.0202,"775": 4.7142,"800": 4.6939,"825": 4.4285,"850": 4.5917,"875": 4.5306,"900": 4.0407,"925": 4.3061,"950": 4.3673,"975": 4.204,"1000": 4.9591,"1025": 3.9999,"1050": 4.2652,"1075": 5.1222,"1100": 4.408,"1125": 4.7753,"1150": 4.7143,"1175": 4.653,"1200": 4.4285,"1225": 4.8572,"1250": 3.6122,"1275": 4.204,"1300": 4.51,"1325": 4.4285,"1350": 4.0814,"1375": 3.8774,"1400": 4.8772,"1425": 4.0406,"1450": 4.3263,"1475": 4.3263,"1500": 4.7139,"1525": 4.5709,"1550": 4.6321,"1575": 4.4689,"1600": 4.9382,"1625": 5.4891,"1650": 5.3054,"1675": 4.9177,"1700": 4.7952,"1725": 4.7543,"1750": 5.2644,"1775": 4.6727,"1800": 5.4276,"1825": 4.1828,"1850": 4.04,"1875": 4.04,"1900": 4.2237,"1925": 3.9175,"1950": 3.8156,"1975": 3.8563,"2000": 3.7951,"2025": 3.4483,"2050": 2.8361,"2075": 3.5299,"2100": 2.5097,"2125": 2.4893,"2150": 2.1833,"2175": 1.8976,"2200": 1.9996,"2225": 1.9587,"2250": 2.5301,"2275": 2.9178,"2300": 3.0199,"2325": 3.3668,"2350": 3.1832,"2375": 3.7342,"2400": 3.5097,"2425": 3.5913,"2450": 2.9587,"2475": 2.2648,"2500": 2.4893,"2525": 2.3464,"2550": 2.4484,"2575": 2.1016,"2600": 1.8568,"2625": 1.8568,"2650": 1.6323,"2675": 1.7751,"2700": 1.7139,"2725": 1.6935,"2750": 1.5099,"2775": 1.5711,"2800": 1.1018,"2825": 1.8363,"2850": 1.2854,"2875": 1.4078,"2900": 1.1017,"2925": 0.9997,"2950": 1.2241,"2975": 1.1221,"3000": 0.7753,"3025": 0.6733,"3050": 0.8365,"3075": 0.612,"3100": 0.6732,"3125": 0.5712,"3150": 0.51,"3175": 0.5304,"3200": 0.2856,"3225": 0.2448,"3250": 0.1836,"3275": 0.1224,"3300": 0.0408}}}