{"type": "Feature","bbox": [-91.7524,14.9221,-91.6735,14.9996],"geometry": {"type": "MultiPolygon","coordinates": [[[[-91.6772,14.9611,2733.468],[-91.6788,14.9645,2688.6631],[-91.6735,14.9921,2754.1367],[-91.6805,14.9934,2697.2405],[-91.6857,14.9916,2663.9758],[-91.6928,14.9996,2538.4717],[-91.699,14.9979,2655.8066],[-91.7062,14.9992,2618.5857],[-91.7106,14.988,2708.1138],[-91.7075,14.9864,2756.0317],[-91.7065,14.984,2758.0298],[-91.7071,14.978,2792.4343],[-91.7111,14.9698,2773.1123],[-91.7182,14.9689,2765.7363],[-91.7225,14.9707,2734.6511],[-91.7268,14.9761,2779.0527],[-91.739,14.9687,2467.2087],[-91.7447,14.9685,2331.6167],[-91.7478,14.9651,2237.9551],[-91.7496,14.9527,2118.7239],[-91.7524,14.9467,2129.2095],[-91.7505,14.942,2009.9226],[-91.7516,14.9364,2062.6953],[-91.7445,14.9306,1929.5817],[-91.7255,14.9221,2379.9958],[-91.7107,14.9252,2547.3306],[-91.7007,14.9309,2601.9797],[-91.7,14.933,2614.4109],[-91.6936,14.9353,2646.4084],[-91.6875,14.9429,2687.7288],[-91.6801,14.9466,2686.0591],[-91.6752,14.9537,2850.5063],[-91.6772,14.9611,2733.468]]]]}
,"properties": {"GID_2": "GTM.17.16_1","GID_0": "GTM","country": "Guatemala","GID_1": "GTM.17_1","province": "SanMarcos","NL_NAME_1": "NA","county": "SanAntonioSacatepéquez","VARNAME_2": "NA","NL_NAME_2": "NA","TYPE_2": "Municipio","ENGTYPE_2": "Municipality","CC_2": "NA","HASC_2": "NA","name": "San_Antonio_Sacatepéquez.county","area_km2": 44.24506,"hist_schema_id": "Elevation0-9000","hist_area_km2": {"1925": 0.06146,"1950": 0.06146,"1975": 0.1434,"2000": 0.18437,"2025": 0.1434,"2050": 0.24583,"2075": 0.45068,"2100": 0.40971,"2125": 0.53262,"2150": 0.36873,"2175": 0.47116,"2200": 0.45067,"2225": 0.5326,"2250": 0.71697,"2275": 0.96279,"2300": 1.18811,"2325": 0.83987,"2350": 1.00372,"2375": 0.73744,"2400": 0.67598,"2425": 0.83986,"2450": 0.65551,"2475": 0.77842,"2500": 0.63503,"2525": 0.71698,"2550": 0.81936,"2575": 1.20851,"2600": 1.37236,"2625": 1.96643,"2650": 3.8509,"2675": 4.01482,"2700": 4.24013,"2725": 4.36297,"2750": 3.74837,"2775": 2.58084,"2800": 1.41331,"2825": 0.69643,"2850": 0.16387}}}