{"type": "Feature","bbox": [-91.8206,14.8907,-91.7062,15.0118],"geometry": {"type": "MultiPolygon","coordinates": [[[[-91.7204,14.8967,2300.2085],[-91.7133,14.9011,2445.218],[-91.7127,14.9033,2582.2808],[-91.7222,14.9143,2694.2466],[-91.7255,14.9221,2379.9958],[-91.7445,14.9306,1929.5817],[-91.7516,14.9364,2062.6953],[-91.7505,14.942,2009.9226],[-91.7524,14.9467,2129.2095],[-91.7496,14.9527,2118.7239],[-91.7478,14.9651,2237.9551],[-91.7447,14.9685,2331.6167],[-91.739,14.9687,2467.2087],[-91.7268,14.9761,2779.0527],[-91.7225,14.9707,2734.6511],[-91.7182,14.9689,2765.7363],[-91.7111,14.9698,2773.1123],[-91.7083,14.9735,2750.8394],[-91.7065,14.984,2758.0298],[-91.7075,14.9864,2756.0317],[-91.7106,14.988,2708.1138],[-91.7062,14.9992,2618.5857],[-91.7082,15.0004,2678.7029],[-91.7098,15.0057,2637.78],[-91.7123,15.0056,2598.4526],[-91.7136,14.9995,2652.7131],[-91.73,14.9948,2734.7478],[-91.7319,14.9904,2732.4829],[-91.7538,14.9879,2837.7432],[-91.7567,14.9886,2705.3142],[-91.7665,15.0054,2797.999],[-91.7775,15.0083,2673.4456],[-91.7791,15.0048,2609.8926],[-91.7881,15.0118,2925.7515],[-91.804,15.0077,3146.8081],[-91.8073,15.0046,3202.4287],[-91.8126,15.0052,3330.4373],[-91.8163,15.0023,3394.9368],[-91.8206,14.9951,3247.7654],[-91.8186,14.9865,2857.7461],[-91.7956,14.9641,2393.875],[-91.7818,14.9353,2087.0833],[-91.7752,14.9368,2044.0323],[-91.7742,14.9348,2054.5044],[-91.7769,14.9318,2121.186],[-91.7721,14.9275,1962.6946],[-91.7681,14.9146,2125.3333],[-91.754,14.895,1613.0525],[-91.7456,14.8911,2059.6626],[-91.7391,14.8907,1795.9647],[-91.7337,14.8929,1998.2084],[-91.7285,14.8928,2221.4387],[-91.7269,14.8912,2314.6794],[-91.7244,14.8919,2309.2754],[-91.7204,14.8967,2300.2085]]]]}
,"properties": {"GID_2": "GTM.17.23_1","GID_0": "GTM","country": "Guatemala","GID_1": "GTM.17_1","province": "SanMarcos","NL_NAME_1": "NA","county": "SanPedroSacatepéquez","VARNAME_2": "NA","NL_NAME_2": "NA","TYPE_2": "Municipio","ENGTYPE_2": "Municipality","CC_2": "NA","HASC_2": "NA","name": "San_Pedro_Sacatepéquez.county","area_km2": 75.66654,"hist_schema_id": "Elevation0-9000","hist_area_km2": {"1500": 0.02049,"1525": 0.10245,"1550": 0.06147,"1575": 0.06147,"1600": 0.12294,"1625": 0.06147,"1650": 0.06147,"1675": 0.14342,"1700": 0.20489,"1725": 0.22537,"1750": 0.30733,"1775": 0.49172,"1800": 0.47123,"1825": 0.34829,"1850": 0.61463,"1875": 0.43024,"1900": 0.73755,"1925": 0.94243,"1950": 1.02437,"1975": 1.33167,"2000": 1.18824,"2025": 1.55701,"2050": 1.16775,"2075": 1.14726,"2100": 1.14725,"2125": 0.96285,"2150": 1.22917,"2175": 1.51595,"2200": 1.39303,"2225": 1.35205,"2250": 1.67977,"2275": 1.72071,"2300": 3.58479,"2325": 3.29789,"2350": 3.37978,"2375": 2.51943,"2400": 2.13025,"2425": 2.23266,"2450": 2.04828,"2475": 1.90488,"2500": 2.04824,"2525": 1.92531,"2550": 2.25307,"2575": 1.86391,"2600": 1.26988,"2625": 1.39275,"2650": 1.3313,"2675": 1.57708,"2700": 2.04816,"2725": 2.21201,"2750": 2.00719,"2775": 2.37589,"2800": 1.35177,"2825": 0.65539,"2850": 0.51202,"2875": 0.55298,"2900": 0.38913,"2925": 0.43008,"2950": 0.3072,"2975": 0.67583,"3000": 0.34816,"3025": 0.38911,"3050": 0.30719,"3075": 0.32767,"3100": 0.28671,"3125": 0.32767,"3150": 0.14336,"3175": 0.12288,"3200": 0.2048,"3225": 0.14336,"3250": 0.08192,"3275": 0.26624,"3300": 0.06144,"3325": 0.22528,"3350": 0.08192,"3375": 0.1024,"3400": 0.1024,"3425": 0.04096}}}