{"type":"Feature","properties":{"GID_2":"GTM.8.13_1","GID_0":"GTM","country":"Guatemala","GID_1":"GTM.8_1","province":"Huehuetenango","NL_NAME_1":"NA","county":"SanGasparIxchil","VARNAME_2":"NA","NL_NAME_2":"NA","TYPE_2":"Municipio","ENGTYPE_2":"Municipality","CC_2":"NA","HASC_2":"NA","name":"San_Gaspar_Ixchil.county"},
"geometry":{"type": "MultiPolygon","coordinates": [[[[-91.7309,15.4263,1489.3467],[-91.7256,15.4164,1645.8698],[-91.7284,15.4048,1698.4476],[-91.7038,15.3697,1655.3706],[-91.7164,15.3391,1484.7803],[-91.7073,15.3369,1785.134],[-91.6988,15.3238,1907.7935],[-91.6689,15.3659,2125.6565],[-91.6778,15.3744,2206.7007],[-91.6762,15.4048,1685.8352],[-91.6858,15.4123,1882.3497],[-91.6974,15.4113,1680.7771],[-91.7092,15.4157,1664.781],[-91.7136,15.4201,1599.5387],[-91.7183,15.4299,1890.8788],[-91.7213,15.4304,1820.2089],[-91.7309,15.4263,1489.3467]]]]}}