{"type":"Feature","properties":{"GID_2":"GTM.14.12_1","GID_0":"GTM","country":"Guatemala","GID_1":"GTM.14_1","province":"Quiché","NL_NAME_1":"NA","county":"Patzité","VARNAME_2":"NA","NL_NAME_2":"NA","TYPE_2":"Municipio","ENGTYPE_2":"Municipality","CC_2":"NA","HASC_2":"NA","name":"Patzité.county"},
"geometry":{"type": "MultiPolygon","coordinates": [[[[-91.1524,14.9451,2114.3303],[-91.1476,14.972,2043.4186],[-91.1434,14.9821,2063.3665],[-91.1434,14.9945,2002.5972],[-91.1661,14.9988,2000.5876],[-91.1782,14.9958,2024.1102],[-91.1982,14.9976,2019.8757],[-91.219,14.9898,2150.1716],[-91.2313,14.9885,2032.4629],[-91.237,14.9851,2142.3054],[-91.2325,14.9768,2169.1978],[-91.2412,14.9643,2152.675],[-91.2387,14.9452,2374.0303],[-91.224,14.9416,2409.3506],[-91.2162,14.9325,2442.2837],[-91.1822,14.9472,2138.95],[-91.1643,14.9434,2142.1284],[-91.1524,14.9451,2114.3303]]]]}}