{"type": "Feature","bbox": [-90.3269,14.0812,-90.1922,14.2394],"geometry": {"type": "MultiPolygon","coordinates": [[[[-90.2917,14.1053,623.1675],[-90.2758,14.1061,598.326],[-90.2543,14.1034,429.3039],[-90.2487,14.095,474.7435],[-90.244,14.0957,495.9221],[-90.2368,14.0929,670.9842],[-90.2321,14.0819,740.567],[-90.2232,14.0812,845.8826],[-90.2091,14.0921,610.7383],[-90.2105,14.099,707.1301],[-90.2078,14.1118,730.2738],[-90.1952,14.1267,682.5974],[-90.1922,14.1408,781.7825],[-90.202,14.1588,842.0662],[-90.2013,14.1684,886.8171],[-90.2054,14.174,1007.4996],[-90.2136,14.1767,1127.1606],[-90.2161,14.1866,1084.4287],[-90.2214,14.1918,996.0106],[-90.224,14.1992,941.9499],[-90.231,14.1981,964.8715],[-90.2319,14.1937,1066.723],[-90.2405,14.1967,1088.9377],[-90.2371,14.2058,942.4399],[-90.2382,14.2328,1202.9182],[-90.2398,14.2349,1213.8669],[-90.2576,14.2344,1157.8469],[-90.2626,14.2394,1148.9631],[-90.2696,14.2365,1050.3615],[-90.2837,14.2387,978.7273],[-90.2887,14.2317,678.8939],[-90.2955,14.2087,975.8169],[-90.2971,14.206,980.7372],[-90.2992,14.2065,975.9137],[-90.2995,14.2021,1039.5322],[-90.2972,14.198,1138.1447],[-90.3077,14.1958,895.2646],[-90.3112,14.1988,1109.6014],[-90.3255,14.1879,916.0963],[-90.3269,14.1816,755.3702],[-90.3237,14.1793,761.5356],[-90.3172,14.1787,888.571],[-90.3059,14.1504,1257.0583],[-90.3056,14.1115,709.8757],[-90.2998,14.1069,639.2653],[-90.2917,14.1053,623.1675]]]]}
,"properties": {"GID_2": "GTM.18.12_1","GID_0": "GTM","country": "Guatemala","GID_1": "GTM.18_1","province": "SantaRosa","NL_NAME_1": "NA","county": "SantaMaríaIxhuatán","VARNAME_2": "NA","NL_NAME_2": "NA","TYPE_2": "Municipio","ENGTYPE_2": "Municipality","CC_2": "NA","HASC_2": "NA","name": "Santa_María_Ixhuatán.county","area_km2": 151.6978,"hist_schema_id": "Elevation0-9000","hist_area_km2": {"400": 0.1028,"425": 0.1851,"450": 0.1439,"475": 0.329,"500": 0.2879,"525": 0.6375,"550": 0.5758,"575": 1.0281,"600": 1.316,"625": 1.9534,"650": 2.447,"675": 3.1872,"700": 4.7499,"725": 5.1199,"750": 3.8449,"775": 4.6057,"800": 4.7495,"825": 4.77,"850": 4.0913,"875": 3.4745,"900": 2.8988,"925": 3.2688,"950": 3.0015,"975": 3.5565,"1000": 3.7826,"1025": 4.5635,"1050": 6.1668,"1075": 6.8246,"1100": 6.619,"1125": 7.0506,"1150": 6.9889,"1175": 7.626,"1200": 6.4751,"1225": 4.2963,"1250": 4.0497,"1275": 3.9469,"1300": 3.063,"1325": 3.1658,"1350": 3.1452,"1375": 3.2685,"1400": 1.9735,"1425": 1.1718,"1450": 1.2334,"1475": 1.2129,"1500": 1.1923,"1525": 0.7812,"1550": 0.7606,"1575": 0.4317,"1600": 0.5962,"1625": 0.5345,"1650": 0.3495,"1675": 0.1028}}}