{"type":"Feature","properties":{"GID_2":"GTM.7.5_1","GID_0":"GTM","country":"Guatemala","GID_1":"GTM.7_1","province":"Guatemala","NL_NAME_1":"NA","county":"Mixco","VARNAME_2":"NA","NL_NAME_2":"NA","TYPE_2":"Municipio","ENGTYPE_2":"Municipality","CC_2":"NA","HASC_2":"NA","name":"Mixco.county"},
"geometry":{"type": "MultiPolygon","coordinates": [[[[-90.5178,14.7203,1370.7036],[-90.532,14.7202,1394.6621],[-90.5354,14.713,1318.2775],[-90.5396,14.7114,1382.3958],[-90.5435,14.7038,1373.7327],[-90.5482,14.6984,1421.6118],[-90.5571,14.6936,1496.6733],[-90.5666,14.6924,1533.8906],[-90.5786,14.6797,1552.2671],[-90.5889,14.6812,1633.3354],[-90.5965,14.6726,1693.2913],[-90.5997,14.6726,1705.78],[-90.6064,14.6765,1753.369],[-90.6143,14.6753,1831.59],[-90.6235,14.6707,2004.4712],[-90.6254,14.66,1963.8127],[-90.6299,14.6627,2055.8142],[-90.6321,14.6588,2028.8512],[-90.6309,14.6539,2031.6191],[-90.6362,14.6314,2120.9612],[-90.6342,14.6282,2130.7476],[-90.6291,14.6283,2089.291],[-90.6277,14.6247,2039.3521],[-90.6304,14.6217,2202.4712],[-90.6296,14.6036,1970.5769],[-90.6286,14.6021,1970.5769],[-90.62,14.6016,1830.4543],[-90.6117,14.5984,1652.0682],[-90.6029,14.5903,1533.4583],[-90.5935,14.5884,1549.907],[-90.5847,14.5816,1431.9448],[-90.5873,14.5729,1451.1898],[-90.5838,14.5697,1433.7924],[-90.5808,14.5562,1368.6626],[-90.5769,14.5546,1306.3832],[-90.5748,14.5586,1333.6107],[-90.575,14.5657,1395.2175],[-90.5726,14.5684,1416.984],[-90.5724,14.5737,1439.6772],[-90.5636,14.5888,1476.7141],[-90.5672,14.5887,1467.249],[-90.5713,14.582,1416.9718],[-90.5747,14.5807,1380.636],[-90.5784,14.5724,1364.3967],[-90.5815,14.5714,1379.7004],[-90.5816,14.5783,1369.876],[-90.5782,14.58,1377.425],[-90.5758,14.5834,1414.3625],[-90.5726,14.5961,1471.1277],[-90.5677,14.6018,1439.3752],[-90.5674,14.6044,1452.032],[-90.5691,14.6061,1490.5923],[-90.5682,14.6124,1498.0801],[-90.5711,14.6213,1533.2231],[-90.5694,14.6285,1561.0782],[-90.5728,14.6297,1564.9658],[-90.5661,14.6412,1600.3785],[-90.5683,14.6477,1574.9678],[-90.5645,14.651,1580.4736],[-90.5563,14.6502,1570.1058],[-90.5536,14.648,1558.0681],[-90.5447,14.6498,1529.7283],[-90.5418,14.6487,1493.9532],[-90.5386,14.65,1449.8304],[-90.5375,14.6531,1484.1498],[-90.5342,14.6557,1486.1523],[-90.5313,14.666,1424.2294],[-90.5291,14.6683,1467.9314],[-90.526,14.6687,1443.6785],[-90.5244,14.6714,1438.3274],[-90.5281,14.6751,1428.0717],[-90.5188,14.6807,1368.8186],[-90.5195,14.6821,1435.0436],[-90.5251,14.6829,1402.3599],[-90.5224,14.6867,1429.2075],[-90.5167,14.689,1357.076],[-90.5144,14.6953,1345.8016],[-90.5109,14.6953,1389.0847],[-90.505,14.7006,1301.15],[-90.5105,14.7001,1319.2726],[-90.5179,14.7049,1334.3029],[-90.5167,14.7086,1389.3887],[-90.5204,14.7098,1403.0854],[-90.5183,14.7129,1361.047],[-90.5178,14.7203,1370.7036]],
[[-90.5692,14.661,1549.9314],[-90.5823,14.6523,1618.8976],[-90.5861,14.6558,1619.8501],[-90.5714,14.6658,1587.1057],[-90.5692,14.661,1549.9314]]]]}}