{"type":"Feature","properties":{"GID_2":"GTM.20.20_1","GID_0":"GTM","country":"Guatemala","GID_1":"GTM.20_1","province":"Suchitepéquez","NL_NAME_1":"NA","county":"Zunilito","VARNAME_2":"NA","NL_NAME_2":"NA","TYPE_2":"Municipio","ENGTYPE_2":"Municipality","CC_2":"NA","HASC_2":"NA","name":"Zunilito.county"},
"geometry":{"type": "MultiPolygon","coordinates": [[[[-91.5225,14.6824,1207.8427],[-91.5174,14.6755,1356.8917],[-91.5229,14.6687,1224.6733],[-91.5336,14.6632,1091.1442],[-91.5265,14.6513,1049.7927],[-91.5262,14.6463,999.4359],[-91.5311,14.6349,896.2291],[-91.5317,14.623,812.2312],[-91.5278,14.6056,731.7193],[-91.5097,14.6004,705.5339],[-91.5066,14.6015,719.2163],[-91.4908,14.6261,923.5366],[-91.4802,14.6374,1081.0244],[-91.4819,14.6604,1381.0935],[-91.4887,14.6848,1977.3474],[-91.4872,14.695,2349.0703],[-91.4875,14.7109,2923.811],[-91.5074,14.6904,1542.4656],[-91.5144,14.686,1373.5349],[-91.5209,14.6848,1268.4758],[-91.5225,14.6824,1207.8427]]]]}}