{"type":"Feature","properties":{"GID_2":"GTM.8.15_1","GID_0":"GTM","country":"Guatemala","GID_1":"GTM.8_1","province":"Huehuetenango","NL_NAME_1":"NA","county":"SanJuanAtitán","VARNAME_2":"NA","NL_NAME_2":"NA","TYPE_2":"Municipio","ENGTYPE_2":"Municipality","CC_2":"NA","HASC_2":"NA","name":"San_Juan_Atitán.county"},
"geometry":{"type": "MultiPolygon","coordinates": [[[[-91.6352,15.4762,2640.0874],[-91.6292,15.4535,2822.1082],[-91.6265,15.4309,2348.0356],[-91.627,15.418,2250.7522],[-91.6166,15.4206,2534.9146],[-91.6071,15.4105,1999.3502],[-91.5945,15.4131,2289.7471],[-91.5922,15.4266,2341.4817],[-91.5831,15.4334,2790.7246],[-91.5714,15.4478,3168.8054],[-91.5678,15.4657,3721.4058],[-91.5668,15.4913,2848.3928],[-91.5632,15.4983,2947.3958],[-91.5773,15.5205,3631.0947],[-91.5975,15.5148,2597.9751],[-91.6057,15.5326,2966.9707],[-91.6215,15.5318,2512.7822],[-91.6185,15.5213,2373.5945],[-91.6285,15.4907,2728.6418],[-91.6336,15.4852,2581.1052],[-91.6352,15.4762,2640.0874]]]]}}