{"type": "Feature","bbox": [-91.2626,14.7409,-91.0879,14.8934],"geometry": {"type": "MultiPolygon","coordinates": [[[[-91.175299999999993,14.8934,2759.7124],[-91.2063,14.8795,2821.2544],[-91.211,14.8717,2912.7202],[-91.2146,14.8573,3068.3533],[-91.2459,14.8488,2794.7158],[-91.2626,14.8412,2929.2957],[-91.2583,14.8363,2629.2073],[-91.2531,14.8342,2607.0527],[-91.2445,14.825,2449.656],[-91.2152,14.8035,2373.126],[-91.2164,14.7982,2308.6289],[-91.2153,14.7863,2341.5522],[-91.2088,14.7747,2126.8633],[-91.2104,14.7659,2231.4795],[-91.2006,14.76,2297.2268],[-91.1941,14.7495,2122.2988],[-91.1931,14.7409,1565.4955],[-91.1916,14.7439,1759.1221],[-91.187,14.7445,1645.8186],[-91.1808,14.7419,1565.3345],[-91.1752,14.743,1569.8723],[-91.1695,14.7499,1659.9255],[-91.1634,14.748,1569.2389],[-91.1634,14.7446,1555.5],[-91.1537,14.7524,1817.6646],[-91.1409,14.7529,1653.7876],[-91.1347,14.7558,1773.734],[-91.1321,14.7602,1838.913],[-91.1408,14.7646,1846.8942],[-91.1423,14.7714,1911.0886],[-91.1479,14.775,2177.8223],[-91.1527,14.775,2300.1589],[-91.1509,14.791,2205.0127],[-91.142,14.7947,1932.0564],[-91.1392,14.8005,2226.2415],[-91.1288,14.8067,2190.519],[-91.1252,14.8075,2282.1177],[-91.1205,14.8037,2361.6865],[-91.1028,14.8043,2573.3289],[-91.091,14.8157,2704.2627],[-91.0879,14.8207,2694.8477],[-91.1029,14.8355,2643.1963],[-91.1248,14.8528,2452.552],[-91.1321,14.8667,2517.2195],[-91.1348,14.8683,2473.071],[-91.138,14.8669,2506.6736],[-91.1414,14.8622,2517.834],[-91.1514,14.8671,2463.2515],[-91.1558,14.8713,2512.3425],[-91.1552,14.8756,2506.7661],[-91.159,14.8887,2706.5305],[-91.161,14.8905,2626.478],[-91.1725,14.8913,2702.6174],[-91.175299999999993,14.8934,2759.7124]]]]}
,"properties": {"GID_2": "GTM.19.20_1","GID_0": "GTM","country": "Guatemala","GID_1": "GTM.19_1","province": "Sololá","NL_NAME_1": "NA","county": "Sololá","VARNAME_2": "NA","NL_NAME_2": "NA","TYPE_2": "Municipio","ENGTYPE_2": "Municipality","CC_2": "NA","HASC_2": "NA","name": "Sololá.county","area_km2": 153.8696,"hist_schema_id": "Elevation0-9000","hist_area_km2": {"1575": 0.5946,"1600": 0.5126,"1625": 0.3486,"1650": 0.6971,"1675": 0.4511,"1700": 0.4511,"1725": 0.4306,"1750": 0.5126,"1775": 0.3896,"1800": 0.6561,"1825": 0.6766,"1850": 0.6766,"1875": 0.7381,"1900": 0.7791,"1925": 1.0251,"1950": 0.492,"1975": 0.7791,"2000": 0.9021,"2025": 1.2711,"2050": 1.5581,"2075": 1.8246,"2100": 2.1731,"2125": 2.2756,"2150": 2.6446,"2175": 2.5831,"2200": 2.2755,"2225": 2.0295,"2250": 2.8289,"2275": 3.6898,"2300": 3.9767,"2325": 5.8217,"2350": 8.3839,"2375": 9.5929,"2400": 8.8547,"2425": 5.534,"2450": 4.7755,"2475": 4.263,"2500": 5.1032,"2525": 5.595,"2550": 7.4394,"2575": 7.3779,"2600": 6.8041,"2625": 5.0416,"2650": 3.8734,"2675": 3.7914,"2700": 3.3815,"2725": 2.5412,"2750": 2.0288,"2775": 1.7624,"2800": 1.7009,"2825": 1.1681,"2850": 1.414,"2875": 0.7583,"2900": 0.8607,"2925": 0.8402,"2950": 0.8812,"2975": 0.8812,"3000": 0.6558,"3025": 0.8198,"3050": 0.7378,"3075": 0.5738,"3100": 0.2459,"3125": 0.1025,"3150": 0.0205}}}