{"type":"Feature","properties":{"GID_2":"GTM.16.2_1","GID_0":"GTM","country":"Guatemala","GID_1":"GTM.16_1","province":"Sacatepéquez","NL_NAME_1":"NA","county":"AntiguaGuatemala","VARNAME_2":"NA","NL_NAME_2":"NA","TYPE_2":"Municipio","ENGTYPE_2":"Municipality","CC_2":"NA","HASC_2":"NA","name":"Antigua_Guatemala.county"},
"geometry":{"type": "MultiPolygon","coordinates": [[[[-90.7416,14.4636,3595.2747],[-90.7354,14.4805,2804.7422],[-90.7255,14.4972,2076.8638],[-90.7219,14.5114,1806.4402],[-90.7168,14.509,1866.4891],[-90.6946,14.5114,2125.7598],[-90.6913,14.5137,2326.9807],[-90.6826,14.5258,2362.4001],[-90.687,14.54,2116.7983],[-90.6926,14.5409,2065.3684],[-90.6988,14.5474,1894.2449],[-90.6997,14.5507,1839.2449],[-90.6987,14.5544,1884.7743],[-90.6958,14.5531,1926.4246],[-90.6931,14.554,1924.4443],[-90.6947,14.557,1885.9443],[-90.6921,14.5602,1885.199],[-90.6921,14.5646,1736.9861],[-90.6829,14.5781,1897.6678],[-90.6836,14.5872,2303.7195],[-90.6881,14.5973,2281.8208],[-90.6947,14.6066,2336.0884],[-90.7086,14.6136,2458.1267],[-90.7098,14.5952,2112.7402],[-90.7168,14.5927,1836.4156],[-90.7198,14.5939,1765.1946],[-90.7212,14.5872,1644.6779],[-90.7301,14.5799,1570.7009],[-90.7344,14.5807,1570.4357],[-90.7375,14.5737,1540.4689],[-90.7402,14.5728,1539.702],[-90.7417,14.5679,1538.6077],[-90.7472,14.5677,1539.7101],[-90.7521,14.5615,1599.5793],[-90.7635,14.5681,1771.0951],[-90.7668,14.5647,1910.7764],[-90.7738,14.5713,1968.3096],[-90.7782,14.5712,1916.3076],[-90.7813,14.5683,1811.2607],[-90.77,14.5594,1936.1897],[-90.7676,14.5593,1979.481],[-90.7631,14.5467,1713.3347],[-90.7505,14.5385,1517.0642],[-90.7438,14.5033,1984.8905],[-90.7416,14.4636,3595.2747]]]]}}