{"type":"Feature","properties":{"GID_2":"GTM.14.13_1","GID_0":"GTM","country":"Guatemala","GID_1":"GTM.14_1","province":"Quiché","NL_NAME_1":"NA","county":"Sacapulas","VARNAME_2":"NA","NL_NAME_2":"NA","TYPE_2":"Municipio","ENGTYPE_2":"Municipality","CC_2":"NA","HASC_2":"NA","name":"Sacapulas.county"},
"geometry":{"type": "MultiPolygon","coordinates": [[[[-91.2738,15.2755,1455.2626],[-91.2827,15.2806,1553.0009],[-91.2895,15.2809,1441.5643],[-91.3072,15.2733,1560.2327],[-91.3214,15.272,1456.4347],[-91.3262,15.265,1529.2463],[-91.3198,15.2494,1517.8359],[-91.2919,15.2288,1755.8676],[-91.2799,15.2283,1743.0728],[-91.2536,15.221,1786.6902],[-91.1898,15.2229,1654.2042],[-91.1684,15.2229,1701.1141],[-91.159,15.2211,1943.4708],[-91.1417,15.2225,1879.5054],[-91.1155,15.2111,1692.3484],[-91.105,15.2108,1715.8708],[-91.0826,15.2009,1538.2528],[-91.0552,15.1992,1413.7194],[-91.0357,15.2077,1389.9758],[-91.0148,15.2192,1292.396],[-91.0021,15.2185,1202.3225],[-90.9911,15.2215,1192.873],[-90.9733,15.2232,1267.1519],[-90.9562,15.2319,1123.7148],[-90.9498,15.2369,1227.0122],[-90.9491,15.2505,1223.78],[-90.9449,15.2713,1403.3209],[-90.9497,15.28,997.4585],[-90.9513,15.2908,1258.6033],[-90.9906,15.2942,1344.9313],[-90.9985,15.2971,1191.9675],[-90.9996,15.3063,1370.5115],[-90.9976,15.3273,1564.5686],[-91.0177,15.3304,1764.3599],[-91.0343,15.3232,2013.4802],[-91.0404,15.3226,2033.301],[-91.0467,15.3281,2159.3293],[-91.0782,15.3265,2394.696],[-91.0883,15.33,2365.0994],[-91.1265,15.3291,1743.5537],[-91.1377,15.3217,1526.7292],[-91.1575,15.3191,1453.4789],[-91.1634,15.3189,1424.9491],[-91.1794,15.3251,1420.3728],[-91.1838,15.3172,1465.3812],[-91.1843,15.3002,1634.7678],[-91.1887,15.2873,1276.5824],[-91.196,15.2855,1236.8107],[-91.2193,15.2863,1300.7395],[-91.2318,15.2848,1294.2942],[-91.2646,15.2683,1346.1176],[-91.2738,15.2755,1455.2626]]]]}}