{"type": "Feature","bbox": [-91.3741,15.2683,-91.1466,15.5208],"geometry": {"type": "MultiPolygon","coordinates": [[[[-91.3715,15.3591,2397.8723],[-91.345,15.3482,1915.1296],[-91.3144,15.3453,1703.0083],[-91.2839,15.3401,1709.1106],[-91.2739,15.3219,1824.4207],[-91.2753,15.3014,1621.3326],[-91.2738,15.2755,1455.2626],[-91.2646,15.2683,1346.1176],[-91.2318,15.2848,1294.2942],[-91.2193,15.2863,1300.7395],[-91.196,15.2855,1236.8107],[-91.1887,15.2873,1276.5824],[-91.1843,15.3002,1634.7678],[-91.1838,15.3172,1465.3812],[-91.1782,15.3356,1756.3926],[-91.1638,15.3509,2053.5146],[-91.1582,15.3618,2235.5474],[-91.1466,15.3744,2633.9863],[-91.1598,15.3773,2627.7612],[-91.1645,15.3863,2353.5879],[-91.171,15.3911,2398.1243],[-91.2184,15.3876,2474.05],[-91.2472,15.3879,2961.7131],[-91.2796,15.4196,3189.6328],[-91.2927,15.4277,3223.0601],[-91.3126,15.4549,3311.8665],[-91.316,15.4722,3177.2029],[-91.3108,15.4766,2785.5073],[-91.3108,15.5037,2716.8931],[-91.3123,15.5083,2876.0059],[-91.3111,15.5112,2756.8176],[-91.3134,15.5208,2924.8962],[-91.3245,15.5208,2851.6284],[-91.3306,15.5136,3150.407],[-91.33,15.5005,3224.2473],[-91.3242,15.4786,3104.8667],[-91.3257,15.4591,3084.0601],[-91.3232,15.449,2882.479],[-91.3363,15.413,2728.0681],[-91.3548,15.4017,3032.188],[-91.3698,15.3873,3093.8831],[-91.3741,15.3759,2810.9258],[-91.3715,15.3591,2397.8723]]]]}
,"properties": {"GID_2": "GTM.8.1_1","GID_0": "GTM","country": "Guatemala","GID_1": "GTM.8_1","province": "Huehuetenango","NL_NAME_1": "NA","county": "Aguacatán","VARNAME_2": "NA","NL_NAME_2": "NA","TYPE_2": "Municipio","ENGTYPE_2": "Municipality","CC_2": "NA","HASC_2": "NA","name": "Aguacatán.county","area_km2": 235.5804,"hist_schema_id": "Elevation0-9000","hist_area_km2": {"1225": 0.0205,"1250": 0.3477,"1275": 0.5931,"1300": 0.7772,"1325": 0.9408,"1350": 1.4521,"1375": 2.127,"1400": 2.0042,"1425": 2.4132,"1450": 3.0267,"1475": 2.4131,"1500": 2.863,"1525": 2.3108,"1550": 3.0265,"1575": 2.8833,"1600": 3.4354,"1625": 4.8666,"1650": 4.7847,"1675": 5.5618,"1700": 6.0934,"1725": 5.7867,"1750": 4.6416,"1775": 5.3165,"1800": 7.3613,"1825": 7.2591,"1850": 4.6826,"1875": 2.0038,"1900": 1.697,"1925": 1.7379,"1950": 1.9627,"1975": 1.881,"2000": 1.5743,"2025": 2.249,"2050": 2.0445,"2075": 2.2694,"2100": 2.1672,"2125": 1.9218,"2150": 2.4329,"2175": 2.5556,"2200": 2.6373,"2225": 2.4738,"2250": 3.0053,"2275": 3.128,"2300": 2.4533,"2325": 2.535,"2350": 2.1057,"2375": 2.167,"2400": 2.1057,"2425": 2.4736,"2450": 2.3918,"2475": 2.1465,"2500": 2.6984,"2525": 2.6167,"2550": 2.5349,"2575": 2.8824,"2600": 2.6984,"2625": 2.9233,"2650": 2.6575,"2675": 3.0664,"2700": 2.6371,"2725": 2.7393,"2750": 3.0664,"2775": 2.8006,"2800": 2.8414,"2825": 2.8618,"2850": 2.5959,"2875": 2.6776,"2900": 2.6366,"2925": 3.3313,"2950": 3.2293,"2975": 3.0455,"3000": 3.6179,"3025": 2.4324,"3050": 2.2892,"3075": 3.1067,"3100": 2.5548,"3125": 2.698,"3150": 2.8205,"3175": 3.5767,"3200": 3.6788,"3225": 3.6379,"3250": 2.5342,"3275": 1.7576,"3300": 0.7562,"3325": 0.3883,"3350": 0.0817}}}