{"type": "Feature","bbox": [-91.5101,15.5955,-91.1988,15.6922],"geometry": {"type": "MultiPolygon","coordinates": [[[[-91.2206,15.6371,1426.7952],[-91.2128,15.6519,1078.7408],[-91.2094,15.6554,1296.2278],[-91.1988,15.6567,1386.4363],[-91.2093,15.6681,904.1387],[-91.2222,15.6811,1598.8888],[-91.235,15.6901,1723.9364],[-91.25,15.688,1759.2632],[-91.2577,15.6904,1507.0287],[-91.2665,15.6889,1983.3357],[-91.2725,15.6922,1880.6594],[-91.2896,15.6901,1567.4557],[-91.3121,15.6899,1657.103],[-91.3351,15.676,2169.835],[-91.343,15.6767,2072.7004],[-91.3597,15.6693,1800.4615],[-91.3775,15.6729,1686.7899],[-91.3963,15.6719,2117.8979],[-91.4167,15.663,2288.3303],[-91.4283,15.6698,2287.9189],[-91.4271,15.6768,2340.895],[-91.4439,15.676,2650.2007],[-91.4572,15.6776,2709.6401],[-91.4723,15.6715,2637.5808],[-91.4852,15.6713,2994.3225],[-91.5023,15.6753,2896.3682],[-91.5101,15.6403,2886.7949],[-91.4614,15.6229,2646.0464],[-91.4586,15.6194,2578.8677],[-91.4623,15.5955,2548.2373],[-91.4548,15.5955,2244.9851],[-91.4426,15.6077,2157.6147],[-91.4347,15.6079,2402.8237],[-91.4247,15.6149,2289.9856],[-91.4094,15.6203,2184.3267],[-91.4065,15.6176,2110.0442],[-91.3899,15.6176,2298.5039],[-91.38,15.6149,2629.9429],[-91.3673,15.6232,2570.2861],[-91.3601,15.6231,2342.7307],[-91.3601,15.6186,2435.2788],[-91.3481,15.6185,2124.0291],[-91.3384,15.6239,2235.4375],[-91.3314,15.6246,2219.8691],[-91.323,15.6291,2494.1558],[-91.3107,15.6311,2734.2988],[-91.2931,15.645,2329.9648],[-91.2705,15.6482,2229.7673],[-91.2615,15.656,2438.8479],[-91.2543,15.6562,2067.1787],[-91.2547,15.6492,1960.1294],[-91.2353,15.6406,1325.0787],[-91.2261,15.6413,1468.407],[-91.2206,15.6371,1426.7952]]]]}
,"properties": {"GID_2": "GTM.8.16_1","GID_0": "GTM","country": "Guatemala","GID_1": "GTM.8_1","province": "Huehuetenango","NL_NAME_1": "NA","county": "SanJuanIxcoy","VARNAME_2": "NA","NL_NAME_2": "NA","TYPE_2": "Municipio","ENGTYPE_2": "Municipality","CC_2": "NA","HASC_2": "NA","name": "San_Juan_Ixcoy.county","area_km2": 176.639,"hist_schema_id": "Elevation0-9000","hist_area_km2": {"650": 0.0408,"700": 0.1225,"725": 0.1021,"750": 0.2858,"775": 0.1225,"800": 0.2858,"825": 0.4287,"850": 0.3471,"875": 0.2858,"900": 0.4083,"925": 0.3062,"950": 0.2858,"975": 0.2858,"1000": 0.3675,"1025": 0.3879,"1050": 0.3879,"1075": 0.5512,"1100": 0.4083,"1125": 0.4083,"1150": 0.3675,"1175": 0.6329,"1200": 0.4287,"1225": 0.4083,"1250": 0.5512,"1275": 0.4083,"1300": 0.5512,"1325": 0.4287,"1350": 0.6533,"1375": 0.3471,"1400": 0.7349,"1425": 0.5512,"1450": 0.4287,"1475": 0.6533,"1500": 0.7145,"1525": 0.6737,"1550": 0.7962,"1575": 0.6737,"1600": 0.939,"1625": 1.184,"1650": 0.9595,"1675": 1.2044,"1700": 1.2044,"1725": 1.3473,"1750": 1.5107,"1775": 1.7965,"1800": 1.8373,"1825": 2.0415,"1850": 1.7148,"1875": 2.266,"1900": 1.9802,"1925": 1.8578,"1950": 2.4702,"1975": 2.7152,"2000": 2.9806,"2025": 2.7765,"2050": 2.6744,"2075": 3.4299,"2100": 3.9199,"2125": 3.7157,"2150": 4.6142,"2175": 4.3079,"2200": 4.2262,"2225": 4.41,"2250": 5.3695,"2275": 6.3698,"2300": 5.2674,"2325": 4.8591,"2350": 4.9408,"2375": 4.3283,"2400": 4.2466,"2425": 4.165,"2450": 4.8795,"2475": 4.2671,"2500": 4.0221,"2525": 3.8996,"2550": 3.0217,"2575": 3.43,"2600": 3.3892,"2625": 2.5725,"2650": 2.6542,"2675": 2.2662,"2700": 2.45,"2725": 2.2662,"2750": 2.205,"2775": 2.2866,"2800": 1.6537,"2825": 1.6537,"2850": 1.47,"2875": 1.4904,"2900": 1.3678,"2925": 1.3679,"2950": 1.0208,"2975": 1.1637,"3000": 0.8779,"3025": 0.5921,"3050": 0.6125,"3075": 0.3062}}}