{"type":"Feature","properties":{"GID_2":"GTM.14.16_1","GID_0":"GTM","country":"Guatemala","GID_1":"GTM.14_1","province":"Quiché","NL_NAME_1":"NA","county":"SanBartoloméJocotenango","VARNAME_2":"NA","NL_NAME_2":"NA","TYPE_2":"Municipio","ENGTYPE_2":"Municipality","CC_2":"NA","HASC_2":"NA","name":"San_Bartolomé_Jocotenango.county"},
"geometry":{"type": "MultiPolygon","coordinates": [[[[-91.1417,15.2225,1879.5054],[-91.1257,15.2034,1914.4326],[-91.1189,15.1888,1787.1647],[-91.094,15.1766,1498.5931],[-91.0799,15.1774,1568.2822],[-91.0702,15.1844,1535.2223],[-91.0648,15.1831,1513.0269],[-91.0556,15.1631,1597.2974],[-91.0622,15.1452,1848.6104],[-91.0625,15.1395,1995.4701],[-91.0231,15.1387,1856.353],[-90.9971,15.1469,1475.0383],[-90.9785,15.1464,1656.4465],[-90.9619,15.1744,1283.2538],[-90.954,15.1991,1790.6082],[-90.9562,15.2319,1123.7148],[-90.9733,15.2232,1267.1519],[-90.9911,15.2215,1192.873],[-91.0021,15.2185,1202.3225],[-91.0148,15.2192,1292.396],[-91.0357,15.2077,1389.9758],[-91.0552,15.1992,1413.7194],[-91.0826,15.2009,1538.2528],[-91.105,15.2108,1715.8708],[-91.1155,15.2111,1692.3484],[-91.1417,15.2225,1879.5054]]]]}}