{"type": "Feature","bbox": [-92.0927,15.2967,-91.8381,15.6437],"geometry": {"type": "MultiPolygon","coordinates": [[[[-91.9771,15.2967,2156.0479],[-91.9569,15.3192,2072.0142],[-91.9397,15.3185,2521.9417],[-91.8809,15.3616,1842.6699],[-91.8381,15.4146,1589.8015],[-91.8391,15.4341,2148.7341],[-91.8469,15.4578,2661.6858],[-91.8474,15.4895,1895.7915],[-91.8495,15.5037,1603.2693],[-91.8549,15.5197,1479.2694],[-91.8555,15.53,1169.9937],[-91.8613,15.5353,1417.4828],[-91.8615,15.5401,1545.0797],[-91.8714,15.5515,1715.5813],[-91.8737,15.5603,1904.1382],[-91.8833,15.564,2343.3745],[-91.8826,15.5651,2343.3745],[-91.8915,15.5781,2053.5005],[-91.9014,15.5867,2122.5835],[-91.9197,15.5988,1440.8025],[-91.9316,15.6137,911.3364],[-91.9502,15.6153,1017.4318],[-91.9868,15.6379,851.621],[-91.9835,15.6435,905.5858],[-91.9864,15.6437,850.6861],[-92.0927,15.4623,1211.2493],[-92.051,15.4482,2276.9736],[-92.0371,15.4482,2207.9102],[-92.0226,15.4455,2383.6968],[-92.0089,15.4284,1700.0804],[-91.9823,15.4027,1097.1697],[-91.9747,15.3768,1656.5205],[-91.9736,15.3652,1582.7334],[-91.9845,15.3425,2214.8132],[-91.9887,15.3255,2284.7981],[-91.9862,15.3106,2420.4165],[-91.9771,15.2967,2156.0479]]]]}
,"properties": {"GID_2": "GTM.8.5_1","GID_0": "GTM","country": "Guatemala","GID_1": "GTM.8_1","province": "Huehuetenango","NL_NAME_1": "NA","county": "Cuilco","VARNAME_2": "NA","NL_NAME_2": "NA","TYPE_2": "Municipio","ENGTYPE_2": "Municipality","CC_2": "NA","HASC_2": "NA","name": "Cuilco.county","area_km2": 551.5961,"hist_schema_id": "Elevation0-9000","hist_area_km2": {"725": 1.1026,"750": 0.4492,"775": 0.3675,"800": 0.4084,"825": 0.5309,"850": 0.5717,"875": 0.4492,"900": 0.5105,"925": 0.7351,"950": 0.633,"975": 0.633,"1000": 0.5513,"1025": 0.7555,"1050": 0.8985,"1075": 1.2254,"1100": 1.6345,"1125": 1.8799,"1150": 2.7178,"1175": 3.2697,"1200": 3.5968,"1225": 5.0069,"1250": 5.0888,"1275": 5.7631,"1300": 5.6611,"1325": 7.1326,"1350": 7.1119,"1375": 6.4781,"1400": 5.7424,"1425": 5.9876,"1450": 6.4165,"1475": 5.7218,"1500": 6.5797,"1525": 6.4367,"1550": 6.7023,"1575": 6.8655,"1600": 7.7647,"1625": 7.8873,"1650": 8.1528,"1675": 8.0709,"1700": 8.4799,"1725": 8.3775,"1750": 8.3776,"1775": 8.9086,"1800": 8.7248,"1825": 9.8693,"1850": 9.726,"1875": 9.195,"1900": 9.6241,"1925": 7.8054,"1950": 8.2551,"1975": 8.6435,"2000": 8.3577,"2025": 8.3369,"2050": 9.0929,"2075": 7.7239,"2100": 7.7033,"2125": 8.4185,"2150": 7.8463,"2175": 8.1529,"2200": 8.0509,"2225": 8.3366,"2250": 7.8464,"2275": 8.2754,"2300": 8.1531,"2325": 8.2347,"2350": 7.3151,"2375": 6.9879,"2400": 6.6814,"2425": 5.9868,"2450": 6.048,"2475": 5.4963,"2500": 5.3532,"2525": 4.9854,"2550": 4.924,"2575": 5.0262,"2600": 4.3724,"2625": 4.6994,"2650": 5.0264,"2675": 4.8426,"2700": 4.8426,"2725": 5.5579,"2750": 6.1914,"2775": 6.0688,"2800": 6.2528,"2825": 6.7024,"2850": 6.1506,"2875": 4.8428,"2900": 4.8632,"2925": 3.8211,"2950": 4.3931,"2975": 4.7405,"3000": 5.803,"3025": 5.0469,"3050": 4.3521,"3075": 3.4531,"3100": 3.7391,"3125": 4.0047,"3150": 3.1261,"3175": 2.4109,"3200": 1.9819,"3225": 1.5732,"3250": 1.3485,"3275": 1.3689,"3300": 0.899,"3325": 0.756,"3350": 0.4086,"3375": 0.4495,"3400": 0.3065,"3425": 0.1839,"3450": 0.1022,"3475": 0.0613,"3500": 0.0409}}}