{"type": "Feature","bbox": [-91.903,14.8932,-91.7681,15.076],"geometry": {"type": "MultiPolygon","coordinates": [[[[-91.8111,15.0715,2808.7307],[-91.817,15.0722,2720.8613],[-91.8245,15.0707,2785.3076],[-91.8297,15.076,2722.4531],[-91.8339,15.0736,2746.8323],[-91.8358,15.0661,2794.531],[-91.8406,15.0622,2856.7002],[-91.8472,15.0651,2870.407],[-91.852,15.0612,2923.6641],[-91.8595,15.059,3073.9282],[-91.8708,15.0633,3150.2632],[-91.8758,15.0529,3448.436],[-91.9009,15.0409,4048.0461],[-91.903,15.0379,3918.832],[-91.9018,15.034,3644.9343],[-91.8957,15.0308,3480.1074],[-91.8875,15.0334,3344.9399],[-91.879,15.0304,2861.4072],[-91.8716,15.0172,2631.7148],[-91.8519,14.9972,2023.8262],[-91.8519,14.9935,1989.7938],[-91.8553,14.9886,1877.2802],[-91.881,14.976,1713.1693],[-91.8938,14.9755,1348.5409],[-91.8993,14.9686,1258.3088],[-91.8928,14.9626,1591.6089],[-91.8961,14.9497,1425.9878],[-91.8939,14.9416,1254.6622],[-91.8894,14.9368,1412.2156],[-91.8821,14.9368,1675.6926],[-91.875,14.9393,1782.0273],[-91.851,14.9527,2575.6213],[-91.8272,14.9516,2454.7749],[-91.8057,14.9369,2303.2595],[-91.8012,14.9292,2350.8179],[-91.8127,14.9091,3054.8582],[-91.8054,14.9033,2886.8274],[-91.799,14.8932,2777.9995],[-91.7911,14.9057,2449.8833],[-91.7782,14.9125,2182.5217],[-91.7681,14.9146,2125.3333],[-91.7721,14.9275,1962.6946],[-91.7769,14.9318,2121.186],[-91.7742,14.9348,2054.5044],[-91.7752,14.9368,2044.0323],[-91.7818,14.9353,2087.0833],[-91.7956,14.9641,2393.875],[-91.8186,14.9865,2857.7461],[-91.8206,14.9951,3247.7654],[-91.8163,15.0023,3394.9368],[-91.8126,15.0052,3330.4373],[-91.8073,15.0046,3202.4287],[-91.804,15.0077,3146.8081],[-91.7881,15.0118,2925.7515],[-91.7897,15.0185,2955.6338],[-91.7961,15.0259,2989.5723],[-91.7935,15.0334,2945.3433],[-91.796,15.0402,2934.0793],[-91.8035,15.0508,2890.6726],[-91.8031,15.0623,2921.9185],[-91.8067,15.0624,2946.7144],[-91.8116,15.066,2903.449],[-91.8111,15.0715,2808.7307]]]]}
,"properties": {"GID_2": "GTM.17.20_1","GID_0": "GTM","country": "Guatemala","GID_1": "GTM.17_1","province": "SanMarcos","NL_NAME_1": "NA","county": "SanMarcos","VARNAME_2": "NA","NL_NAME_2": "NA","TYPE_2": "Municipio","ENGTYPE_2": "Municipality","CC_2": "NA","HASC_2": "NA","name": "San_Marcos.county","area_km2": 126.38371,"hist_schema_id": "Elevation0-9000","hist_area_km2": {"1250": 0.02049,"1275": 0.04097,"1300": 0.02049,"1325": 0.06146,"1350": 0.10242,"1375": 0.14339,"1400": 0.14339,"1425": 0.20484,"1450": 0.18436,"1475": 0.28678,"1500": 0.34823,"1525": 0.32774,"1550": 0.36871,"1575": 0.38919,"1600": 0.3892,"1625": 0.57355,"1650": 0.5121,"1675": 0.5121,"1700": 0.61451,"1725": 0.47113,"1750": 0.67595,"1775": 0.55305,"1800": 0.75787,"1825": 0.53257,"1850": 0.57353,"1875": 0.59401,"1900": 0.6145,"1925": 0.63497,"1950": 0.75787,"1975": 0.86029,"2000": 1.04465,"2025": 1.2085,"2050": 0.83986,"2075": 1.02415,"2100": 1.22903,"2125": 1.35191,"2150": 1.18809,"2175": 1.41337,"2200": 1.65917,"2225": 1.84352,"2250": 1.41338,"2275": 1.39286,"2300": 1.90497,"2325": 1.94601,"2350": 1.88455,"2375": 3.05214,"2400": 4.11723,"2425": 2.86767,"2450": 2.53987,"2475": 2.39645,"2500": 2.45788,"2525": 2.43741,"2550": 2.13015,"2575": 1.63852,"2600": 1.72045,"2625": 1.49514,"2650": 1.72049,"2675": 1.57705,"2700": 1.61802,"2725": 1.80223,"2750": 1.72032,"2775": 1.9865,"2800": 1.86367,"2825": 1.94549,"2850": 1.84303,"2875": 2.64147,"2900": 3.2352,"2925": 4.23855,"2950": 3.72682,"2975": 2.8054,"3000": 2.25249,"3025": 2.21155,"3050": 1.96578,"3075": 2.10909,"3100": 1.80191,"3125": 1.76098,"3150": 2.02718,"3175": 1.65859,"3200": 1.90433,"3225": 1.69955,"3250": 1.6586,"3275": 1.4129,"3300": 1.35148,"3325": 1.35148,"3350": 1.02384,"3375": 0.90099,"3400": 0.94195,"3425": 0.79862,"3450": 0.7167,"3475": 0.67576,"3500": 0.49146,"3525": 0.47098,"3550": 0.38908,"3575": 0.22525,"3600": 0.10238,"3625": 0.22524,"3650": 0.10238,"3675": 0.10238,"3700": 0.04095,"3725": 0.0819,"3750": 0.0819,"3775": 0.0819,"3800": 0.04095,"3825": 0.04095,"3850": 0.04095,"3875": 0.0819,"3900": 0.06143,"3925": 0.0819,"3950": 0.04095,"3975": 0.04095,"4000": 0.06143,"4025": 0.0819}}}