{"type": "Feature","bbox": [-90.5345,14.6789,-90.4458,14.776],"geometry": {"type": "MultiPolygon","coordinates": [[[[-90.5188,14.6807,1368.8186],[-90.51,14.6888,1295.9583],[-90.4979,14.6897,1301.3733],[-90.4958,14.6858,1339.2656],[-90.4968,14.6845,1377.0062],[-90.4931,14.682,1428.3081],[-90.4947,14.6793,1429.8798],[-90.4876,14.6789,1438.7732],[-90.4776,14.6822,1437.4285],[-90.4798,14.6869,1354.2968],[-90.477,14.6949,1480.0149],[-90.4687,14.6932,1632.2867],[-90.4544,14.7002,1450.7471],[-90.4508,14.7078,1384.8252],[-90.448,14.7085,1371.3206],[-90.446,14.7175,1402.2393],[-90.4523,14.7224,1458.4143],[-90.4501,14.7315,1397.8669],[-90.4458,14.7384,1399.4633],[-90.448,14.7392,1425.5017],[-90.4519,14.7364,1435.9988],[-90.4545,14.7367,1451.1169],[-90.4586,14.7437,1435.7106],[-90.4634,14.7422,1424.248],[-90.4698,14.7473,1538.1055],[-90.4714,14.7622,1365.8257],[-90.4749,14.7682,1433.7096],[-90.496,14.7666,1310.0282],[-90.5027,14.7691,1164.6901],[-90.5205,14.7687,1421.359],[-90.5217,14.7715,1366.4358],[-90.5271,14.776,1476.0295],[-90.5345,14.766,1522.407],[-90.5321,14.7527,1372.5222],[-90.5184,14.7533,1285.2339],[-90.5051,14.7612,1205.3615],[-90.5031,14.7552,1154.6298],[-90.5078,14.7449,1186.7848],[-90.5049,14.7423,1176.6023],[-90.5062,14.7379,1297.5164],[-90.5113,14.7311,1359.2312],[-90.5082,14.7289,1261.9918],[-90.5091,14.7257,1312.071],[-90.5162,14.7237,1319.4554],[-90.5183,14.7129,1361.047],[-90.5204,14.7098,1403.0854],[-90.5167,14.7086,1389.3887],[-90.5179,14.7049,1334.3029],[-90.5105,14.7001,1319.2726],[-90.505,14.7006,1301.15],[-90.5109,14.6953,1389.0847],[-90.5144,14.6953,1345.8016],[-90.5167,14.689,1357.076],[-90.5224,14.6867,1429.2075],[-90.5251,14.6829,1402.3599],[-90.5195,14.6821,1435.0436],[-90.5188,14.6807,1368.8186]]]]}
,"properties": {"GID_2": "GTM.7.2_1","GID_0": "GTM","country": "Guatemala","GID_1": "GTM.7_1","province": "Guatemala","NL_NAME_1": "NA","county": "Chinautla","VARNAME_2": "NA","NL_NAME_2": "NA","TYPE_2": "Municipio","ENGTYPE_2": "Municipality","CC_2": "NA","HASC_2": "NA","name": "Chinautla.county","area_km2": 55.75506,"hist_schema_id": "Elevation0-9000","hist_area_km2": {"1075": 0.0205,"1100": 0.10251,"1125": 1.25071,"1150": 1.55829,"1175": 2.23503,"1200": 2.93227,"1225": 3.11684,"1250": 2.72728,"1275": 2.9939,"1300": 2.85036,"1325": 2.66579,"1350": 2.85042,"1375": 2.89134,"1400": 3.58858,"1425": 4.42929,"1450": 4.28559,"1475": 3.50631,"1500": 3.13727,"1525": 2.5222,"1550": 2.35824,"1575": 1.66106,"1600": 1.14842,"1625": 0.32813,"1650": 0.59474}}}