{"type": "Feature","bbox": [-90.2778,14.4716,-90.1085,14.6758],"geometry": {"type": "MultiPolygon","coordinates": [[[[-90.2035,14.6758,1159.5952],[-90.2158,14.6621,1112.2362],[-90.214,14.6484,1312.1174],[-90.2181,14.6371,1328.9139],[-90.222,14.6348,1173.6993],[-90.2269,14.6343,1251.9189],[-90.2677,14.6026,1584.993],[-90.2591,14.5622,2079.0674],[-90.2512,14.5489,1721.7319],[-90.2628,14.5479,2086.5405],[-90.2778,14.5175,1845.9375],[-90.2635,14.508,1976.9424],[-90.2591,14.5132,2123.3992],[-90.2572,14.5128,2112.0317],[-90.2567,14.5089,2063.1494],[-90.2531,14.5082,2124.9209],[-90.2574,14.4827,1871.2173],[-90.2441,14.4716,1935.0724],[-90.2345,14.4791,1979.2938],[-90.1436,14.5004,2005.5714],[-90.1186,14.4944,1958.6528],[-90.1179,14.5008,2017.4492],[-90.1226,14.5091,2099.0752],[-90.1222,14.5145,2136.4766],[-90.1085,14.5263,2385.2969],[-90.1357,14.5632,2298.3613],[-90.1383,14.5717,2291.3945],[-90.1382,14.5837,2187.3916],[-90.1403,14.5955,1972.3785],[-90.1393,14.6016,1777.9719],[-90.1324,14.6065,1666.8571],[-90.1321,14.6087,1759.2646],[-90.1344,14.6109,1687.6594],[-90.1325,14.6134,1656.0233],[-90.1354,14.6163,1747.4518],[-90.1414,14.6128,1694.0585],[-90.1466,14.612,1544.3824],[-90.1684,14.6146,1403.0282],[-90.1822,14.6246,1280.3645],[-90.1755,14.6297,1379.8959],[-90.1867,14.6326,1201.8732],[-90.2035,14.6758,1159.5952]]]]}
,"properties": {"GID_2": "GTM.10.2_1","GID_0": "GTM","country": "Guatemala","GID_1": "GTM.10_1","province": "Jalapa","NL_NAME_1": "NA","county": "Mataquescuintla","VARNAME_2": "NA","NL_NAME_2": "NA","TYPE_2": "Municipio","ENGTYPE_2": "Municipality","CC_2": "NA","HASC_2": "NA","name": "Mataquescuintla.county","area_km2": 227.1933,"hist_schema_id": "Elevation0-9000","hist_area_km2": {"1000": 0.0615,"1025": 0.2461,"1050": 0.3282,"1075": 0.4102,"1100": 0.4308,"1125": 0.841,"1150": 0.6769,"1175": 1.0052,"1200": 1.1488,"1225": 1.6001,"1250": 1.6206,"1275": 1.9284,"1300": 2.3593,"1325": 2.626,"1350": 3.1595,"1375": 3.5084,"1400": 3.2212,"1425": 3.6933,"1450": 4.3295,"1475": 4.4116,"1500": 5.4172,"1525": 6.0327,"1550": 6.4637,"1575": 7.0999,"1600": 8.085,"1625": 6.9975,"1650": 6.2177,"1675": 5.9306,"1700": 6.936,"1725": 6.4641,"1750": 7.4082,"1775": 6.4027,"1800": 6.6492,"1825": 5.8286,"1850": 6.2596,"1875": 6.7114,"1900": 7.1427,"1925": 7.5326,"1950": 6.4858,"1975": 4.8437,"2000": 4.4538,"2025": 4.3716,"2050": 4.0226,"2075": 3.7559,"2100": 3.407,"2125": 3.3249,"2150": 2.9759,"2175": 2.545,"2200": 2.3602,"2225": 2.1345,"2250": 2.2371,"2275": 1.8061,"2300": 1.8266,"2325": 1.9908,"2350": 1.8676,"2375": 2.0934,"2400": 1.5598,"2425": 1.5188,"2450": 1.3135,"2475": 1.3135,"2500": 1.4572,"2525": 1.0057,"2550": 1.5803,"2575": 1.3341,"2600": 1.3135,"2625": 0.5952,"2650": 0.39,"2675": 0.1231}}}