{"type":"Feature","properties":{"GID_2":"GTM.21.1_1","GID_0":"GTM","country":"Guatemala","GID_1":"GTM.21_1","province":"Totonicapán","NL_NAME_1":"NA","county":"Momostenango","VARNAME_2":"NA","NL_NAME_2":"NA","TYPE_2":"Municipio","ENGTYPE_2":"Municipality","CC_2":"NA","HASC_2":"NA","name":"Momostenango.county"},
"geometry":{"type": "MultiPolygon","coordinates": [[[[-91.3721,15.2126,1660.4978],[-91.3815,15.2107,1612.1967],[-91.3882,15.1373,1767.527],[-91.3912,15.1319,1798.0707],[-91.4019,15.127,1933.2805],[-91.4055,15.1186,1866.8073],[-91.4296,15.11,1920.3992],[-91.4381,15.0946,2083.4182],[-91.4355,15.083,2229.0627],[-91.4441,15.0714,2298.5784],[-91.4578,15.0719,2343.3513],[-91.4722,15.0689,2260.2861],[-91.4766,15.0707,2340.4102],[-91.4818,15.0813,2411.1331],[-91.4713,15.0878,2225.3965],[-91.4708,15.0912,2210.5566],[-91.4745,15.0995,2216.8555],[-91.485,15.106,2136.8909],[-91.4898,15.1,2292.7695],[-91.5016,15.1064,2209.9937],[-91.5032,15.1157,2291.1809],[-91.5002,15.1209,2143.6399],[-91.5082,15.1253,2130.8267],[-91.5163,15.1411,2115.9944],[-91.5485,15.1114,2628.4004],[-91.5437,15.0306,2884.8306],[-91.5351,15.0239,2694.4983],[-91.534,15.019,2699.9595],[-91.5214,15.0103,2682.804],[-91.5126,14.9992,2626.0801],[-91.5098,14.9927,2598.9751],[-91.4994,14.9935,2689.564],[-91.4952,15.0113,2768.5449],[-91.4852,15.0208,2758.2395],[-91.4796,15.0186,2752.0981],[-91.4775,15.0147,2726.5847],[-91.4712,15.0103,2727.3167],[-91.4633,15.0098,2700.0103],[-91.462,15.0064,2719.7695],[-91.463,15.0007,2725.3088],[-91.4602,14.9987,2722.4551],[-91.4603,14.9916,2754.5269],[-91.457,14.9865,2772.7312],[-91.4581,14.9816,2808.2788],[-91.4539,14.9746,2697.7981],[-91.4454,14.9695,2851.0439],[-91.4225,14.9717,2815.7788],[-91.4185,14.9778,2679.6624],[-91.4091,14.9812,2593.4773],[-91.3995,15.0019,2428.0435],[-91.3891,15.0107,2345.9531],[-91.376,15.0282,2241.657],[-91.378,15.037,2153.8752],[-91.3747,15.0419,2110.6199],[-91.354,15.0567,2096.4785],[-91.3446,15.0694,1948.5281],[-91.3411,15.0715,1989.561],[-91.3353,15.0722,1912.8585],[-91.318,15.0807,1880.7057],[-91.3155,15.0835,1931.2771],[-91.3119,15.1013,1837.9541],[-91.3001,15.1081,1872.1211],[-91.2938,15.1152,1883.4447],[-91.2874,15.1298,1785.6414],[-91.3011,15.1419,1793.6027],[-91.3052,15.1385,1789.5133],[-91.3067,15.1389,1795.7947],[-91.3104,15.1507,1718.9105],[-91.3127,15.1498,1775.9093],[-91.3131,15.1452,1852.844],[-91.32,15.1393,1891.77],[-91.3254,15.1591,1714.9285],[-91.3318,15.1584,1804.3167],[-91.3333,15.1604,1758.6106],[-91.33,15.1631,1751.718],[-91.3284,15.1711,1701.0027],[-91.329,15.1853,1673.1689],[-91.3255,15.1917,1711.3896],[-91.3256,15.1985,1607.0476],[-91.3171,15.2092,1575.8234],[-91.3208,15.2128,1585.6962],[-91.3179,15.22,1573.4706],[-91.3171,15.2277,1650.113],[-91.3144,15.2305,1571.1384],[-91.3145,15.2357,1589.3333],[-91.3108,15.244,1569.3014],[-91.3198,15.2494,1517.8359],[-91.3276,15.2343,1569.1865],[-91.3401,15.2331,1654.5209],[-91.343,15.2344,1643.0432],[-91.347,15.2315,1642.7617],[-91.3551,15.2296,1639.1677],[-91.3613,15.2261,1614.38],[-91.3721,15.2126,1660.4978]]]]}}