{"type": "Feature","id": "1953","bbox": [-90.89147,14.40491,-90.61759,14.77791],"geometry": {"type": "Polygon","coordinates": [[[-90.70978,14.74747,1670.1511],[-90.71926,14.74778,1691.9734],[-90.7288,14.74985,1600.7896],[-90.74195,14.75739,1325.9446],[-90.76523,14.77791,1880.877],[-90.78086,14.75026,1594.2935],[-90.78378,14.73771,1434.5701],[-90.77823,14.70882,1715.4615],[-90.77492,14.69931,1744.63],[-90.77182,14.68153,1848.7955],[-90.77156,14.67544,1866.8804],[-90.77187,14.67094,1886.1194],[-90.77474,14.66603,1931.9591],[-90.78078,14.65869,1857.1312],[-90.79409,14.63068,1758.6448],[-90.81931,14.61291,1770.55],[-90.8644,14.56423,2442.501],[-90.88607,14.52371,2778.4546],[-90.89147,14.49622,2922.1626],[-90.89085,14.49043,2661.7979],[-90.89054,14.4893,2731.8831],[-90.86109,14.46449,2371.8918],[-90.85305,14.45612,1794.2295],[-90.85205,14.45369,1666.8945],[-90.85135,14.4509,1700.7284],[-90.84375,14.43519,1277.4961],[-90.83125,14.41509,979.562],[-90.82497,14.40806,888.9811],[-90.82021,14.40491,855.9466],[-90.79378,14.42698,1127.8123],[-90.78706,14.43442,1326.4255],[-90.78549,14.43643,1367.8672],[-90.78058,14.44527,1521.082],[-90.77587,14.45116,1804.9625],[-90.77358,14.45328,1884.4778],[-90.77166,14.45462,1957.9456],[-90.76301,14.45932,2396.2949],[-90.74851,14.45932,3128.3967],[-90.74272,14.46274,3595.2747],[-90.73776,14.47018,3428.6338],[-90.7311,14.47214,2980.5967],[-90.72725,14.46945,2866.2627],[-90.72577,14.46728,2781.0989],[-90.71469,14.44403,1884.623],[-90.65051,14.46873,1343.4412],[-90.64188,14.50625,1439.2618],[-90.63464,14.58655,2007.6606],[-90.62942,14.59875,1952.1957],[-90.62105,14.60789,1870.6937],[-90.62302,14.61957,1946.8469],[-90.61759,14.63781,1764.0045],[-90.61816,14.64531,1793.6134],[-90.61948,14.64758,1816.3618],[-90.62911,14.65849,2017.0933],[-90.6425,14.67342,2210.7798],[-90.65133,14.70205,1978.79],[-90.68151,14.73951,1751.2145],[-90.69159,14.74882,1691.7761],[-90.69451,14.74944,1718.4438],[-90.69759,14.74949,1743.3802],[-90.70978,14.74747,1670.1511]]]}
,"properties": {"ISO3166-1-Alpha-3": "GTM","country": "Guatemala","fill": "#F00","name": "Sacatepéquez","area_km2": 685.5591,"hist_schema_id": "Elevation0-9000","hist_area_km2": {"825": 0.0411,"850": 0.2054,"875": 0.3491,"900": 0.4107,"925": 0.5955,"950": 0.7803,"975": 0.883,"1000": 0.8419,"1025": 0.883,"1050": 0.924,"1075": 1.0883,"1100": 1.0883,"1125": 1.1909,"1150": 1.2525,"1175": 1.3757,"1200": 1.2935,"1225": 1.622,"1250": 1.9093,"1275": 2.0116,"1300": 2.2785,"1325": 2.976,"1350": 3.6324,"1375": 4.8641,"1400": 5.1308,"1425": 5.9307,"1450": 9.6044,"1475": 12.7032,"1500": 10.6711,"1525": 23.1697,"1550": 18.6939,"1575": 13.4614,"1600": 13.0709,"1625": 12.3523,"1650": 13.6657,"1675": 14.1376,"1700": 14.7119,"1725": 15.5121,"1750": 21.8298,"1775": 25.0507,"1800": 19.8807,"1825": 22.4647,"1850": 23.2446,"1875": 24.907,"1900": 26.2611,"1925": 26.1797,"1950": 25.011,"1975": 23.1241,"2000": 19.739,"2025": 18.7954,"2050": 18.8366,"2075": 20.3546,"2100": 16.3943,"2125": 14.9581,"2150": 14.0138,"2175": 16.3522,"2200": 12.7009,"2225": 8.126,"2250": 6.5257,"2275": 5.3153,"2300": 5.0281,"2325": 3.7968,"2350": 3.7556,"2375": 3.3043,"2400": 2.8117,"2425": 2.5039,"2450": 2.3808,"2475": 2.0525,"2500": 1.3547,"2525": 1.1084,"2550": 1.17,"2575": 1.1906,"2600": 1.0469,"2625": 0.9853,"2650": 0.9032,"2675": 0.9853,"2700": 1.0879,"2725": 0.8416,"2750": 0.8416,"2775": 0.6364,"2800": 0.8211,"2825": 0.7595,"2850": 0.8006,"2875": 0.6569,"2900": 0.6364,"2925": 0.8622,"2950": 0.5953,"2975": 0.7185,"3000": 0.5337,"3025": 0.8211,"3050": 0.5953,"3075": 0.6158,"3100": 0.7595,"3125": 0.8211,"3150": 0.9648,"3175": 0.5132,"3200": 0.8621,"3225": 0.6979,"3250": 0.6569,"3275": 0.5132,"3300": 0.6774,"3325": 0.6774,"3350": 0.6363,"3375": 0.6363,"3400": 0.5542,"3425": 0.4516,"3450": 0.2669,"3475": 0.4927,"3500": 0.5542,"3525": 0.2669,"3550": 0.2258,"3575": 0.2669,"3600": 0.1642,"3625": 0.349,"3650": 0.2258,"3675": 0.3284,"3700": 0.2463,"3725": 0.2258,"3750": 0.1847,"3775": 0.2258,"3800": 0.1232,"3825": 0.1232,"3850": 0.0616,"3875": 0.0616,"3900": 0.0411,"3925": 0.0616,"3950": 0.0616}}}