{"type":"Feature","properties":{"GID_1":"GTM.16_1","GID_0":"GTM","country":"Guatemala","province":"Sacatepéquez","VARNAME_1":"NA","NL_NAME_1":"NA","TYPE_1":"Departamento","ENGTYPE_1":"Department","CC_1":"NA","HASC_1":"GT.SA","ISO_1":"NA","name":"Sacatepéquez.province"},
"geometry":{"type": "MultiPolygon","coordinates": [[[[-90.632,14.5601,1706.4922],[-90.6319,14.563,1752.2991],[-90.6221,14.5795,1753.8357],[-90.6225,14.5882,1914.3229],[-90.6172,14.5862,1702.6567],[-90.6099,14.5872,1643.2131],[-90.6051,14.5854,1562.1399],[-90.6029,14.5903,1533.4583],[-90.6117,14.5984,1652.0682],[-90.62,14.6016,1830.4543],[-90.6286,14.6021,1970.5769],[-90.6296,14.6036,1970.5769],[-90.6304,14.6217,2202.4712],[-90.6277,14.6247,2039.3521],[-90.6291,14.6283,2089.291],[-90.6342,14.6282,2130.7476],[-90.6362,14.6314,2120.9612],[-90.6309,14.6539,2031.6191],[-90.6321,14.6588,2028.8512],[-90.6424,14.6636,2168.1526],[-90.666,14.6684,2188.8982],[-90.6675,14.6705,2196.0222],[-90.6672,14.6827,2069.0005],[-90.6723,14.7057,1922.9385],[-90.6894,14.7081,1948.0305],[-90.6942,14.7005,1950.8149],[-90.6992,14.7015,1941.6104],[-90.7047,14.6945,1779.8008],[-90.7115,14.6963,1797.1564],[-90.7216,14.6963,1758.6768],[-90.7269,14.7005,1739.7473],[-90.7325,14.6994,1716.4562],[-90.7388,14.7077,1706.7004],[-90.7392,14.7114,1684.921],[-90.7534,14.7219,1500.9165],[-90.7593,14.711,1561.5529],[-90.7625,14.7086,1640.1913],[-90.766,14.7094,1631.8812],[-90.7708,14.6902,1746.8354],[-90.7592,14.6619,1974.8699],[-90.7635,14.6505,1957.4154],[-90.7684,14.6429,1785.9569],[-90.7747,14.6401,1779.1458],[-90.7782,14.6342,1747.0988],[-90.7775,14.6271,1754.7562],[-90.7828,14.632,1775.8973],[-90.7907,14.6242,1680.5103],[-90.7889,14.6111,1757.1548],[-90.7923,14.6053,1722.1595],[-90.7933,14.5952,1774.2488],[-90.8,14.5884,1814.8801],[-90.8007,14.5814,1833.7053],[-90.8044,14.5794,1931.9426],[-90.8043,14.5727,1998.4681],[-90.8117,14.5608,2119.7563],[-90.8181,14.5547,1973.6858],[-90.8202,14.5546,1956.8262],[-90.8359,14.5604,2085.46],[-90.8498,14.5592,2378.158],[-90.8616,14.5333,2443.9189],[-90.8684,14.5314,2641.7893],[-90.8742,14.5032,3856.3652],[-90.8732,14.4979,3815.625],[-90.88,14.4716,3531.769],[-90.8675,14.465,2672.3259],[-90.8528,14.45,1597.9596],[-90.8434,14.4473,1484.2319],[-90.8342,14.43,1152.8132],[-90.8339,14.423,1083.2639],[-90.8253,14.4174,965.4998],[-90.8193,14.4089,853.0752],[-90.8161,14.4077,836.5322],[-90.816,14.3876,707.9014],[-90.8108,14.378,677.903],[-90.8084,14.3776,668.9941],[-90.8075,14.3868,732.4832],[-90.8031,14.4009,859.9502],[-90.7939,14.4076,950.3606],[-90.7835,14.4297,1312.165],[-90.7815,14.4312,1344.8619],[-90.7734,14.4297,1385.9185],[-90.767,14.4392,1663.3816],[-90.7441,14.4578,3165.5083],[-90.7416,14.4636,3595.2747],[-90.7194,14.4244,1489.0154],[-90.6511,14.4764,1349.5233],[-90.6596,14.4833,1450.0662],[-90.6664,14.492,1714.8958],[-90.6639,14.4987,2103.4194],[-90.6638,14.5062,1852.4668],[-90.6566,14.5218,1728.5254],[-90.6586,14.5284,2085.0786],[-90.6577,14.5334,2152.7053],[-90.6492,14.5547,1749.723],[-90.644,14.5548,1696.7527],[-90.632,14.5601,1706.4922]]]]}}