{"type":"Feature","properties":{"GID_2":"GTM.7.21_1","GID_0":"GTM","country":"Guatemala","GID_1":"GTM.7_1","province":"Guatemala","NL_NAME_1":"NA","county":"ZONA13","VARNAME_2":"NA","NL_NAME_2":"NA","TYPE_2":"Municipio","ENGTYPE_2":"Municipality","CC_2":"NA","HASC_2":"NA","name":"Z_O_N_A13.county"},
"geometry":{"type": "MultiPolygon","coordinates": [[[[-90.5294,14.5592,1385.0911],[-90.5333,14.5583,1373.9346],[-90.5322,14.5659,1434.5138],[-90.5267,14.5771,1490.5756],[-90.5211,14.5948,1507.0527],[-90.529,14.6012,1518.3574],[-90.5329,14.6076,1537.2139],[-90.5373,14.6058,1529.2257],[-90.5357,14.6035,1524.1171],[-90.5386,14.6011,1521.7933],[-90.5376,14.5858,1476.6122],[-90.5442,14.5656,1445.5812],[-90.5432,14.5617,1444.7288],[-90.538,14.5576,1407.8058],[-90.5391,14.5569,1399.9707],[-90.535,14.5498,1360.8861],[-90.5294,14.5592,1385.0911]]]]}}