{"type":"Feature","properties":{"GID_2":"GTM.11.16_1","GID_0":"GTM","country":"Guatemala","GID_1":"GTM.11_1","province":"Jutiapa","NL_NAME_1":"NA","county":"Yupiltepeque","VARNAME_2":"NA","NL_NAME_2":"NA","TYPE_2":"Municipio","ENGTYPE_2":"Municipality","CC_2":"NA","HASC_2":"NA","name":"Yupiltepeque.county"},
"geometry":{"type": "MultiPolygon","coordinates": [[[[-89.7791,14.2354,872.5963],[-89.7965,14.2327,1263.3662],[-89.8007,14.2306,1362.2694],[-89.8054,14.225,1267.214],[-89.8095,14.2237,1232.5774],[-89.8091,14.2196,1320.4349],[-89.8119,14.2144,1343.9287],[-89.8112,14.2044,1265.0193],[-89.8138,14.2022,1260.8099],[-89.8075,14.1864,1165.3218],[-89.8069,14.1729,971.443],[-89.812,14.164,1017.9224],[-89.8077,14.1574,938.48],[-89.8042,14.155,910.8191],[-89.7898,14.1585,911.3672],[-89.7803,14.1588,938.1713],[-89.7774,14.1537,921.6207],[-89.7816,14.1459,952.6465],[-89.78,14.1407,980.4869],[-89.7762,14.1406,939.2121],[-89.7891,14.1312,1140.9547],[-89.7963,14.118,1047.9541],[-89.7988,14.1047,951.7922],[-89.7966,14.1032,966.0869],[-89.7942,14.1033,970.3276],[-89.791,14.1061,966.6265],[-89.786,14.1049,1008.1516],[-89.7768,14.1172,877.8499],[-89.7734,14.1249,929.214],[-89.7635,14.1203,880.5443],[-89.7517,14.1264,929.8394],[-89.7585,14.1382,894.4327],[-89.7619,14.1386,899.6578],[-89.7624,14.1407,871.9296],[-89.7606,14.1438,857.7987],[-89.7545,14.147,868.9423],[-89.7535,14.1574,748.9799],[-89.7554,14.1584,767.5611],[-89.7512,14.1651,722.9127],[-89.7633,14.1733,774.847],[-89.764,14.1759,858.4379],[-89.7696,14.1815,1039.2502],[-89.7678,14.1857,995.9366],[-89.7655,14.1844,1027.0201],[-89.7587,14.187,1005.7477],[-89.7601,14.2001,985.7943],[-89.7629,14.2019,954.3147],[-89.7656,14.2011,913.0439],[-89.763,14.2083,920.2229],[-89.7659,14.2314,616.4684],[-89.7719,14.2286,693.2446],[-89.7741,14.233,742.9494],[-89.7791,14.2354,872.5963]]]]}}