{"type": "Feature","bbox": [-91.1026,14.3734,-90.8732,14.5182],"geometry": {"type": "MultiPolygon","coordinates": [[[[-91.031,14.5031,793.4859],[-91.0318,14.4986,875.6682],[-91.0389,14.4975,770.8419],[-91.0464,14.4875,833.0635],[-91.0412,14.4846,918.83],[-91.0393,14.4791,818.1597],[-91.0441,14.4767,869.2435],[-91.0488,14.4636,839.6927],[-91.0717,14.4631,763.3178],[-91.077,14.4648,780.6682],[-91.081,14.4689,675.3124],[-91.0993,14.4647,559.4898],[-91.1026,14.4489,546.1538],[-91.0958,14.4489,547.0874],[-91.0943,14.4435,534.0264],[-91.096,14.4327,549.7168],[-91.1002,14.4277,565.2757],[-91.0972,14.4179,473.1271],[-91.1007,14.4124,463.9526],[-91.0955,14.4106,486.6392],[-91.0943,14.4064,446.8898],[-91.0901,14.4057,413.5495],[-91.0849,14.401,480.0545],[-91.0806,14.4057,506.1741],[-91.0758,14.4069,525.2735],[-91.0724,14.4105,566.8203],[-91.0704,14.417,583.559],[-91.059,14.4192,658.2015],[-91.0523,14.4285,701.0948],[-91.0392,14.4277,750.9069],[-91.0381,14.4239,710.485],[-91.0364,14.4272,760.4116],[-91.0328,14.426,745.6685],[-91.0298,14.416,685.2604],[-91.0323,14.4064,613.397],[-91.0177,14.4122,732.4122],[-91.0156,14.4215,740.1257],[-91.0102,14.4231,834.7374],[-91.0084,14.4333,880.6866],[-90.9986,14.4392,909.973],[-90.9967,14.4368,923.4116],[-90.9992,14.433,883.1234],[-90.9974,14.4297,878.4337],[-90.9949,14.4313,894.7598],[-90.9879,14.4288,908.8459],[-90.9889,14.4202,851.176],[-90.9821,14.4193,818.5004],[-90.9798,14.4116,749.5961],[-90.9759,14.409,769.0482],[-90.9774,14.3975,679.6422],[-90.973,14.3734,603.7499],[-90.9673,14.3803,647.4806],[-90.968,14.3842,665.8796],[-90.9641,14.392,706.5978],[-90.9566,14.3956,759.7485],[-90.9382,14.4191,974.0751],[-90.9322,14.4247,1066.8756],[-90.9226,14.4273,1154.3049],[-90.9099,14.4383,1488.3196],[-90.8912,14.4498,2085.2979],[-90.88,14.4716,3531.769],[-90.8732,14.4979,3815.625],[-90.9011,14.5159,2399.7681],[-90.9054,14.5165,2283.1587],[-90.9216,14.5125,1919.0122],[-90.9401,14.5126,1631.7708],[-90.9641,14.5182,1398.5554],[-90.967,14.5153,1399.9208],[-90.9732,14.5139,1204.603],[-90.9867,14.5155,1062.6189],[-90.9942,14.5125,1028.7346],[-90.9952,14.5083,1133.7056],[-91.0137,14.4993,923.7966],[-91.0226,14.5042,833.0703],[-91.031,14.5031,793.4859]]]]}
,"properties": {"GID_2": "GTM.3.15_1","GID_0": "GTM","country": "Guatemala","GID_1": "GTM.3_1","province": "Chimaltenango","NL_NAME_1": "NA","county": "Yepocapa","VARNAME_2": "NA","NL_NAME_2": "NA","TYPE_2": "Municipio","ENGTYPE_2": "Municipality","CC_2": "NA","HASC_2": "NA","name": "Yepocapa.county","area_km2": 205.6133,"hist_schema_id": "Elevation0-9000","hist_area_km2": {"400": 0.1027,"425": 0.2875,"450": 0.8624,"475": 1.9302,"500": 1.8275,"525": 1.9096,"550": 2.0944,"575": 2.7103,"600": 2.7309,"625": 3.121,"650": 3.2237,"675": 3.3469,"700": 3.6549,"725": 4.5994,"750": 4.7432,"775": 5.5028,"800": 5.4822,"825": 5.2358,"850": 5.3795,"875": 5.2152,"900": 5.5641,"925": 5.6256,"950": 5.4408,"975": 5.5845,"1000": 6.1182,"1025": 4.9068,"1050": 5.2147,"1075": 4.8862,"1100": 5.0299,"1125": 4.8246,"1150": 3.8596,"1175": 3.8596,"1200": 4.0032,"1225": 3.7363,"1250": 3.1409,"1275": 2.9972,"1300": 2.9356,"1325": 3.1203,"1350": 2.9356,"1375": 2.874,"1400": 2.6687,"1425": 2.4224,"1450": 2.3813,"1475": 2.1965,"1500": 1.9502,"1525": 1.868,"1550": 2.0939,"1575": 1.5601,"1600": 1.5807,"1625": 1.4164,"1650": 1.1701,"1675": 1.088,"1700": 0.7596,"1725": 0.8006,"1750": 0.9648,"1775": 0.9648,"1800": 0.6569,"1825": 0.8417,"1850": 0.7595,"1875": 0.739,"1900": 0.7185,"1925": 0.6774,"1950": 0.8006,"1975": 0.5543,"2000": 0.739,"2025": 0.6364,"2050": 0.5953,"2075": 0.6159,"2100": 0.6774,"2125": 0.5543,"2150": 0.3695,"2175": 0.4311,"2200": 0.6775,"2225": 0.5748,"2250": 0.4106,"2275": 0.5748,"2300": 0.6569,"2325": 0.4106,"2350": 0.5132,"2375": 0.2874,"2400": 0.4721,"2425": 0.5748,"2450": 0.3695,"2475": 0.3285,"2500": 0.4722,"2525": 0.4516,"2550": 0.2463,"2575": 0.3695,"2600": 0.3079,"2625": 0.3695,"2650": 0.39,"2675": 0.4721,"2700": 0.3079,"2725": 0.349,"2750": 0.39,"2775": 0.4927,"2800": 0.2053,"2825": 0.1848,"2850": 0.2258,"2875": 0.2874,"2900": 0.2669,"2925": 0.349,"2950": 0.1848,"2975": 0.2669,"3000": 0.2053,"3025": 0.4721,"3050": 0.1437,"3075": 0.1642,"3100": 0.1642,"3125": 0.2258,"3150": 0.39,"3175": 0.2258,"3200": 0.2258,"3225": 0.3695,"3250": 0.2258,"3275": 0.1642,"3300": 0.2053,"3325": 0.2463,"3350": 0.1848,"3375": 0.39,"3400": 0.1848,"3425": 0.2053,"3450": 0.1642,"3475": 0.2463,"3500": 0.1848,"3525": 0.1437,"3550": 0.1437,"3575": 0.2258,"3600": 0.0616,"3625": 0.1026,"3650": 0.0616,"3675": 0.1232,"3700": 0.1437,"3725": 0.0616,"3750": 0.0411,"3775": 0.0616,"3800": 0.0411,"3825": 0.0411,"3850": 0.0205,"3875": 0.0205,"3925": 0.0205}}}