{"type":"Feature","properties":{"GID_2":"GTM.10.6_1","GID_0":"GTM","country":"Guatemala","GID_1":"GTM.10_1","province":"Jalapa","NL_NAME_1":"NA","county":"SanManuelChaparrón","VARNAME_2":"NA","NL_NAME_2":"NA","TYPE_2":"Municipio","ENGTYPE_2":"Municipality","CC_2":"NA","HASC_2":"NA","name":"San_Manuel_Chaparrón.county"},
"geometry":{"type": "MultiPolygon","coordinates": [[[[-89.6855,14.5446,840.5413],[-89.6942,14.5408,840.7202],[-89.7023,14.5446,815.5515],[-89.7067,14.5426,823.7307],[-89.7107,14.5452,806.5291],[-89.7163,14.544,825.6914],[-89.7207,14.5484,863.1137],[-89.7425,14.5525,986.6302],[-89.7427,14.5647,929.4702],[-89.7496,14.5696,967.2141],[-89.7539,14.5769,985.2849],[-89.7541,14.5859,1054.729],[-89.7616,14.5815,1140.1874],[-89.7651,14.5722,1076.8608],[-89.7674,14.5709,1128.8669],[-89.7808,14.5769,1127.4535],[-89.7835,14.5738,1105.5964],[-89.7827,14.5673,1056.5352],[-89.7858,14.5596,1016.265],[-89.791,14.5597,1110.826],[-89.7943,14.5889,1382.7345],[-89.7968,14.5898,1379.4],[-89.8032,14.5777,1280.2212],[-89.8076,14.5758,1256.2111],[-89.8145,14.5758,1211.2683],[-89.8248,14.567,1116.0544],[-89.8381,14.5611,1096.4326],[-89.8331,14.5579,1097.0594],[-89.8281,14.5588,1240.4559],[-89.8263,14.5571,1181.5105],[-89.8329,14.5526,1107.4666],[-89.8363,14.5443,1036.7963],[-89.8357,14.5345,1017.4617],[-89.8374,14.5177,993.5495],[-89.8309,14.5137,931.2526],[-89.8195,14.5182,1019.8378],[-89.8178,14.5164,1034.851],[-89.8185,14.5152,1009.3467],[-89.812,14.5116,1006.4805],[-89.8029,14.4968,1008.8981],[-89.7966,14.4941,867.1956],[-89.7919,14.495,922.5848],[-89.7887,14.4936,901.7173],[-89.792,14.4889,807.5983],[-89.7902,14.487,865.183],[-89.7863,14.4863,876.0344],[-89.7731,14.4898,856.021],[-89.7569,14.4874,773.194],[-89.7547,14.4894,794.8697],[-89.7514,14.487,821.2552],[-89.751,14.4842,792.8691],[-89.6926,14.5075,852.0551],[-89.6693,14.5186,879.7045],[-89.6711,14.5259,875.0772],[-89.6793,14.5432,873.0826],[-89.6855,14.5446,840.5413]]]]}}