{"type":"Feature","properties":{"GID_2":"GTM.13.21_1","GID_0":"GTM","country":"Guatemala","GID_1":"GTM.13_1","province":"Quezaltenango","NL_NAME_1":"NA","county":"SanMateo","VARNAME_2":"NA","NL_NAME_2":"NA","TYPE_2":"Municipio","ENGTYPE_2":"Municipality","CC_2":"NA","HASC_2":"NA","name":"San_Mateo.county"},
"geometry":{"type": "MultiPolygon","coordinates": [[[[-91.5931,14.8243,3125.7944],[-91.5844,14.8108,3059.9756],[-91.5749,14.8191,3016.9214],[-91.57,14.8276,2809.094],[-91.5802,14.8563,2515.1541],[-91.5844,14.8611,2484.2004],[-91.588,14.8624,2483.3315],[-91.5927,14.8701,2480.1704],[-91.6036,14.8647,2510.5168],[-91.6029,14.8547,2602.9561],[-91.5942,14.8405,2802.2322],[-91.5931,14.8243,3125.7944]]]]}}