{"type": "Feature","bbox": [-89.8596,14.3577,-89.6659,14.5182],"geometry": {"type": "MultiPolygon","coordinates": [[[[-89.8596,14.4698,970.4156],[-89.8519,14.466,972.8413],[-89.8481,14.4606,999.7485],[-89.8465,14.4512,980.2537],[-89.8375,14.4402,1071.8726],[-89.8329,14.4386,1060.9387],[-89.8252,14.4414,1220.939],[-89.8184,14.4358,1217.0365],[-89.8122,14.4339,1352.4299],[-89.8119,14.4309,1283.2826],[-89.8148,14.4233,1207.5005],[-89.8133,14.4182,1117.3127],[-89.8222,14.4025,1156.8646],[-89.8213,14.3949,1149.9137],[-89.8228,14.3932,1082.2216],[-89.8267,14.3947,1044.0963],[-89.8279,14.3925,1001.34],[-89.8187,14.3806,1049.788],[-89.8186,14.3775,1030.8947],[-89.8114,14.3744,1025.8041],[-89.8086,14.3753,1053.6355],[-89.803,14.3814,1119.0125],[-89.7958,14.3736,1113.4878],[-89.7925,14.3726,1126.2773],[-89.7831,14.3749,1262.3401],[-89.776,14.3724,1186.3721],[-89.7729,14.3687,1101.3646],[-89.7685,14.3577,982.8951],[-89.7396,14.3865,843.2115],[-89.7394,14.3948,833.4894],[-89.737799999999993,14.3962,809.7153],[-89.7263,14.4015,693.3029],[-89.7246,14.4001,651.2374],[-89.7191,14.4002,613.3171],[-89.7153,14.4023,616.1857],[-89.7126,14.3999,670.7415],[-89.7007,14.4046,784.3136],[-89.6991,14.4087,823.6552],[-89.6743,14.4151,925.83],[-89.6665,14.4208,988.729],[-89.6659,14.4266,968.1225],[-89.6716,14.4288,1023.2191],[-89.6701,14.4384,970.3536],[-89.6771,14.4481,1005.7457],[-89.6807,14.4706,986.9937],[-89.6884,14.4789,934.976],[-89.6881,14.4874,907.7777],[-89.6902,14.4895,908.3827],[-89.6926,14.5075,852.0551],[-89.751,14.4842,792.8691],[-89.7514,14.487,821.2552],[-89.7547,14.4894,794.8697],[-89.7569,14.4874,773.194],[-89.7731,14.4898,856.021],[-89.7863,14.4863,876.0344],[-89.792,14.4889,807.5983],[-89.7887,14.4936,901.7173],[-89.7919,14.495,922.5848],[-89.7966,14.4941,867.1956],[-89.8029,14.4968,1008.8981],[-89.812,14.5116,1006.4805],[-89.8185,14.5152,1009.3467],[-89.8178,14.5164,1034.851],[-89.8195,14.5182,1019.8378],[-89.8309,14.5137,931.2526],[-89.8371,14.5006,968.652],[-89.8486,14.4886,963.6313],[-89.8497,14.4747,967.9962],[-89.8596,14.4698,970.4156]]]]}
,"properties": {"GID_2": "GTM.11.15_1","GID_0": "GTM","country": "Guatemala","GID_1": "GTM.11_1","province": "Jutiapa","NL_NAME_1": "NA","county": "SantaCatarinaMita","VARNAME_2": "NA","NL_NAME_2": "NA","TYPE_2": "Municipio","ENGTYPE_2": "Municipality","CC_2": "NA","HASC_2": "NA","name": "Santa_Catarina_Mita.county","area_km2": 205.5677,"hist_schema_id": "Elevation0-9000","hist_area_km2": {"600": 0.0411,"625": 0.3696,"650": 2.6694,"675": 6.139,"700": 5.441,"725": 6.5496,"750": 9.2392,"775": 8.0278,"800": 6.3236,"825": 8.705,"850": 8.2121,"875": 8.2941,"900": 9.0127,"925": 7.8427,"950": 8.7873,"975": 16.4445,"1000": 13.2013,"1025": 8.5001,"1050": 7.8229,"1075": 6.4884,"1100": 6.776,"1125": 4.846,"1150": 4.497,"1175": 4.9076,"1200": 5.3594,"1225": 4.4765,"1250": 3.7374,"1275": 2.4232,"1300": 1.8071,"1325": 1.5813,"1350": 1.2938,"1375": 1.3759,"1400": 1.1295,"1425": 0.7598,"1450": 1.0473,"1475": 1.0679,"1500": 0.6982,"1525": 0.7804,"1550": 0.7598,"1575": 0.7188,"1600": 0.6982,"1625": 0.7188,"1650": 0.6572,"1675": 0.575,"1700": 0.5134,"1725": 0.6366,"1750": 0.575,"1775": 0.4929,"1800": 0.5339,"1825": 0.2875,"1850": 0.3902,"1875": 0.2875,"1900": 0.3286,"1925": 0.267,"1950": 0.2259,"1975": 0.1232,"2000": 0.0616,"2025": 0.0411}}}