{"type":"Feature","properties":{"GID_2":"GTM.11.13_1","GID_0":"GTM","country":"Guatemala","GID_1":"GTM.11_1","province":"Jutiapa","NL_NAME_1":"NA","county":"Quezada","VARNAME_2":"NA","NL_NAME_2":"NA","TYPE_2":"Municipio","ENGTYPE_2":"Municipality","CC_2":"NA","HASC_2":"NA","name":"Quezada.county"},
"geometry":{"type": "MultiPolygon","coordinates": [[[[-90.0248,14.2014,1105.478],[-90.0235,14.2259,1052.6179],[-90.0077,14.2269,1050.1127],[-90.0029,14.2324,1084.7834],[-89.9996,14.2536,997.4781],[-89.9933,14.2589,921.1306],[-89.9927,14.2644,908.8412],[-89.9856,14.2728,1023.3435],[-89.9794,14.2873,1088.8639],[-89.9827,14.288,1073.3032],[-89.9836,14.2916,1062.0002],[-89.9907,14.2933,1112.1132],[-90.0022,14.2914,1090.5836],[-90.0216,14.2912,960.0131],[-90.0328,14.3246,1094.0369],[-90.0278,14.3357,1149.2742],[-90.0286,14.3401,1154.3195],[-90.0397,14.3442,1431.5034],[-90.0411,14.3357,1345.1609],[-90.0441,14.3347,1354.7047],[-90.0562,14.3477,1608.3311],[-90.0456,14.3608,1724.0288],[-90.0502,14.3767,1851.9283],[-90.0521,14.3791,1834.5658],[-90.0573,14.3793,1728.5469],[-90.0615,14.3859,1762.8391],[-90.0911,14.3542,1530.6443],[-90.1229,14.3568,1453.8348],[-90.1155,14.3425,1621.6173],[-90.1167,14.3342,1624.2166],[-90.1209,14.334,1667.0568],[-90.1131,14.326,1575.7944],[-90.1159,14.324,1556.048],[-90.1114,14.3182,1372.192],[-90.0911,14.3013,1240.6179],[-90.0823,14.2911,1179.1338],[-90.0807,14.2834,1207.1584],[-90.073,14.2775,1140.6836],[-90.0724,14.271,1023.6818],[-90.0675,14.2659,1065.4537],[-90.0673,14.2575,1068.1946],[-90.0624,14.2556,1018.1816],[-90.058,14.2462,1023.8594],[-90.0393,14.2447,990.9767],[-90.0393,14.2421,993.7632],[-90.0487,14.2347,1049.271],[-90.05,14.2289,1146.0062],[-90.056,14.2242,1117.8474],[-90.0575,14.2168,1120.7373],[-90.0619,14.2137,1123.0438],[-90.062,14.2066,1139.2858],[-90.0575,14.2047,1138.9905],[-90.0547,14.2069,1126.7058],[-90.0517,14.2131,1136.4602],[-90.0487,14.2128,1130.2299],[-90.0483,14.208,1151.8213],[-90.0443,14.2032,1160.6959],[-90.0439,14.1995,1185.9851],[-90.0497,14.2026,1162.4146],[-90.05,14.201,1141.8289],[-90.0418,14.185,1016.9822],[-90.036,14.1883,1158.5294],[-90.0334,14.1946,1170.1058],[-90.0307,14.193,1137.3192],[-90.0248,14.2014,1105.478]]]]}}