{"type":"Feature","properties":{"GID_2":"GTM.13.1_1","GID_0":"GTM","country":"Guatemala","GID_1":"GTM.13_1","province":"Quezaltenango","NL_NAME_1":"NA","county":"Almolonga","VARNAME_2":"NA","NL_NAME_2":"NA","TYPE_2":"Municipio","ENGTYPE_2":"Municipality","CC_2":"NA","HASC_2":"NA","name":"Almolonga.county"},
"geometry":{"type": "MultiPolygon","coordinates": [[[[-91.4614,14.8161,2455.9556],[-91.4839,14.8249,2630.1223],[-91.4897,14.8235,2404.3289],[-91.4925,14.8183,2276.8394],[-91.4977,14.8184,2342.2329],[-91.5036,14.816,2313.7214],[-91.507,14.8127,2583.5381],[-91.5074,14.8088,2635.0752],[-91.4997,14.8016,2630.6516],[-91.5004,14.792,2670.7144],[-91.4805,14.7867,2085.5488],[-91.4734,14.7902,2114.7095],[-91.47,14.7944,2289.8179],[-91.4679,14.8077,2568.4065],[-91.4641,14.8104,2452.3091],[-91.4614,14.8161,2455.9556]]]]}}