{"type":"Feature","properties":{"GID_2":"GTM.15.2_1","GID_0":"GTM","country":"Guatemala","GID_1":"GTM.15_1","province":"Retalhuleu","NL_NAME_1":"NA","county":"ElAsintal","VARNAME_2":"NA","NL_NAME_2":"NA","TYPE_2":"Municipio","ENGTYPE_2":"Municipality","CC_2":"NA","HASC_2":"NA","name":"El_Asintal.county"},
"geometry":{"type": "MultiPolygon","coordinates": [[[[-91.7854,14.553,166.4145],[-91.789,14.5403,135.4829],[-91.7928,14.534,103.7695],[-91.7966,14.5318,100.5471],[-91.7979,14.5249,111.0823],[-91.801,14.5206,101.2617],[-91.8008,14.514099999999999,87.6669],[-91.8026,14.5116,90.9631],[-91.8015,14.5059,87.3432],[-91.8055,14.5026,93.0474],[-91.8076,14.4973,79.5909],[-91.789,14.4993,97.7198],[-91.7857,14.4948,102.0474],[-91.7819,14.4981,100.3932],[-91.7699,14.5003,109.5477],[-91.7551,14.5063,130.5408],[-91.7455,14.5129,129.4555],[-91.7425,14.5105,135.2249],[-91.7281,14.5108,154.2529],[-91.7305,14.5138,163.1049],[-91.7287,14.5173,171.3618],[-91.7213,14.5205,166.8747],[-91.7208,14.5218,178.5302],[-91.723,14.5244,180.8489],[-91.7199,14.5403,192.4857],[-91.7241,14.5447,209.5739],[-91.7285,14.5605,247.5549],[-91.7163,14.5788,286.5355],[-91.7255,14.5993,380.5811],[-91.7311,14.6231,521.5587],[-91.7259,14.6386,607.2493],[-91.7163,14.658,670.9108],[-91.7339,14.668,701.2153],[-91.7325,14.6707,740.5045],[-91.7347,14.6727,694.3544],[-91.7421,14.6568,629.2106],[-91.7475,14.6479,530.4933],[-91.7505,14.6459,573.5441],[-91.755,14.6322,522.9265],[-91.7561,14.6114,436.1565],[-91.7541,14.6087,433.9544],[-91.7541,14.604799999999999,425.5276],[-91.7571,14.5901,350.5188],[-91.7807,14.5948,359.6196],[-91.7851,14.5882,329.6875],[-91.7878,14.5769,263.5551],[-91.7825,14.5652,198.5149],[-91.7854,14.553,166.4145]]]]}}