{"type":"Feature","properties":{"GID_2":"GTM.20.18_1","GID_0":"GTM","country":"Guatemala","GID_1":"GTM.20_1","province":"Suchitepéquez","NL_NAME_1":"NA","county":"SantoDomingoSuchitepequez","VARNAME_2":"NA","NL_NAME_2":"NA","TYPE_2":"Municipio","ENGTYPE_2":"Municipality","CC_2":"NA","HASC_2":"NA","name":"Santo_Domingo_Suchitepequez.county"},
"geometry":{"type": "MultiPolygon","coordinates": [[[[-91.4501,14.2513,42.0593],[-91.47,14.2553,44.998],[-91.4723,14.2574,46.2944],[-91.4718,14.2611,48.2932],[-91.4751,14.27,48.1964],[-91.477,14.2711,50.2733],[-91.4784,14.279,53.9274],[-91.4831,14.2816,55.0971],[-91.4871,14.2913,58.0293],[-91.4802,14.3031,61.6629],[-91.481,14.3059,63.5056],[-91.4782,14.3126,68.5784],[-91.4735,14.3166,69.3767],[-91.4729,14.3221,73.4683],[-91.4707,14.3242,74.8272],[-91.4669,14.3359,81.8131],[-91.4666,14.3423,84.8178],[-91.4599,14.3549,85.4867],[-91.4606,14.3604,93.813],[-91.4552,14.366,86.9123],[-91.4539,14.3694,93.8705],[-91.4557,14.3747,103.5002],[-91.4492,14.3929,129.0813],[-91.4496,14.3986,130.5349],[-91.4472,14.4059,132.7325],[-91.4433,14.4107,135.3601],[-91.4423,14.4167,140.6831],[-91.4337,14.4235,139.6611],[-91.4339,14.4304,159.6485],[-91.4316,14.4415,180.8028],[-91.4251,14.4538,195.4746],[-91.4301,14.465,198.3438],[-91.4202,14.4918,255.2126],[-91.4216,14.4962,266.7572],[-91.44,14.5077,307.7833],[-91.4467,14.508,304.2365],[-91.4534,14.5156,324.2246],[-91.4608,14.5184,323.3918],[-91.4649,14.5174,321.84],[-91.4662,14.5145,315.6044],[-91.4698,14.5124,305.4525],[-91.4767,14.5122,302.3513],[-91.4798,14.5097,289.347],[-91.4818,14.5038,273.0371],[-91.494,14.504,271.8074],[-91.5025,14.496,253.7614],[-91.5077,14.4945,245.9454],[-91.5107,14.4842,223.7827],[-91.5063,14.482,214.3927],[-91.5083,14.4776,209.9684],[-91.5076,14.4727,197.9467],[-91.5131,14.452,167.7229],[-91.5129,14.4473,145.4153],[-91.5192,14.4343,149.2966],[-91.5127,14.4286,118.3729],[-91.5139,14.4236,132.3493],[-91.5129,14.4215,112.3918],[-91.5232,14.4117,114.6863],[-91.5194,14.4049,112.8226],[-91.5205,14.4027,110.336],[-91.518,14.4028,109.1075],[-91.5167,14.3977,95.8794],[-91.5182,14.3871,72.4543],[-91.5235,14.3828,95.5273],[-91.5222,14.3718,86.3574],[-91.5196,14.3665,77.0768],[-91.5265,14.362,79.1545],[-91.5269,14.3599,81.1708],[-91.5242,14.3582,72.4569],[-91.5243,14.3563,70.6493],[-91.5306,14.3422,58.1429],[-91.5343,14.3442,56.2731],[-91.5347,14.3389,68.3318],[-91.5328,14.3333,65.8086],[-91.5277,14.3359,47.3356],[-91.5255,14.3353,43.6527],[-91.5216,14.3421,49.0934],[-91.5178,14.3417,65.2623],[-91.5137,14.345,74.3979],[-91.508,14.3352,77.0048],[-91.5093,14.3285,71.4289],[-91.5298,14.2871,31.7859],[-91.5281,14.2853,38.934],[-91.5108,14.2822,60.3987],[-91.5096,14.2801,56.5748],[-91.5132,14.275,57.5232],[-91.5072,14.2643,50.3212],[-91.5078,14.2499,46.903],[-91.5052,14.2463,46.8951],[-91.5107,14.2258,37.971],[-91.5086,14.2145,34.1307],[-91.5705,14.1778,23.38],[-91.586,14.1287,13.1894],[-91.5754,14.0926,4.1973],[-91.5746,14.0646,4.5572],[-91.5726,14.0651,4.7389],[-91.5707,14.0626,4.1614],[-91.5626,14.0596,5.3479],[-91.551,14.051,4.8885],[-91.549,14.0529,4.8986],[-91.5424,14.049,3.3679],[-91.5385,14.0493,2.742],[-91.5387,14.0463,0.0],[-91.5354,14.045,0.8764],[-91.5373,14.0493,2.3589],[-91.5344,14.0512,3.2701],[-91.5389,14.0635,5.6662],[-91.5387,14.0668,7.7832],[-91.5324,14.0726,9.8199],[-91.5319,14.0751,10.288],[-91.535,14.0783,10.5657],[-91.5355,14.0813,11.5837],[-91.5109,14.1015,8.5],[-91.508,14.1059,9.7684],[-91.505,14.1186,18.0802],[-91.4912,14.1309,15.3233],[-91.4889,14.1441,23.0994],[-91.4847,14.1535,17.3364],[-91.4753,14.1633,20.0989],[-91.4616,14.1733,26.6237],[-91.4542,14.1933,24.9734],[-91.4498,14.1967,24.0],[-91.449,14.1998,25.317],[-91.4532,14.2015,33.0215],[-91.4533,14.2056,28.2879],[-91.4475,14.2079,33.4687],[-91.453,14.2228,36.5409],[-91.4504,14.2383,36.5635],[-91.4528,14.2453,41.2018],[-91.4501,14.2513,42.0593]]]]}}