{"type": "Feature","bbox": [-89.3753,14.782,-89.1765,14.9524],"geometry": {"type": "MultiPolygon","coordinates": [[[[-89.1818,14.7952,692.2111],[-89.1971,14.8103,780.4758],[-89.2187,14.8398,875.6219],[-89.2222,14.8656,869.9716],[-89.2206,14.8846,780.3395],[-89.2189,14.887,838.6776],[-89.1883,14.9033,1187.8088],[-89.1831,14.9091,1174.5166],[-89.1796,14.9164,1258.0123],[-89.1765,14.9275,1100.4205],[-89.1826,14.9371,1052.7705],[-89.1958,14.9509,1021.9658],[-89.2142,14.9505,873.8571],[-89.2179,14.9524,850.9832],[-89.2538,14.9008,1062.4165],[-89.279,14.8965,929.4219],[-89.3147,14.9143,1117.8176],[-89.3456,14.9026,1317.7495],[-89.3512,14.881,828.5198],[-89.3556,14.8774,950.4678],[-89.3561,14.8724,912.3376],[-89.3681,14.8576,822.2126],[-89.3704,14.8502,625.9574],[-89.3753,14.8433,629.0226],[-89.3751,14.8412,637.3724],[-89.3675,14.8312,591.9404],[-89.3667,14.8269,445.5007],[-89.367,14.8221,428.8636],[-89.3719,14.8152,543.4952],[-89.3715,14.8099,608.8798],[-89.3676,14.7993,721.2383],[-89.3606,14.7932,1047.8661],[-89.3598,14.7898,1115.5197],[-89.3509,14.7927,1252.5283],[-89.3458,14.7895,1138.7958],[-89.341,14.7888,1188.2081],[-89.3278,14.7911,1077.0084],[-89.3179,14.7902,1381.5548],[-89.3156,14.7865,1451.1187],[-89.3084,14.7871,1382.489],[-89.2973,14.791,1409.2585],[-89.2897,14.7902,1408.9359],[-89.2823,14.7928,1265.0648],[-89.2656,14.782,894.8162],[-89.2496,14.7885,642.4835],[-89.2427,14.7842,746.9087],[-89.242,14.788,655.0875],[-89.2397,14.7881,697.4514],[-89.2314,14.782,581.3784],[-89.2224,14.785,645.2979],[-89.2219,14.7913,611.7255],[-89.2167,14.7954,614.3866],[-89.1818,14.7952,692.2111]]]]}
,"properties": {"GID_2": "GTM.4.1_1","GID_0": "GTM","country": "Guatemala","GID_1": "GTM.4_1","province": "Chiquimula","NL_NAME_1": "NA","county": "Camotán","VARNAME_2": "NA","NL_NAME_2": "NA","TYPE_2": "Municipio","ENGTYPE_2": "Municipality","CC_2": "NA","HASC_2": "NA","name": "Camotán.county","area_km2": 240.2885,"hist_schema_id": "Elevation0-9000","hist_area_km2": {"425": 0.5329,"450": 1.0248,"475": 1.6191,"500": 4.8366,"525": 6.0867,"550": 9.0385,"575": 9.7146,"600": 10.4114,"625": 10.8418,"650": 10.5754,"675": 9.5301,"700": 9.6325,"725": 8.3207,"750": 7.6443,"775": 8.423,"800": 7.5827,"825": 7.8285,"850": 7.4389,"875": 8.9759,"900": 9.9592,"925": 10.2667,"950": 8.8731,"975": 8.8934,"1000": 7.9711,"1025": 8.2786,"1050": 7.3564,"1075": 5.6149,"1100": 4.5086,"1125": 4.0784,"1150": 2.9307,"1175": 2.6028,"1200": 2.5823,"1225": 2.4594,"1250": 2.7259,"1275": 2.0699,"1300": 1.7625,"1325": 1.783,"1350": 1.2706,"1375": 1.2502,"1400": 1.0247,"1425": 0.6968,"1450": 0.4509,"1475": 0.4304,"1500": 0.1434,"1525": 0.082,"1550": 0.123,"1575": 0.041}}}