{"type":"Feature","properties":{"GID_1":"GTM.6_1","GID_0":"GTM","country":"Guatemala","province":"Escuintla","VARNAME_1":"NA","NL_NAME_1":"NA","TYPE_1":"Departamento","ENGTYPE_1":"Department","CC_1":"NA","HASC_1":"GT.ES","ISO_1":"GT-05","name":"Escuintla.province"},
"geometry":{"type": "MultiPolygon","coordinates": [[[[-91.0799,13.9168,1.8049],[-91.0818,13.9174,1.3023],[-91.0843,13.9174,0.5957],[-91.0843,13.9163,0.9732],[-91.0799,13.9168,1.8049]]],
[[[-91.0904,13.9193,0.0],[-91.0932,13.9199,2.0805],[-91.0937,13.9185,1.153],[-91.0926,13.9182,0.4727],[-91.0904,13.9193,0.0]]],
[[[-90.5775,14.2988,937.334],[-90.5905,14.3067,1179.8767],[-90.6105,14.3554,1327.5549],[-90.5879,14.3956,2317.4302],[-90.5905,14.406,1843.2931],[-90.5878,14.427,1764.5693],[-90.6262,14.4377,1206.1246],[-90.6322,14.4431,1193.4304],[-90.6351,14.4491,1180.2],[-90.6354,14.4606,1184.9257],[-90.6511,14.4764,1349.5233],[-90.7194,14.4244,1489.0154],[-90.7416,14.4636,3595.2747],[-90.7441,14.4578,3165.5083],[-90.767,14.4392,1663.3816],[-90.7734,14.4297,1385.9185],[-90.7815,14.4312,1344.8619],[-90.7835,14.4297,1312.165],[-90.7939,14.4076,950.3606],[-90.8031,14.4009,859.9502],[-90.8075,14.3868,732.4832],[-90.8084,14.3776,668.9941],[-90.8108,14.378,677.903],[-90.816,14.3876,707.9014],[-90.8161,14.4077,836.5322],[-90.8193,14.4089,853.0752],[-90.8253,14.4174,965.4998],[-90.8339,14.423,1083.2639],[-90.8342,14.43,1152.8132],[-90.8434,14.4473,1484.2319],[-90.8528,14.45,1597.9596],[-90.8675,14.465,2672.3259],[-90.88,14.4716,3531.769],[-90.8912,14.4498,2085.2979],[-90.9099,14.4383,1488.3196],[-90.9226,14.4273,1154.3049],[-90.9322,14.4247,1066.8756],[-90.9382,14.4191,974.0751],[-90.9566,14.3956,759.7485],[-90.9641,14.392,706.5978],[-90.968,14.3842,665.8796],[-90.9673,14.3803,647.4806],[-90.973,14.3734,603.7499],[-90.9774,14.3975,679.6422],[-90.9759,14.409,769.0482],[-90.9798,14.4116,749.5961],[-90.9821,14.4193,818.5004],[-90.9889,14.4202,851.176],[-90.9879,14.4288,908.8459],[-90.9949,14.4313,894.7598],[-90.9974,14.4297,878.4337],[-90.9992,14.433,883.1234],[-90.9967,14.4368,923.4116],[-90.9986,14.4392,909.973],[-91.0084,14.4333,880.6866],[-91.0102,14.4231,834.7374],[-91.0156,14.4215,740.1257],[-91.0177,14.4122,732.4122],[-91.0323,14.4064,613.397],[-91.0298,14.416,685.2604],[-91.0328,14.426,745.6685],[-91.0364,14.4272,760.4116],[-91.0381,14.4239,710.485],[-91.0392,14.4277,750.9069],[-91.0523,14.4285,701.0948],[-91.059,14.4192,658.2015],[-91.0704,14.417,583.559],[-91.0724,14.4105,566.8203],[-91.0758,14.4069,525.2735],[-91.0806,14.4057,506.1741],[-91.0849,14.401,480.0545],[-91.0901,14.4057,413.5495],[-91.0943,14.4064,446.8898],[-91.0955,14.4106,486.6392],[-91.1007,14.4124,463.9526],[-91.1073,14.4099,436.7016],[-91.1177,14.3982,412.7027],[-91.1213,14.3892,350.9797],[-91.1373,14.3746,267.7602],[-91.1319,14.3696,228.9707],[-91.1317,14.3622,231.0221],[-91.1254,14.357,258.9691],[-91.1293,14.342,192.5206],[-91.1275,14.3316,185.1374],[-91.1308,14.3213,169.3478],[-91.1379,14.3211,163.9867],[-91.1385,14.3146,151.2406],[-91.1425,14.3144,142.0369],[-91.1404,14.3108,172.1811],[-91.1455,14.3054,133.9366],[-91.1475,14.2983,149.6966],[-91.1453,14.2945,124.095],[-91.1463,14.2867,114.0437],[-91.1485,14.2827,117.3126],[-91.1536,14.2877,103.4698],[-91.1576,14.2851,116.9533],[-91.2648,14.3039,97.2497],[-91.262,14.3124,102.7846],[-91.263,14.3189,105.5275],[-91.256,14.333,121.5557],[-91.2565,14.3356,121.7185],[-91.2678,14.3363,125.6918],[-91.268,14.329,119.3326],[-91.276,14.3278,141.3935],[-91.2801,14.3217,125.0481],[-91.2798,14.3144,109.0765],[-91.2817,14.3089,118.2782],[-91.32,14.3179,87.1017],[-91.332,14.3224,90.2822],[-91.3423,14.3176,89.2513],[-91.3452,14.3266,87.0279],[-91.3372,14.34,95.33],[-91.3403,14.3523,112.358],[-91.3397,14.357,107.813],[-91.335,14.366,116.0662],[-91.3344,14.3724,121.0211],[-91.3314,14.3763,139.1831],[-91.3348,14.3791,155.5931],[-91.3328,14.3841,132.4223],[-91.3233,14.3963,147.2913],[-91.3235,14.3985,149.6771],[-91.3271,14.3981,145.5403],[-91.3483,14.3814,110.8959],[-91.3604,14.3804,104.6839],[-91.3645,14.3773,98.4168],[-91.3734,14.3745,81.2468],[-91.3763,14.3596,79.5803],[-91.3832,14.3576,72.3586],[-91.3846,14.3553,76.4288],[-91.3846,14.3479,70.2001],[-91.3885,14.3362,71.7397],[-91.3946,14.3366,69.1924],[-91.4022,14.3259,70.4243],[-91.4093,14.3232,66.3278],[-91.4103,14.3211,67.8128],[-91.3945,14.2922,61.2238],[-91.4207,14.2775,55.3752],[-91.4314,14.2974,61.3878],[-91.4277,14.3195,77.2203],[-91.4317,14.3203,65.5131],[-91.4389,14.3181,56.4901],[-91.44,14.3197,51.7355],[-91.45,14.3123,45.2084],[-91.4522,14.3084,49.916],[-91.4614,14.3077,49.1413],[-91.4631,14.3045,46.5067],[-91.4607,14.3026,46.9217],[-91.4651,14.2955,46.4235],[-91.4612,14.29,46.0297],[-91.4551,14.2898,38.8887],[-91.4571,14.2757,45.3839],[-91.461,14.2685,40.6857],[-91.4607,14.2652,46.166],[-91.4548,14.2658,40.0053],[-91.4501,14.2513,42.0593],[-91.4528,14.2453,41.2018],[-91.4504,14.2383,36.5635],[-91.453,14.2228,36.5409],[-91.4475,14.2079,33.4687],[-91.4533,14.2056,28.2879],[-91.4532,14.2015,33.0215],[-91.449,14.1998,25.317],[-91.4498,14.1967,24.0],[-91.4542,14.1933,24.9734],[-91.4616,14.1733,26.6237],[-91.4753,14.1633,20.0989],[-91.4847,14.1535,17.3364],[-91.4889,14.1441,23.0994],[-91.4912,14.1309,15.3233],[-91.505,14.1186,18.0802],[-91.508,14.1059,9.7684],[-91.5109,14.1015,8.5],[-91.5355,14.0813,11.5837],[-91.535,14.0783,10.5657],[-91.5319,14.0751,10.288],[-91.5324,14.0726,9.8199],[-91.5387,14.0668,7.7832],[-91.5389,14.0635,5.6662],[-91.5344,14.0512,3.2701],[-91.5373,14.0493,2.3589],[-91.5353,14.0464,0.5583],[-91.5362,14.0446,0.0],[-91.5135,14.0365,2.037],[-91.5121,14.0365,4.6866],[-91.5115,14.0387,3.8371],[-91.5001,14.0318,2.7227],[-91.4982,14.0335,3.8046],[-91.4985,14.0318,4.0923],[-91.4965,14.0304,1.7652],[-91.469,14.0201,2.7425],[-91.4654,14.0171,5.5342],[-91.4599,14.0162,4.8018],[-91.4376,14.0054,1.7257],[-91.4335,14.0057,2.2007],[-91.4285,14.0013,3.6189],[-91.4115,13.994,4.2559],[-91.391,13.9868,4.3168],[-91.3724,13.9779,0.0],[-91.3679,13.979,4.2878],[-91.3637,13.976,0.4111],[-91.3604,13.9757,0.9196],[-91.3593,13.9732,5.4465],[-91.3615,13.9732,4.2398],[-91.3579,13.9712,3.2707],[-91.3443,13.966,4.4627],[-91.3415,13.9663,7.4082],[-91.3346,13.9618,0.6813],[-91.314,13.9537,0.0],[-91.3121,13.9537,0.0],[-91.3112,13.9565,2.6513],[-91.3026,13.9499,0.7303],[-91.2993,13.9515,6.1796],[-91.289,13.9471,4.3454],[-91.2724,13.944,3.1245],[-91.2601,13.9399,0.0],[-91.2385,13.9363,0.4672],[-91.2421,13.9388,7.1196],[-91.2412,13.9396,4.5474],[-91.2304,13.9338,4.3368],[-91.1829,13.926,2.7524],[-91.1593,13.9251,4.1824],[-91.1507,13.9221,0.25],[-91.1329,13.9204,0.0],[-91.1265,13.9207,2.499],[-91.1257,13.9221,2.3746],[-91.1218,13.9207,1.5802],[-91.1204,13.9221,2.3408],[-91.1079,13.9213,3.5296],[-91.1068,13.919,2.2596],[-91.1038,13.9201,1.7431],[-91.0965,13.9187,1.1368],[-91.094,13.9207,5.3206],[-91.0907,13.9207,7.8865],[-91.0751,13.9157,4.2499],[-91.0551,13.9143,2.2948],[-90.9251,13.9143,5.5541],[-90.9137,13.9113,1.9724],[-90.9101,13.9121,0.5],[-90.9088,13.9151,4.2324],[-90.9024,13.9115,2.2029],[-90.8918,13.9146,7.5928],[-90.8096,13.9182,2.5687],[-90.8112,13.9218,1.9959],[-90.8079,13.921,0.3108],[-90.8076,13.919,0.0],[-90.7974,13.9196,3.9492],[-90.7949,13.9185,1.7617],[-90.794,13.9199,3.2506],[-90.7904,13.9154,0.0],[-90.7846,13.9149,0.0],[-90.7846,13.9157,0.0],[-90.7899,13.9163,0.0],[-90.7918,13.9215,0.7459],[-90.8021,13.9232,1.1223],[-90.7962,13.9243,0.9918],[-90.7949,13.9229,0.0],[-90.7904,13.9249,0.0],[-90.791,13.9288,5.5036],[-90.7882,13.9285,0.9524],[-90.786,13.9221,0.0],[-90.7879,13.9196,0.0],[-90.7849,13.9199,0.0],[-90.7843,13.9179,0.0],[-90.7804,13.9226,3.7497],[-90.7765,13.9226,3.0701],[-90.7751,13.9243,2.6018],[-90.7735,13.924,0.949],[-90.7735,13.9221,0.4985],[-90.7715,13.9238,1.2485],[-90.7596,13.9235,0.0],[-90.7565,13.9254,0.0],[-90.7579,13.9268,1.7964],[-90.7526,13.9271,4.3903],[-90.756,13.9251,0.0],[-90.7554,13.9238,0.0],[-90.7529,13.9238,0.0],[-90.7513,13.9268,1.3038],[-90.7479,13.9282,0.0],[-90.7424,13.9271,1.714],[-90.749,13.9257,0.0],[-90.7429,13.9249,0.0],[-90.7326,13.9268,0.0],[-90.7274,13.9263,0.0],[-90.724,13.9271,2.8595],[-90.7246,13.9293,0.9014],[-90.7196,13.9304,0.0],[-90.711,13.9296,0.0],[-90.7154,13.9271,0.0],[-90.6896,13.9282,0.9649],[-90.6637,13.9271,6.4156],[-90.6232,13.9218,0.0],[-90.6242,14.0017,7.9932],[-90.6172,14.0138,7.935],[-90.6193,14.0168,9.9888],[-90.6172,14.0695,16.7296],[-90.5903,14.0705,19.8486],[-90.5894,14.0787,20.4828],[-90.5919,14.083,25.4651],[-90.5898,14.0919,22.5959],[-90.5839,14.0935,28.6617],[-90.5747,14.0992,50.4355],[-90.5659,14.1005,83.7151],[-90.5616,14.0982,86.7123],[-90.5546,14.1008,122.8078],[-90.554,14.1222,224.7412],[-90.5551,14.1245,221.7338],[-90.564,14.1258,195.2113],[-90.5665,14.1338,254.2241],[-90.5934,14.1371,175.519],[-90.591,14.158,238.2264],[-90.5666,14.1565,366.5303],[-90.5489,14.1719,642.438],[-90.5296,14.1804,1044.8148],[-90.5201,14.1928,1634.6737],[-90.5091,14.1991,1661.859],[-90.5192,14.2024,1716.7473],[-90.5286,14.2157,1372.696],[-90.5518,14.1969,808.7522],[-90.5583,14.1952,693.8353],[-90.5623,14.1961,679.261],[-90.5645,14.2,632.1829],[-90.5745,14.2027,542.5236],[-90.5968,14.1953,291.2511],[-90.6021,14.2072,212.139],[-90.6007,14.2112,214.4978],[-90.5969,14.2171,257.5413],[-90.5946,14.2252,269.8532],[-90.5897,14.2302,379.4514],[-90.5863,14.2379,379.252],[-90.5884,14.2419,317.3323],[-90.579,14.2473,453.098],[-90.5729,14.2566,514.6169],[-90.573,14.2683,617.1422],[-90.5687,14.2719,643.7048],[-90.5663,14.2785,675.3972],[-90.569,14.2863,670.6635],[-90.5757,14.2904,766.7546],[-90.5775,14.2988,937.334]]]]}}