{"type": "Feature","id": "1950","bbox": [-91.53291,13.91114,-90.51571,14.4893],"geometry": {"type": "Polygon","coordinates": [[[-90.82021,14.40491,855.9466],[-90.82497,14.40806,888.9811],[-90.83125,14.41509,979.562],[-90.84375,14.43519,1277.4961],[-90.85135,14.4509,1700.7284],[-90.85205,14.45369,1666.8945],[-90.85305,14.45612,1794.2295],[-90.86109,14.46449,2371.8918],[-90.89054,14.4893,2731.8831],[-90.91718,14.46873,1765.9952],[-90.93809,14.4494,1225.2524],[-90.94504,14.44093,1105.3326],[-90.94636,14.43834,1071.3148],[-90.95222,14.42382,928.5804],[-90.97134,14.38625,692.0183],[-90.97847,14.38284,615.2959],[-90.98124,14.38563,630.4576],[-90.98281,14.38832,679.8998],[-90.98343,14.39163,727.0933],[-90.98351,14.39974,764.236],[-90.98558,14.41592,806.322],[-90.98806,14.41984,853.1186],[-90.99069,14.4216,846.7336],[-90.99325,14.42088,835.5172],[-90.99702,14.41788,789.4694],[-91.00214,14.4123,745.8348],[-91.00493,14.41059,749.1337],[-91.00865,14.40935,735.3549],[-91.01599,14.40873,719.624],[-91.02139,14.41106,717.8347],[-91.02731,14.41499,685.7026],[-91.03718,14.42356,701.4077],[-91.04242,14.42677,722.7167],[-91.04687,14.42842,670.2878],[-91.04989,14.42801,717.216],[-91.05276,14.42723,701.0948],[-91.05524,14.42625,673.4253],[-91.06852,14.41881,559.9356],[-91.07208,14.41747,561.7347],[-91.07666,14.41623,555.2708],[-91.0857,14.4153,489.3697],[-91.0902,14.41592,479.0223],[-91.0949,14.41814,481.9352],[-91.09741,14.42041,495.4796],[-91.11133,14.43044,529.573],[-91.13957,14.37395,273.8879],[-91.14619,14.3569,220.3909],[-91.14906,14.309,156.8851],[-91.15009,14.30336,158.7087],[-91.15148,14.29944,164.0455],[-91.15603,14.29293,140.1521],[-91.16492,14.27598,140.2571],[-91.1711,14.27205,108.8978],[-91.28773,14.28042,86.6525],[-91.29409,14.28197,86.3159],[-91.28913,14.30595,101.8959],[-91.29995,14.31639,98.3879],[-91.31819,14.29665,78.0163],[-91.32628,14.29189,77.5684],[-91.33625,14.29163,76.4035],[-91.34277,14.29262,77.239],[-91.34659,14.29427,73.5373],[-91.35163,14.29722,74.9131],[-91.35589,14.30119,81.422],[-91.35798,14.30435,89.1293],[-91.35899,14.30729,78.4302],[-91.35928,14.31019,83.552],[-91.35899,14.31313,74.693],[-91.35687,14.32145,77.5059],[-91.35705,14.32466,84.0418],[-91.35806,14.32786,89.2197],[-91.36292,14.33437,77.7752],[-91.36437,14.3369,77.4102],[-91.36524,14.33923,98.1806],[-91.3653,14.34197,80.7835],[-91.36457,14.3446,83.7892],[-91.36354,14.34698,85.0757],[-91.35628,14.35742,92.1371],[-91.35643,14.36124,94.0993],[-91.35827,14.3662,96.1088],[-91.36473,14.37597,98.1369],[-91.36907,14.37923,85.2332],[-91.37292,14.38072,85.4169],[-91.38106,14.37819,107.9938],[-91.38573,14.37576,94.8355],[-91.41423,14.35535,68.3908],[-91.4178,14.35184,74.4808],[-91.41917,14.34977,72.7565],[-91.42121,14.34502,68.9914],[-91.42333,14.33664,59.9861],[-91.42364,14.33044,59.7633],[-91.42307,14.32409,72.7538],[-91.42137,14.31535,75.6387],[-91.41943,14.31039,69.6699],[-91.4146,14.3015,63.868],[-91.41369,14.29913,60.1205],[-91.41338,14.29654,58.4715],[-91.4154,14.29365,57.6652],[-91.41878,14.29081,57.1748],[-91.42581,14.28667,54.0912],[-91.42992,14.28574,58.8782],[-91.43266,14.28652,61.4414],[-91.43403,14.28869,51.4464],[-91.43656,14.29639,55.1515],[-91.44007,14.30104,56.5023],[-91.44798,14.30652,53.4417],[-91.45831,14.30026,42.5787],[-91.45986,14.29696,42.4027],[-91.4616,14.29008,50.0779],[-91.46219,14.27794,56.5501],[-91.46172,14.26988,37.9139],[-91.45793,14.24626,40.881],[-91.4556,14.20601,34.4563],[-91.45692,14.18988,22.5],[-91.46307,14.18193,29.824],[-91.46829,14.17676,27.2475],[-91.47304,14.16921,26.7354],[-91.48123,14.1519,26.8628],[-91.52981,14.08219,6.9324],[-91.53198,14.07661,10.8906],[-91.53291,14.07196,9.3634],[-91.52952,14.05651,3.1268],[-91.52852,14.04829,5.3572],[-91.52838,14.04714,5.3572],[-91.31646,13.95568,7.6741],[-91.16576,13.9267,0.0],[-91.04374,13.91358,0.0],[-90.91033,13.91114,0.0],[-90.79625,13.91816,1.7617],[-90.78461,13.92154,2.9262],[-90.70728,13.92889,7.4313],[-90.63802,13.92236,0.0],[-90.62733,13.92067,0.0],[-90.62743,13.93171,5.1514],[-90.62712,14.05589,13.9473],[-90.62503,14.06085,15.3265],[-90.62085,14.06514,15.6808],[-90.60958,14.06803,16.311],[-90.59842,14.06968,24.2815],[-90.59537,14.07113,20.0659],[-90.59299,14.07258,20.1665],[-90.58997,14.0824,21.9369],[-90.58245,14.09645,37.6221],[-90.57744,14.10131,47.6282],[-90.56421,14.10885,116.9776],[-90.56044,14.11206,130.777],[-90.55744,14.11604,160.9352],[-90.55617,14.11821,170.4816],[-90.55656,14.12146,195.9892],[-90.5585,14.1256,221.6311],[-90.57294,14.13872,241.4529],[-90.5748,14.14079,245.2445],[-90.57839,14.14735,292.1289],[-90.57855,14.16125,341.9752],[-90.57186,14.1643,414.1283],[-90.55336,14.16709,563.6932],[-90.55077,14.16818,576.965],[-90.54434,14.17221,739.0077],[-90.52809,14.18709,1243.8965],[-90.51571,14.20254,1779.1641],[-90.5163,14.20544,1727.3376],[-90.51878,14.2088,1622.7178],[-90.52747,14.21293,1542.3683],[-90.53201,14.21376,1443.8562],[-90.53589,14.21345,1271.5544],[-90.55139,14.20787,960.2687],[-90.55434,14.20735,883.2645],[-90.56075,14.20714,715.8542],[-90.56721,14.20756,680.2175],[-90.58074,14.21009,524.7849],[-90.58493,14.21138,483.4067],[-90.5872,14.21241,465.2133],[-90.58865,14.21552,421.6296],[-90.58883,14.22032,360.2199],[-90.58571,14.23112,413.9628],[-90.57966,14.24239,411.6333],[-90.56493,14.25624,521.7882],[-90.57103,14.27789,635.2419],[-90.58317,14.30533,1090.6626],[-90.58633,14.31727,1248.082],[-90.58555,14.35039,1424.6168],[-90.59217,14.40181,1992.5841],[-90.59635,14.41509,1835.6389],[-90.59883,14.41612,1894.9462],[-90.60183,14.41654,1831.2997],[-90.6148,14.41623,1692.5688],[-90.62302,14.41891,1579.252],[-90.63774,14.43152,1232.0126],[-90.65051,14.46873,1343.4412],[-90.71469,14.44403,1884.623],[-90.72577,14.46728,2781.0989],[-90.72725,14.46945,2866.2627],[-90.7311,14.47214,2980.5967],[-90.73776,14.47018,3428.6338],[-90.74272,14.46274,3595.2747],[-90.74851,14.45932,3128.3967],[-90.76301,14.45932,2396.2949],[-90.77166,14.45462,1957.9456],[-90.77358,14.45328,1884.4778],[-90.77587,14.45116,1804.9625],[-90.78058,14.44527,1521.082],[-90.78549,14.43643,1367.8672],[-90.78706,14.43442,1326.4255],[-90.79378,14.42698,1127.8123],[-90.82021,14.40491,855.9466]]]}
,"properties": {"ISO3166-1-Alpha-3": "GTM","country": "Guatemala","fill": "#FF0","name": "Escuintla","area_km2": 4815.432,"hist_schema_id": "Elevation0-9000","hist_area_km2": {"0": 749.752,"25": 1175.705,"50": 637.793,"75": 401.573,"100": 193.104,"125": 142.987,"150": 107.239,"175": 95.56,"200": 81.848,"225": 80.323,"250": 69.162,"275": 66.654,"300": 57.221,"325": 45.816,"350": 39.692,"375": 38.335,"400": 35.746,"425": 31.247,"450": 31.472,"475": 31.163,"500": 27.732,"525": 27.301,"550": 24.117,"575": 24.301,"600": 24.034,"625": 23.972,"650": 25.553,"675": 28.777,"700": 25.531,"725": 22.615,"750": 20.088,"775": 18.219,"800": 16.432,"825": 15.261,"850": 13.782,"875": 13.433,"900": 13.166,"925": 12.447,"950": 11.523,"975": 10.886,"1000": 10.496,"1025": 9.797,"1050": 9.653,"1075": 10.043,"1100": 10.146,"1125": 10.105,"1150": 10.125,"1175": 13.944,"1200": 11.152,"1225": 10.125,"1250": 10.084,"1275": 9.632,"1300": 10.125,"1325": 9.632,"1350": 8.235,"1375": 7.701,"1400": 7.989,"1425": 7.434,"1450": 6.428,"1475": 6.715,"1500": 6.592,"1525": 7.619,"1550": 6.181,"1575": 6.469,"1600": 5.894,"1625": 5.77,"1650": 4.353,"1675": 4.374,"1700": 3.614,"1725": 3.224,"1750": 2.957,"1775": 2.628,"1800": 2.382,"1825": 2.731,"1850": 2.259,"1875": 2.074,"1900": 1.992,"1925": 1.663,"1950": 1.663,"1975": 1.663,"2000": 1.602,"2025": 1.437,"2050": 1.437,"2075": 1.253,"2100": 1.273,"2125": 0.986,"2150": 1.314,"2175": 1.068,"2200": 1.458,"2225": 0.986,"2250": 1.253,"2275": 1.273,"2300": 1.191,"2325": 1.006,"2350": 0.945,"2375": 0.698,"2400": 0.883,"2425": 0.78,"2450": 0.719,"2475": 0.513,"2500": 0.76,"2525": 0.657,"2550": 0.616,"2575": 0.616,"2600": 0.452,"2625": 0.452,"2650": 0.575,"2675": 0.575,"2700": 0.472,"2725": 0.554,"2750": 0.349,"2775": 0.595,"2800": 0.328,"2825": 0.431,"2850": 0.452,"2875": 0.534,"2900": 0.472,"2925": 0.37,"2950": 0.205,"2975": 0.575,"3000": 0.287,"3025": 0.431,"3050": 0.328,"3075": 0.308,"3100": 0.205,"3125": 0.246,"3150": 0.349,"3175": 0.308,"3200": 0.205,"3225": 0.308,"3250": 0.328,"3275": 0.185,"3300": 0.205,"3325": 0.246,"3350": 0.144,"3375": 0.39,"3400": 0.123,"3425": 0.205,"3450": 0.082,"3475": 0.123,"3500": 0.144,"3525": 0.103,"3550": 0.164,"3575": 0.226,"3600": 0.103,"3625": 0.082,"3650": 0.062,"3675": 0.041,"3700": 0.103,"3750": 0.041}}}