{"type": "Feature","bbox": [-92.0423,14.9058,-91.8519,15.034],"geometry": {"type": "MultiPolygon","coordinates": [[[[-91.9406,14.9343,966.4692],[-91.9031,14.963,1191.2917],[-91.8938,14.9755,1348.5409],[-91.881,14.976,1713.1693],[-91.8538,14.9905,1864.6006],[-91.8519,14.9935,1989.7938],[-91.8534,15.0001,1958.1315],[-91.8716,15.0172,2631.7148],[-91.879,15.0304,2861.4072],[-91.8875,15.0334,3344.9399],[-91.8957,15.0308,3480.1074],[-91.9018,15.034,3644.9343],[-91.9019,15.0258,3183.335],[-91.913,15.0149,2487.3257],[-91.9189,14.9973,1792.6517],[-91.9221,14.9942,1727.8687],[-91.9307,15.0042,1748.4891],[-91.9404,14.9991,1273.4744],[-91.9477,15.0025,1426.5128],[-91.9499,15.0009,1384.0398],[-91.9623,14.9809,939.6409],[-91.9637,14.9735,1018.2286],[-91.9658,14.9713,877.347],[-91.9672,14.9612,888.6882],[-91.9771,14.9691,881.2174],[-91.9783,14.9749,953.2369],[-91.9872,14.9726,870.0381],[-91.9952,14.9777,761.7129],[-91.989,14.9906,969.5903],[-91.989,14.9999,1190.7452],[-91.9855,15.0069,1524.4541],[-91.989,15.0136,1519.8047],[-91.9869,15.0209,1776.5027],[-91.995,15.0204,1475.186],[-92.0062,15.0154,1043.936],[-92.0168,15.0169,1315.4912],[-92.021,15.016,1434.1877],[-92.0256,15.0125,1438.7461],[-92.0311,15.0029,1249.6464],[-92.0344,14.9894,1087.5656],[-92.0389,14.9857,987.1506],[-92.039,14.9797,991.6302],[-92.0306,14.9779,853.0576],[-92.032,14.9453,754.5796],[-92.0291,14.9406,774.4709],[-92.0325,14.9303,600.417],[-92.0423,14.9188,453.1758],[-92.041,14.9105,395.3233],[-92.0364,14.908,371.7271],[-92.0316,14.9076,389.214],[-92.0156,14.91,511.9226],[-92.0142,14.9085,527.4927],[-92.0144,14.9058,534.9969],[-92.0045,14.9129,485.1471],[-91.9586,14.9232,793.8323],[-91.9406,14.9343,966.4692]]]]}
,"properties": {"GID_2": "GTM.17.22_1","GID_0": "GTM","country": "Guatemala","GID_1": "GTM.17_1","province": "SanMarcos","NL_NAME_1": "NA","county": "SanPablo","VARNAME_2": "NA","NL_NAME_2": "NA","TYPE_2": "Municipio","ENGTYPE_2": "Municipality","CC_2": "NA","HASC_2": "NA","name": "San_Pablo.county","area_km2": 141.2276,"hist_schema_id": "Elevation0-9000","hist_area_km2": {"375": 0.3893,"400": 1.5776,"425": 1.5571,"450": 1.4341,"475": 1.8234,"500": 1.5365,"525": 1.516,"550": 1.7209,"575": 2.7042,"600": 3.1753,"625": 4.6297,"650": 4.4042,"675": 5.244,"700": 3.9945,"725": 3.8305,"750": 3.892,"775": 2.9702,"800": 3.0316,"825": 2.8268,"850": 2.5604,"875": 2.6218,"900": 2.2736,"925": 2.376,"950": 2.6832,"975": 2.7037,"1000": 3.1133,"1025": 2.7037,"1050": 2.4169,"1075": 1.9458,"1100": 2.8469,"1125": 2.2325,"1150": 2.2735,"1175": 2.5397,"1200": 2.4783,"1225": 1.7204,"1250": 1.7409,"1275": 1.9048,"1300": 1.6795,"1325": 1.5156,"1350": 1.4337,"1375": 1.7818,"1400": 1.4951,"1425": 1.2903,"1450": 1.1674,"1475": 0.9217,"1500": 0.8397,"1525": 1.2084,"1550": 0.7988,"1575": 0.7373,"1600": 0.8192,"1625": 0.7783,"1650": 0.4096,"1675": 0.7988,"1700": 0.6759,"1725": 0.4711,"1750": 0.6144,"1775": 0.5939,"1800": 0.512,"1825": 0.4915,"1850": 0.6349,"1875": 0.6554,"1900": 0.4915,"1925": 0.553,"1950": 0.4096,"1975": 0.3891,"2000": 0.553,"2025": 0.4915,"2050": 0.5325,"2075": 0.5939,"2100": 0.7168,"2125": 0.5734,"2150": 0.4506,"2175": 0.471,"2200": 0.512,"2225": 0.553,"2250": 0.5734,"2275": 0.6144,"2300": 0.3686,"2325": 0.6349,"2350": 0.5325,"2375": 0.3482,"2400": 0.4505,"2425": 0.4301,"2450": 0.4505,"2475": 0.4915,"2500": 0.4301,"2525": 0.4301,"2550": 0.3481,"2575": 0.3277,"2600": 0.4301,"2625": 0.471,"2650": 0.2867,"2675": 0.2662,"2700": 0.3686,"2725": 0.4915,"2750": 0.4096,"2775": 0.2048,"2800": 0.3072,"2825": 0.3277,"2850": 0.2457,"2875": 0.2662,"2900": 0.3277,"2925": 0.3072,"2950": 0.3481,"2975": 0.3072,"3000": 0.2867,"3025": 0.2867,"3050": 0.2867,"3075": 0.2662,"3100": 0.2457,"3125": 0.2867,"3150": 0.2662,"3175": 0.2457,"3200": 0.2048,"3225": 0.2457,"3250": 0.1843,"3275": 0.2048,"3300": 0.2662,"3325": 0.3276,"3350": 0.1843,"3375": 0.1229,"3400": 0.1024,"3425": 0.1433,"3450": 0.041,"3475": 0.0614,"3500": 0.1433,"3550": 0.0205}}}