{"type":"Feature","properties":{"GID_2":"GTM.13.11_1","GID_0":"GTM","country":"Guatemala","GID_1":"GTM.13_1","province":"Quezaltenango","NL_NAME_1":"NA","county":"Huitán","VARNAME_2":"NA","NL_NAME_2":"NA","TYPE_2":"Municipio","ENGTYPE_2":"Municipality","CC_2":"NA","HASC_2":"NA","name":"Huitán.county"},
"geometry":{"type": "MultiPolygon","coordinates": [[[[-91.6611,15.0549,2495.9309],[-91.6659,15.0255,2624.2021],[-91.6591,15.0228,2619.8408],[-91.6571,15.0147,2657.415],[-91.6525,15.0129,2674.1506],[-91.65,15.0089,2676.0752],[-91.6417,15.0133,2870.2769],[-91.6368,15.0109,2767.3198],[-91.6344,15.0063,2834.8547],[-91.6068,15.0295,2873.2935],[-91.6056,15.0407,2855.2395],[-91.6028,15.0446,2884.9836],[-91.6056,15.0531,2828.1912],[-91.6036,15.0567,2801.1196],[-91.5988,15.0571,2810.3369],[-91.5882,15.052,3030.1504],[-91.5827,15.0523,3115.4958],[-91.5733,15.0606,3043.2163],[-91.5739,15.0636,3075.4937],[-91.5859,15.0748,3061.9868],[-91.5909,15.0693,2870.5107],[-91.5962,15.0676,2809.429],[-91.6064,15.0675,2705.3257],[-91.6199,15.0568,2653.6765],[-91.6312,15.057,2537.1938],[-91.6489,15.0616,2514.2698],[-91.6611,15.0549,2495.9309]]]]}}