{"type": "Feature","bbox": [-91.0807,15.7587,-90.4161,16.0963],"geometry": {"type": "MultiPolygon","coordinates": [[[[-90.4392,16.0741,131.3494],[-90.4432,16.0788,128.3005],[-90.4437,16.0825,130.5477],[-90.4418,16.0852,130.6457],[-90.4361,16.0877,129.9223],[-90.4303,16.0963,127.0],[-90.4369,16.096,127.9202],[-90.4405,16.0888,128.6827],[-90.4469,16.0832,129.568],[-90.442,16.0743,129.9716],[-91.0593,16.0743,209.714],[-91.0589,16.0723,227.3688],[-90.9753,16.0739,200.4469],[-90.9574,16.0737,153.8566],[-90.9574,16.0724,153.8566],[-91.0807,15.8451,303.3654],[-91.0658,15.8422,265.6277],[-91.0536,15.8363,256.562],[-91.0553,15.8137,259.6062],[-91.0458,15.7922,245.987],[-90.951,15.7827,209.1265],[-90.9284,15.778,264.0449],[-90.8994,15.7755,332.334],[-90.8701,15.769,266.955],[-90.8434,15.7692,313.5499],[-90.8082,15.7587,293.2365],[-90.8046,15.7729,199.1329],[-90.7948,15.775,223.2624],[-90.7923,15.7774,255.1575],[-90.7903,15.7838,205.9649],[-90.7852,15.7882,193.925],[-90.7855,15.7916,200.0862],[-90.7803,15.7919,217.1838],[-90.7747,15.8008,260.1265],[-90.7782,15.8037,234.3637],[-90.7791,15.8089,196.6407],[-90.7745,15.816,182.9749],[-90.7687,15.8184,223.6502],[-90.7677,15.827,206.8244],[-90.7566,15.8379,195.6002],[-90.7472,15.8372,199.2716],[-90.7444,15.8418,193.6264],[-90.74,15.8444,210.4264],[-90.7259,15.8651,199.6132],[-90.7351,15.8718,196.8373],[-90.7326,15.8823,208.1387],[-90.7353,15.8853,205.0225],[-90.741,15.8868,198.1777],[-90.7519,15.8862,168.1247],[-90.7543,15.8889,168.3535],[-90.7531,15.894,167.5231],[-90.7472,15.9032,193.6005],[-90.7487,15.9199,164.356],[-90.746,15.9229,161.2102],[-90.7337,15.9269,179.762],[-90.7294,15.9371,179.4717],[-90.7294,15.943,164.7854],[-90.7339,15.9474,157.5],[-90.7387,15.9449,160.7315],[-90.7426,15.9462,160.2087],[-90.7446,15.951,166.0822],[-90.7532,15.955,156.5184],[-90.7544,15.9588,159.1181],[-90.7441,15.9691,162.2415],[-90.7336,15.9691,185.5974],[-90.7311,15.9734,170.1225],[-90.7321,15.9787,157.9159],[-90.7307,15.9831,157.0336],[-90.7279,15.9852,156.5699],[-90.7205,15.9847,160.9076],[-90.7111,15.9798,156.1833],[-90.7101,15.9756,154.9567],[-90.7039,15.9737,187.2705],[-90.6993,15.9753,182.3601],[-90.6973,15.9802,180.9104],[-90.7029,15.9893,152.4886],[-90.7028,15.9946,152.0278],[-90.7004,15.9968,154.4182],[-90.6883,15.9962,182.2647],[-90.691,16.0084,174.7362],[-90.6985,16.0164,151.9258],[-90.6991,16.021,166.3215],[-90.6918,16.0194,151.426],[-90.681,16.0227,146.5],[-90.6706,16.0309,178.873],[-90.6645,16.0386,155.7332],[-90.6541,16.0363,183.2329],[-90.6516,16.04,143.0],[-90.6426,16.037,159.771],[-90.6342,16.0404,148.1475],[-90.6286,16.0399,156.6472],[-90.6152,16.0244,145.976],[-90.6103,16.0245,161.5573],[-90.5951,16.0358,185.8565],[-90.5926,16.0232,144.1055],[-90.5973,16.0196,143.5451],[-90.6072,16.0166,143.2083],[-90.6043,16.0134,142.8136],[-90.5835,16.0152,139.7649],[-90.5741,16.0095,140.9834],[-90.572,15.996,137.4427],[-90.5677,15.9955,137.0],[-90.5607,16.0001,139.6898],[-90.5585,15.9982,138.8783],[-90.5601,15.9944,138.4008],[-90.5562,15.9928,139.8357],[-90.5487,15.9988,140.3765],[-90.5502,16.0039,142.3624],[-90.5482,16.0063,138.0607],[-90.5458,16.0065,140.1279],[-90.5383,15.9976,137.8351],[-90.5332,15.9987,138.6864],[-90.5327,16.0027,138.3777],[-90.5288,16.0043,138.5001],[-90.5251,16.001,139.0266],[-90.5254,15.9981,138.4796],[-90.5234,15.9968,137.1079],[-90.5187,16.0048,137.0995],[-90.5153,16.0026,137.1828],[-90.5162,15.9945,135.3296],[-90.5098,15.9948,137.0323],[-90.5065,15.9929,134.36],[-90.4984,15.9994,136.2665],[-90.4956,15.9979,132.0],[-90.502,15.9894,140.0667],[-90.506,15.9874,132.8991],[-90.5058,15.9831,141.1792],[-90.5042,15.9865,132.9221],[-90.5018,15.9879,134.3254],[-90.4998,15.9847,138.4426],[-90.4911,15.9913,139.051],[-90.4869,16.0135,135.3907],[-90.4781,16.0164,134.9051],[-90.4738,16.0144,134.0032],[-90.4712,16.0087,134.0121],[-90.4718,16.0059,135.4379],[-90.4641,16.0063,130.5],[-90.455,16.0152,133.71],[-90.4415,16.0171,136.4298],[-90.4383,16.0275,133.746],[-90.4359,16.0294,133.6377],[-90.4229,16.0234,141.2455],[-90.4231,16.0345,133.2216],[-90.429,16.0414,136.8346],[-90.4374,16.0393,131.5802],[-90.4417,16.0408,129.0],[-90.4409,16.0436,129.0],[-90.4294,16.0469,132.8378],[-90.4282,16.0518,130.5666],[-90.4244,16.057,131.9106],[-90.4161,16.0641,142.0719],[-90.4186,16.0676,131.3112],[-90.4308,16.0636,128.0],[-90.435,16.0656,131.464],[-90.4392,16.0741,131.3494]]]]}
,"properties": {"GID_2": "GTM.14.8_1","GID_0": "GTM","country": "Guatemala","GID_1": "GTM.14_1","province": "Quiché","NL_NAME_1": "NA","county": "Ixcán","VARNAME_2": "NA","NL_NAME_2": "NA","TYPE_2": "Municipio","ENGTYPE_2": "Municipality","CC_2": "NA","HASC_2": "NA","name": "Ixcán.county","area_km2": 1224.4421,"hist_schema_id": "Elevation0-9000","hist_area_km2": {"125": 33.155,"150": 135.6145,"175": 244.5503,"200": 359.4466,"225": 253.6429,"250": 114.3597,"275": 47.3229,"300": 19.7872,"325": 8.0783,"350": 4.1001,"375": 1.387,"400": 0.7545,"425": 0.7953,"450": 0.571,"475": 0.4486,"500": 0.3263,"525": 0.102}}}