{"type": "Feature","bbox": [-91.658,14.1475,-91.5335,14.5911],"geometry": {"type": "MultiPolygon","coordinates": [[[[-91.6577,14.1497,6.4391],[-91.6486,14.1475,3.6402],[-91.6409,14.1594,8.2606],[-91.6366,14.1613,9.2441],[-91.632,14.1667,7.3549],[-91.6299,14.1732,9.4341],[-91.6258,14.1762,9.8361],[-91.6204,14.1838,13.8333],[-91.6161,14.1846,7.9651],[-91.612799999999993,14.1877,8.0681],[-91.612,14.1922,16.6563],[-91.6064,14.1992,13.1299],[-91.6086,14.2057,17.7772],[-91.6041,14.212,14.6676],[-91.5978,14.2134,12.451599999999999],[-91.59,14.2263,29.0202],[-91.5821,14.235,23.367],[-91.5788,14.2344,18.0351],[-91.5764,14.24,28.5236],[-91.5654,14.2497,35.7994],[-91.5621,14.2609,42.7851],[-91.5597,14.263,40.609],[-91.5523,14.2612,19.2625],[-91.5498,14.2663,36.761],[-91.5441,14.2706,38.7206],[-91.547,14.2774,44.9479],[-91.5451,14.2793,50.5212],[-91.5454,14.2815,52.9513],[-91.5363,14.2798,33.5095],[-91.5369,14.2851,37.7964],[-91.5395,14.2876,47.2675],[-91.5396,14.2989,57.322],[-91.5361,14.3007,59.1523],[-91.534,14.3049,56.4744],[-91.5412,14.3075,62.0661],[-91.5354,14.3184,66.3866],[-91.5364,14.3219,69.2235],[-91.5398,14.3238,73.4668],[-91.5405,14.3273,68.8126],[-91.5455,14.3282,72.3923],[-91.5437,14.3321,68.3998],[-91.5451,14.3384,74.1901],[-91.54,14.3581,57.6932],[-91.5415,14.3597,53.3263],[-91.5449,14.3593,85.976],[-91.5455,14.3607,88.9681],[-91.5473,14.3734,91.1057],[-91.544,14.3839,98.5002],[-91.546,14.3884,104.5406],[-91.5517,14.3947,105.9989],[-91.550299999999993,14.4019,108.9004],[-91.5537,14.414,122.7472],[-91.5587,14.424,132.624],[-91.557,14.4302,130.8803],[-91.559,14.4366,141.6738],[-91.5573,14.4435,150.4435],[-91.5597,14.4469,158.9502],[-91.5605,14.452,171.0195],[-91.5556,14.4644,173.9884],[-91.5549,14.4711,188.3438],[-91.5581,14.4809,207.7769],[-91.5579,14.4877,221.4342],[-91.5509,14.5144,281.4709],[-91.5485,14.5185,291.7231],[-91.5481,14.524,310.9646],[-91.5402,14.5382,361.9115],[-91.5335,14.5638,496.4969],[-91.5357,14.5768,548.0202],[-91.5458,14.5899,592.1697],[-91.5515,14.5882,579.7529],[-91.5657,14.5911,550.1277],[-91.5722,14.5895,535.6836],[-91.573,14.5818,498.9909],[-91.5801,14.5676,434.4911],[-91.581,14.5573,390.6927],[-91.591,14.5368,322.569],[-91.5854,14.5152,269.7838],[-91.5841,14.4882,218.8768],[-91.5818,14.4858,213.6372],[-91.5838,14.4777,198.7405],[-91.584,14.4584,165.2919],[-91.582,14.4519,159.4229],[-91.5854,14.428,134.5317],[-91.5873,14.426,132.0344],[-91.5852,14.4184,123.5215],[-91.5875,14.4035,96.5666],[-91.5911,14.4004,91.9975],[-91.5916,14.3977,100.0009],[-91.5901,14.3963,99.3568],[-91.5977,14.3872,91.0807],[-91.5934,14.3767,79.257],[-91.5995,14.3611,83.741],[-91.5983,14.3595,57.1776],[-91.601,14.3572,78.7338],[-91.6015,14.3547,76.8364],[-91.5979,14.3496,59.6652],[-91.6005,14.3472,62.3467],[-91.6005,14.3431,69.415],[-91.5964,14.3404,58.3721],[-91.5937,14.341,46.0872],[-91.5904,14.3394,46.6353],[-91.5913,14.3376,42.5061],[-91.5946,14.3373,69.7206],[-91.5971,14.3321,45.9235],[-91.5966,14.3292,41.4092],[-91.5991,14.3269,53.2903],[-91.5964,14.3225,43.379],[-91.6026,14.3169,43.7745],[-91.6063,14.3166,61.6616],[-91.6064,14.313,37.1399],[-91.6088,14.3121,45.2628],[-91.6088,14.3094,39.6988],[-91.6124,14.3056,58.3629],[-91.6087,14.3022,42.7146],[-91.6089,14.2998,33.4805],[-91.6118,14.2989,57.1663],[-91.6138,14.2893,33.2709],[-91.6161,14.2912,45.2182],[-91.6172,14.2903,33.1103],[-91.6159,14.2862,25.0615],[-91.6205,14.2843,33.851],[-91.6215,14.2813,33.851],[-91.6199,14.2791,22.7451],[-91.6222,14.2757,33.2357],[-91.6205,14.2731,22.0889],[-91.6239,14.2737,23.081],[-91.6231,14.2707,22.2453],[-91.625,14.2688,28.9439],[-91.6256,14.2626,19.9527],[-91.6273,14.2607,39.5705],[-91.6257,14.2559,25.2261],[-91.6269,14.2439,28.7982],[-91.6235,14.2431,18.0405],[-91.6252,14.2382,16.8767],[-91.6229,14.2343,16.5805],[-91.6251,14.2214,13.1124],[-91.6234,14.2205,15.0496],[-91.6235,14.2165,12.9605],[-91.628,14.2042,10.8663],[-91.6359,14.1978,10.5973],[-91.636,14.1945,12.8966],[-91.6392,14.1947,10.468],[-91.6442,14.1917,8.7711],[-91.6435,14.1829,9.3042],[-91.6467,14.1815,11.1126],[-91.6474,14.1796,16.5702],[-91.645,14.1786,11.3431],[-91.648,14.1747,8.3675],[-91.6441,14.1736,9.3435],[-91.6465,14.1693,8.1599],[-91.6498,14.1694,6.7682],[-91.6529,14.1619,7.213],[-91.6558,14.1591,3.5955],[-91.6545,14.1561,4.0747],[-91.658,14.1528,7.695],[-91.6577,14.1497,6.4391]]]]}
,"properties": {"GID_2": "GTM.20.2_1","GID_0": "GTM","country": "Guatemala","GID_1": "GTM.20_1","province": "Suchitepéquez","NL_NAME_1": "NA","county": "Cuyotenango","VARNAME_2": "NA","NL_NAME_2": "NA","TYPE_2": "Municipio","ENGTYPE_2": "Municipality","CC_2": "NA","HASC_2": "NA","name": "Cuyotenango.county","area_km2": 222.2748,"hist_schema_id": "Elevation0-9000","hist_area_km2": {"0": 8.7571,"25": 34.4642,"50": 49.0441,"75": 38.3097,"100": 15.7727,"125": 10.6369,"150": 4.7841,"175": 4.8247,"200": 5.9946,"225": 4.393,"250": 5.0495,"275": 4.5361,"300": 4.4743,"325": 4.3715,"350": 3.6326,"375": 3.7351,"400": 2.9346,"425": 3.0166,"450": 2.5241,"475": 2.442,"500": 3.1601,"525": 2.7086,"550": 2.0314,"575": 0.6566,"600": 0.0205}}}