{"type":"Feature","properties":{"GID_2":"GTM.7.37_1","GID_0":"GTM","country":"Guatemala","GID_1":"GTM.7_1","province":"Guatemala","NL_NAME_1":"NA","county":"ZONA8","VARNAME_2":"NA","NL_NAME_2":"NA","TYPE_2":"Municipio","ENGTYPE_2":"Municipality","CC_2":"NA","HASC_2":"NA","name":"Z_O_N_A8.county"},
"geometry":{"type": "MultiPolygon","coordinates": [[[[-90.5238,14.6262,1526.5498],[-90.537,14.6144,1527.4719],[-90.531,14.6045,1518.5179],[-90.5249,14.6193,1519.0541],[-90.5199,14.6265,1516.4834],[-90.5226,14.6279,1520.7201],[-90.5238,14.6262,1526.5498]]]]}}