{"type":"Feature","properties":{"GID_2":"GTM.13.14_1","GID_0":"GTM","country":"Guatemala","GID_1":"GTM.13_1","province":"Quezaltenango","NL_NAME_1":"NA","county":"Ostuncalco","VARNAME_2":"NA","NL_NAME_2":"NA","TYPE_2":"Municipio","ENGTYPE_2":"Municipality","CC_2":"NA","HASC_2":"NA","name":"Ostuncalco.county"},
"geometry":{"type": "MultiPolygon","coordinates": [[[[-91.6385,14.9276,2681.8088],[-91.645,14.9189,2792.4011],[-91.6503,14.9183,2675.5095],[-91.6785,14.8992,2875.2856],[-91.6932,14.902,2744.5359],[-91.706,14.8962,2575.5725],[-91.7204,14.8967,2300.2085],[-91.7244,14.8919,2309.2754],[-91.7269,14.8912,2314.6794],[-91.7285,14.8928,2221.4387],[-91.738,14.892,1795.9647],[-91.7406,14.884,1671.0208],[-91.7449,14.88,1537.4489],[-91.7542,14.8767,1364.2637],[-91.7571,14.8731,1336.5889],[-91.7584,14.8617,1320.8317],[-91.7628,14.8567,1247.2726],[-91.764,14.8513,1212.407],[-91.7762,14.8318,1009.6398],[-91.7731,14.8239,984.6102],[-91.7823,14.8151,918.3572],[-91.7831,14.8125,1121.7468],[-91.7833,14.7992,911.7646],[-91.7802,14.7942,887.4055],[-91.7789,14.7929,826.0817],[-91.7684,14.8032,948.2052],[-91.7637,14.8137,1131.811],[-91.7569,14.8227,1271.9331],[-91.7464,14.8256,1582.7042],[-91.7413,14.8244,1949.5981],[-91.7161,14.835,2051.0928],[-91.703,14.8368,2051.6294],[-91.6787,14.848,2530.8494],[-91.6735,14.8456,2665.3413],[-91.6623,14.8478,3093.8882],[-91.6573,14.8462,2887.541],[-91.6501,14.8469,3097.4863],[-91.6507,14.8496,3099.1973],[-91.6566,14.8509,3176.4915],[-91.6519,14.8556,3042.3335],[-91.6273,14.8573,2538.7207],[-91.6209,14.8596,2525.4307],[-91.6174,14.8573,2606.4136],[-91.6083,14.8581,2569.4749],[-91.603,14.8607,2507.813],[-91.6036,14.8647,2510.5168],[-91.6014,14.8665,2476.5503],[-91.5927,14.8701,2480.1704],[-91.5985,14.8811,2428.5327],[-91.6151,14.885,2499.4231],[-91.6242,14.8882,2510.9614],[-91.6273,14.8909,2498.7527],[-91.6274,14.8975,2456.1375],[-91.6213,14.9075,2487.6035],[-91.6214,14.9108,2458.8872],[-91.6319,14.9193,2542.9658],[-91.6385,14.9276,2681.8088]]]]}}