{"type": "Feature","bbox": [-90.0132,14.8371,-89.8059,14.9371],"geometry": {"type": "MultiPolygon","coordinates": [[[[-89.9114,14.849,1209.6943],[-89.874,14.8719,1104.6433],[-89.8633,14.8676,1075.8719],[-89.8508,14.869,885.7464],[-89.8451,14.8731,843.5756],[-89.8398,14.8848,699.8649],[-89.8125,14.903,432.1779],[-89.8081,14.9114,385.4809],[-89.8059,14.9224,271.4436],[-89.8107,14.9313,258.6172],[-89.816,14.9322,222.4655],[-89.8198,14.9371,223.4729],[-89.8323,14.9265,230.5913],[-89.8454,14.9199,270.5923],[-89.855,14.9213,231.3976],[-89.8681,14.9163,257.1516],[-89.8767,14.9211,233.9532],[-89.8842,14.92,237.1754],[-89.8863,14.915,262.7455],[-89.8898,14.9121,266.7169],[-89.9332,14.917,252.2769],[-89.9493,14.9086,258.888],[-89.9663,14.9097,258.5235],[-89.9812,14.8986,358.9893],[-89.9831,14.8896,615.8405],[-89.9827,14.8833,415.1396],[-89.9798,14.8788,405.4993],[-89.9881,14.8556,829.903],[-89.9971,14.855,749.325],[-90.0027,14.8609,751.5129],[-90.0125,14.8597,662.8224],[-90.0132,14.8575,699.2722],[-89.9958,14.8469,915.6866],[-89.9866,14.8439,976.0308],[-89.9796,14.844,1000.2354],[-89.9764,14.8377,681.5743],[-89.9718,14.8371,684.8113],[-89.941,14.8415,671.9803],[-89.9114,14.849,1209.6943]]]]}
,"properties": {"GID_2": "GTM.5.1_1","GID_0": "GTM","country": "Guatemala","GID_1": "GTM.5_1","province": "ElProgreso","NL_NAME_1": "NA","county": "ElJícaro","VARNAME_2": "NA","NL_NAME_2": "NA","TYPE_2": "Municipio","ENGTYPE_2": "Municipality","CC_2": "NA","HASC_2": "NA","name": "El_Jícaro.county","area_km2": 119.58381,"hist_schema_id": "Elevation0-9000","hist_area_km2": {"225": 2.39697,"250": 6.28976,"275": 12.00616,"300": 11.9657,"325": 7.06887,"350": 4.48728,"375": 3.95459,"400": 2.99158,"425": 2.93011,"450": 2.99162,"475": 2.99168,"500": 2.97119,"525": 3.09418,"550": 3.40158,"575": 2.95079,"600": 3.05329,"625": 3.2992,"650": 3.01236,"675": 3.11479,"700": 3.07385,"725": 3.03286,"750": 3.15582,"775": 2.82796,"800": 3.46324,"825": 2.76653,"850": 2.64357,"875": 2.0083,"900": 2.06978,"925": 1.90585,"950": 1.57797,"975": 1.25006,"1000": 1.37303,"1025": 1.29105,"1050": 0.67626,"1075": 0.40985,"1100": 0.34837,"1125": 0.32789,"1150": 0.16395,"1175": 0.14346,"1200": 0.08198,"1225": 0.02049}}}