{"type": "Feature","bbox": [-89.7168,15.6586,-89.4063,15.8654],"geometry": {"type": "MultiPolygon","coordinates": [[[[-89.7121,15.7261,211.4597],[-89.7168,15.7122,190.7503],[-89.7096,15.7059,184.482],[-89.7012,15.7043,182.6041],[-89.7017,15.6973,237.8006],[-89.6655,15.6864,769.2467],[-89.6622,15.6881,712.6719],[-89.6228,15.6727,591.4073],[-89.6162,15.6619,664.8168],[-89.5887,15.6586,565.4662],[-89.5508,15.7084,199.8507],[-89.5467,15.7107,196.6194],[-89.544,15.7146,232.5255],[-89.5475,15.7206,188.5557],[-89.5438,15.7231,198.1764],[-89.5438,15.7281,237.0271],[-89.5407,15.7311,217.3428],[-89.5405,15.7367,155.1572],[-89.536,15.739,154.4411],[-89.5412,15.7534,188.2772],[-89.5394,15.7571,173.3554],[-89.5317,15.7626,154.5592],[-89.5292,15.7699,169.4462],[-89.525,15.7674,149.6431],[-89.5217,15.7714,165.6685],[-89.5211,15.7701,158.5154],[-89.5175,15.7705,171.3175],[-89.5166,15.7689,162.1153],[-89.5139,15.7709,156.5393],[-89.5126,15.7686,142.6091],[-89.5071,15.7698,165.8948],[-89.5037,15.7709,142.9205],[-89.495,15.7817,154.9067],[-89.4919,15.7824,212.2603],[-89.4868,15.7794,131.6371],[-89.4823,15.7822,136.6275],[-89.4813,15.7852,170.0515],[-89.4778,15.7844,129.9917],[-89.4741,15.7859,142.6671],[-89.4725,15.7904,225.2609],[-89.476,15.7984,164.3858],[-89.4732,15.8057,139.052],[-89.4774,15.8076,136.7826],[-89.4757,15.8146,118.2246],[-89.473,15.8154,124.4371],[-89.47,15.8134,112.6555],[-89.4671,15.8155,123.8776],[-89.4644,15.8149,114.9063],[-89.4633,15.8128,175.8559],[-89.451,15.8184,129.9708],[-89.4422,15.8167,89.9449],[-89.434,15.8213,91.8432],[-89.4313,15.8253,89.0334],[-89.4258,15.8248,89.6851],[-89.4233,15.8311,93.796],[-89.4145,15.8332,88.6679],[-89.4132,15.835,88.2357],[-89.4172,15.8387,90.0101],[-89.4129,15.8497,86.5254],[-89.4102,15.8509,87.895],[-89.4076,15.8491,91.3901],[-89.4063,15.8522,86.2597],[-89.4099,15.8569,88.7676],[-89.4101,15.8608,87.4552],[-89.4135,15.8629,87.9073],[-89.4195,15.8636,89.2862],[-89.4382,15.8578,91.9242],[-89.4391,15.8545,94.3907],[-89.4513,15.8514,113.3036],[-89.4583,15.855,131.307],[-89.4625,15.8654,133.7548],[-89.4762,15.8644,136.5987],[-89.4818,15.8604,135.6204],[-89.4812,15.8576,135.5628],[-89.4886,15.8576,136.1869],[-89.4895,15.855,136.8445],[-89.4976,15.8509,141.7971],[-89.4973,15.8554,136.8508],[-89.5106,15.8474,146.2492],[-89.5143,15.8431,165.7884],[-89.5468,15.8304,198.7243],[-89.5549,15.8211,184.2201],[-89.567,15.816,204.8288],[-89.5696,15.8114,194.0582],[-89.5771,15.8076,167.827],[-89.5871,15.8089,181.2612],[-89.5923,15.8056,175.1926],[-89.6062,15.8066,203.9315],[-89.6166,15.7995,175.1435],[-89.6381,15.8008,221.0467],[-89.6445,15.7941,196.2119],[-89.6434,15.7897,177.6962],[-89.6444,15.7764,172.0829],[-89.6472,15.7638,185.3205],[-89.6461,15.76,173.2308],[-89.6512,15.7513,171.8977],[-89.661,15.7398,171.5338],[-89.6757,15.7406,178.2314],[-89.7121,15.7261,211.4597]]]]}
,"properties": {"GID_2": "GTM.1.1_1","GID_0": "GTM","country": "Guatemala","GID_1": "GTM.1_1","province": "AltaVerapaz","NL_NAME_1": "NA","county": "Chahal","VARNAME_2": "NA","NL_NAME_2": "NA","TYPE_2": "Municipio","ENGTYPE_2": "Municipality","CC_2": "NA","HASC_2": "NA","name": "Chahal.county","area_km2": 288.2599,"hist_schema_id": "Elevation0-9000","hist_area_km2": {"75": 2.0396,"100": 12.8094,"125": 18.5212,"150": 20.9096,"175": 69.535,"200": 40.7677,"225": 23.649,"250": 11.2846,"275": 8.5304,"300": 10.3065,"325": 11.0416,"350": 10.6334,"375": 9.2047,"400": 7.1436,"425": 6.1232,"450": 4.5926,"475": 3.5108,"500": 3.4702,"525": 2.2046,"550": 2.3883,"575": 2.5312,"600": 2.1638,"625": 1.7351,"650": 1.1635,"675": 0.9594,"700": 0.5715,"725": 0.347,"750": 0.0408,"775": 0.0408,"800": 0.0408}}}