{"type":"Feature","properties":{"GID_2":"GTM.5.8_1","GID_0":"GTM","country":"Guatemala","GID_1":"GTM.5_1","province":"ElProgreso","NL_NAME_1":"NA","county":"Sansare","VARNAME_2":"NA","NL_NAME_2":"NA","TYPE_2":"Municipio","ENGTYPE_2":"Municipality","CC_2":"NA","HASC_2":"NA","name":"Sansare.county"},
"geometry":{"type": "MultiPolygon","coordinates": [[[[-90.1016,14.8024,683.0231],[-90.1146,14.7907,732.2408],[-90.1251,14.7891,700.2941],[-90.1274,14.7866,754.6107],[-90.1475,14.7835,832.2157],[-90.1489,14.7799,829.3593],[-90.1648,14.7705,806.5702],[-90.1626,14.7651,827.8936],[-90.1642,14.7554,854.0542],[-90.1609,14.7505,979.3883],[-90.1677,14.7319,1407.3519],[-90.1631,14.7243,1477.3107],[-90.181,14.7052,1298.6921],[-90.1091,14.7171,1066.9589],[-90.0893,14.7101,1195.3049],[-90.0723,14.7118,1256.1404],[-90.049,14.7521,1086.3418],[-89.9858,14.7713,1971.5072],[-89.9672,14.7982,1579.7484],[-89.9861,14.8024,1163.1788],[-89.9919,14.8077,1035.6443],[-90.0251,14.8091,1026.0659],[-90.0296,14.8065,950.7827],[-90.0368,14.8082,831.8147],[-90.04,14.8061,821.7512],[-90.0408,14.7975,972.3492],[-90.0536,14.7993,826.0117],[-90.0624,14.8076,753.9491],[-90.0666,14.8078,607.2236],[-90.0695,14.7967,658.964],[-90.0757,14.7896,838.3596],[-90.0851,14.7873,772.3387],[-90.0904,14.79,786.6495],[-90.093,14.7944,763.8558],[-90.0947,14.8041,821.2968],[-90.1016,14.8024,683.0231]]]]}}