{"type":"Feature","properties":{"GID_2":"GTM.8.17_1","GID_0":"GTM","country":"Guatemala","GID_1":"GTM.8_1","province":"Huehuetenango","NL_NAME_1":"NA","county":"SanMateoIxtatán","VARNAME_2":"NA","NL_NAME_2":"NA","TYPE_2":"Municipio","ENGTYPE_2":"Municipality","CC_2":"NA","HASC_2":"NA","name":"San_Mateo_Ixtatán.county"},
"geometry":{"type": "MultiPolygon","coordinates": [[[[-91.5,15.8819,2779.6257],[-91.4946,15.865,2805.6262],[-91.4839,15.8617,2796.2581],[-91.4774,15.8566,2643.9497],[-91.4779,15.8472,2720.5674],[-91.4498,15.8305,2514.5669],[-91.4392,15.8276,2602.9065],[-91.438,15.8184,2411.7307],[-91.4264,15.8138,2505.0947],[-91.4199,15.8015,2248.5112],[-91.4047,15.7995,2131.7197],[-91.387,15.8001,2033.1357],[-91.3646,15.8177,1999.4119],[-91.3551,15.8205,1974.3905],[-91.3429,15.8426,2446.8979],[-91.3213,15.8471,2316.1172],[-91.3134,15.8801,1909.5334],[-91.3232,15.8963,1697.7479],[-91.3228,15.9033,1675.9977],[-91.3296,15.9163,1657.4241],[-91.3465,15.9225,1935.3176],[-91.3491,15.9341,1953.4423],[-91.3632,15.9451,1946.2435],[-91.3643,15.9532,1815.3062],[-91.3718,15.9668,1675.6133],[-91.3811,16.0011,1341.6974],[-91.389,16.0082,1307.2432],[-91.4085,16.0157,1179.9788],[-91.4133,16.0201,1128.1923],[-91.4118,16.0267,1158.1152],[-91.3929,16.0377,1049.64],[-91.3815,16.0346,837.7545],[-91.3678,16.0403,979.7599],[-91.3542,16.0415,724.5231],[-91.3472,16.0551,782.6935],[-91.3197,16.0744,433.0598],[-91.4507,16.0743,804.6829],[-91.4599,16.047,1107.2354],[-91.4634,16.029,1580.5879],[-91.4722,16.012,1472.5702],[-91.4856,16.0107,1600.9346],[-91.5059,15.9999,1665.3098],[-91.5113,15.9811,1953.8466],[-91.514,15.9539,2119.2278],[-91.5145,15.9248,2677.4531],[-91.5122,15.9123,2789.0076],[-91.5119,15.892,2904.1221],[-91.5,15.8819,2779.6257]]]]}}