{"type":"Feature","properties":{"GID_2":"GTM.13.8_1","GID_0":"GTM","country":"Guatemala","GID_1":"GTM.13_1","province":"Quezaltenango","NL_NAME_1":"NA","county":"ElPalmar","VARNAME_2":"NA","NL_NAME_2":"NA","TYPE_2":"Municipio","ENGTYPE_2":"Municipality","CC_2":"NA","HASC_2":"NA","name":"El_Palmar.county"},
"geometry":{"type": "MultiPolygon","coordinates": [[[[-91.6694,14.7157,1121.4351],[-91.6655,14.7129,1251.9226],[-91.6678,14.7057,1146.5771],[-91.6678,14.6986,993.7111],[-91.6704,14.6931,997.6173],[-91.6681,14.6881,889.082],[-91.6727,14.6813,904.7448],[-91.6745,14.6664,735.9877],[-91.6811,14.6573,598.5314],[-91.6809,14.646,566.1512],[-91.6824,14.6405,516.4022],[-91.6772,14.6397,581.2042],[-91.6735,14.6469,646.0391],[-91.6693,14.6512,659.0649],[-91.6655,14.6496,653.5635],[-91.6656,14.633,556.8575],[-91.6597,14.6173,463.2095],[-91.6557,14.6168,449.8864],[-91.657,14.6083,416.519],[-91.6502,14.6117,418.2068],[-91.639,14.6231,501.0287],[-91.6376,14.6349,567.6293],[-91.6293,14.6421,632.5206],[-91.6256,14.6543,703.6076],[-91.608,14.6534,698.6031],[-91.6101,14.6489,674.2084],[-91.6091,14.6449,640.4276],[-91.6121,14.6336,577.3905],[-91.6101,14.6268,557.9308],[-91.6086,14.626,558.6548],[-91.5955,14.6324,609.8345],[-91.5916,14.6364,633.7714],[-91.591,14.6458,654.5542],[-91.5871,14.6492,666.527],[-91.5802,14.6516,719.5769],[-91.5715,14.6501,728.1484],[-91.5525,14.6698,915.8367],[-91.5409,14.6778,1015.6095],[-91.5334,14.6885,1131.551],[-91.5335,14.6945,1286.0264],[-91.5377,14.6947,1267.6587],[-91.5436,14.73,2217.072],[-91.5468,14.732,2230.8462],[-91.5728,14.7335,2010.9229],[-91.5885,14.7812,2800.9424],[-91.6124,14.7542,1837.1526],[-91.6193,14.757,1626.7577],[-91.6277,14.7577,1906.6079],[-91.6309,14.7542,1828.0658],[-91.6406,14.7494,1595.9585],[-91.6471,14.7402,1463.6321],[-91.649,14.7344,1376.8387],[-91.6575,14.7378,1434.7374],[-91.6664,14.7349,1398.8645],[-91.6678,14.7333,1359.0502],[-91.6694,14.7157,1121.4351]]]]}}