{"type":"Feature","properties":{"GID_1":"GTM.2_1","GID_0":"GTM","country":"Guatemala","province":"BajaVerapaz","VARNAME_1":"NA","NL_NAME_1":"NA","TYPE_1":"Departamento","ENGTYPE_1":"Department","CC_1":"NA","HASC_1":"GT.BV","ISO_1":"GT-15","name":"Baja_Verapaz.province"},
"geometry":{"type": "MultiPolygon","coordinates": [[[[-90.4329,14.9088,507.074],[-90.4296,14.9125,570.9269],[-90.4277,14.9125,522.2822],[-90.427,14.918,627.3561],[-90.4218,14.9188,512.5187],[-90.4199,14.9148,564.2293],[-90.4076,14.9133,485.982],[-90.4083,14.9063,549.3916],[-90.4002,14.8997,560.5454],[-90.4022,14.8946,541.585],[-90.3987,14.8863,583.4995],[-90.3939,14.8817,495.0894],[-90.394,14.8776,461.362],[-90.3825,14.8781,506.8079],[-90.3723,14.8749,489.5834],[-90.363,14.8775,506.0308],[-90.3485,14.8752,415.0416],[-90.3441,14.8781,524.5559],[-90.3399,14.8778,434.6649],[-90.3327,14.8816,461.2603],[-90.3144,14.8795,478.7123],[-90.305,14.8831,402.6835],[-90.3036,14.894,519.9017],[-90.3175,14.9017,502.9046],[-90.3184,14.9112,523.3086],[-90.3151,14.9162,551.0007],[-90.224,14.9803,738.8629],[-90.1935,15.0001,820.8497],[-90.1206,15.0271,2367.8435],[-90.116,15.0266,2397.6816],[-90.1203,15.0369,2457.7681],[-90.0853,15.0461,2600.3154],[-90.0685,15.0413,2558.7346],[-90.0618,15.0416,2401.4565],[-90.0501,15.0455,2509.4104],[-90.045,15.0519,2476.6072],[-90.0348,15.0568,2277.2327],[-90.0275,15.0627,2367.7295],[-90.0169,15.066,2294.6802],[-90.0087,15.0763,2576.2603],[-89.9647,15.0761,2242.1389],[-89.9463,15.0829,2577.5881],[-89.9326,15.0847,2735.1011],[-89.9174,15.0835,2867.5293],[-89.9066,15.0845,2837.6431],[-89.902,15.0883,2693.135],[-89.9039,15.0969,2314.4624],[-89.9135,15.1161,2291.822],[-89.9199,15.1402,2603.1045],[-89.9484,15.1456,2302.5593],[-89.9582,15.1542,2228.9958],[-89.992,15.1419,1751.6917],[-89.9424,15.2111,805.4555],[-89.9302,15.2433,474.0228],[-89.9307,15.2536,316.1018],[-89.9384,15.2701,563.7027],[-89.9449,15.2739,754.7618],[-89.9648,15.2774,813.8647],[-89.9703,15.2737,825.7202],[-90.0096,15.2658,738.9999],[-90.0396,15.2625,823.0112],[-90.0568,15.2571,802.4243],[-90.063,15.2607,806.9465],[-90.0902,15.2598,1047.0681],[-90.0976,15.2619,1119.7649],[-90.124,15.2596,1288.0244],[-90.1432,15.2625,1563.9248],[-90.1537,15.2571,1858.1289],[-90.1671,15.2579,1950.0247],[-90.2169,15.272,2190.9263],[-90.25,15.2735,2167.4644],[-90.2814,15.292,1939.5215],[-90.2904,15.2941,1789.1467],[-90.2931,15.2908,1627.74],[-90.2956,15.2824,1566.4841],[-90.2937,15.2799,1592.0946],[-90.3054,15.2468,1828.3098],[-90.3137,15.243,1640.996],[-90.3279,15.2413,1272.6064],[-90.3284,15.23,1426.5171],[-90.331,15.226,1578.0061],[-90.335,15.2262,1537.9561],[-90.3487,15.2407,1214.3721],[-90.3684,15.2557,1144.7183],[-90.4029,15.2693,1567.7505],[-90.4035,15.2724,1590.2294],[-90.4003,15.2759,1549.072],[-90.4031,15.2796,1674.9203],[-90.407,15.2793,1539.7173],[-90.4168,15.2828,1681.381],[-90.4202,15.2798,1459.6716],[-90.4239,15.2814,1592.9423],[-90.4423,15.2826,1362.8665],[-90.455,15.2811,1480.053],[-90.4755,15.2843,1467.894],[-90.4849,15.2832,1252.8912],[-90.4882,15.2752,883.3933],[-90.4924,15.2743,798.0],[-90.491,15.2665,895.0503],[-90.4951,15.2637,798.0],[-90.4977,15.2591,847.9777],[-90.506,15.2558,980.0547],[-90.5087,15.2471,1193.6919],[-90.5158,15.2427,985.2268],[-90.5154,15.2383,964.5875],[-90.5221,15.235,897.7104],[-90.5234,15.2239,1215.848],[-90.5265,15.2211,1278.1941],[-90.5281,15.2162,1184.8767],[-90.5373,15.2069,859.7935],[-90.542,15.2047,969.1937],[-90.5584,15.2021,950.3815],[-90.5714,15.2114,831.4038],[-90.5764,15.2091,1107.8369],[-90.5844,15.2089,881.0429],[-90.5866,15.2125,798.0],[-90.59,15.2137,814.234],[-90.5918,15.2068,1074.6956],[-90.5955,15.2049,999.9113],[-90.5992,15.1988,993.8033],[-90.6042,15.1993,860.3971],[-90.6094,15.2065,893.3855],[-90.6209,15.2055,954.774],[-90.6263,15.2068,865.3241],[-90.6274,15.2092,798.9137],[-90.6333,15.2115,799.459],[-90.6352,15.2071,963.572],[-90.6426,15.2072,900.8872],[-90.6439,15.2118,810.5713],[-90.6478,15.2112,808.1721],[-90.6577,15.2058,1264.1743],[-90.66,15.2073,1093.8835],[-90.6673,15.2068,953.0997],[-90.6794,15.2056,865.963],[-90.6829,15.2037,982.814],[-90.6968,15.2048,1024.5288],[-90.7042,15.2073,901.5151],[-90.7112,15.2044,1109.5323],[-90.7179,15.2075,932.6171],[-90.7221,15.2048,1340.7017],[-90.7264,15.2065,1076.7595],[-90.7332,15.2048,941.7007],[-90.7361,15.2123,1018.4945],[-90.7524,15.2213,931.4849],[-90.7588,15.2193,1249.0161],[-90.7633,15.2217,951.5609],[-90.7772,15.2199,1092.0658],[-90.7835,15.2323,1146.2625],[-90.7916,15.2376,913.249],[-90.8035,15.2324,1228.8726],[-90.809,15.2352,1053.3352],[-90.8058,15.1525,1600.4592],[-90.7763,15.1025,2046.1293],[-90.75,15.064,2247.8152],[-90.6542,14.996,1464.073],[-90.6551,14.9906,1455.9513],[-90.6528,14.9877,1516.8635],[-90.6575,14.9859,1446.6335],[-90.6602,14.9632,1334.186],[-90.6556,14.9557,1315.9353],[-90.6461,14.9526,1231.0283],[-90.6421,14.9465,1207.6757],[-90.6409,14.9382,1184.3701],[-90.6355,14.9303,1223.074],[-90.6366,14.9249,1227.4353],[-90.63,14.9199,1228.8169],[-90.6166,14.9151,1125.7681],[-90.6151,14.9015,849.8083],[-90.6183,14.898,745.1999],[-90.6238,14.8836,732.0764],[-90.6156,14.8776,669.3757],[-90.6103,14.8815,782.8546],[-90.5913,14.8733,644.4935],[-90.5874,14.8781,700.8188],[-90.5833,14.8747,648.7479],[-90.5758,14.873,698.0616],[-90.5679,14.8771,699.5781],[-90.5628,14.8773,796.6599],[-90.5624,14.8748,657.4149],[-90.5367,14.8892,701.4164],[-90.527,14.8855,583.1165],[-90.5237,14.8896,684.3509],[-90.5168,14.8903,633.8135],[-90.4936,14.899,805.9516],[-90.4908,14.8916,545.7099],[-90.4815,14.8893,681.3099],[-90.4825,14.8869,557.4822],[-90.4785,14.887,617.2585],[-90.4749,14.8829,569.2952],[-90.4703,14.8822,588.4362],[-90.4685,14.8851,609.3257],[-90.4487,14.8851,596.9774],[-90.4358,14.8895,501.696],[-90.436,14.8991,504.3353],[-90.4329,14.9088,507.074]]]]}}