{"type":"Feature","properties":{"ISO3166-1-Alpha-3":"GTM","country":"Guatemala","fill":"#FF0","id":"1942","name":"Baja Verapaz"},
"geometry":{"type": "Polygon","coordinates": [[[-90.07801,15.26884,546.2318],[-90.18718,15.28372,1071.4086],[-90.23524,15.29493,1386.7399],[-90.24878,15.29571,1388.8435],[-90.25309,15.29279,1723.8392],[-90.25482,15.29106,1803.2173],[-90.25637,15.28912,1864.6418],[-90.2589,15.28434,2168.1045],[-90.25976,15.28217,2185.083],[-90.26051,15.27597,2325.8477],[-90.26857,15.24509,1598.8499],[-90.27534,15.23566,1583.1287],[-90.28009,15.23165,1570.0952],[-90.29231,15.21685,1344.2428],[-90.29621,15.21287,1337.3774],[-90.30632,15.20752,1379.6987],[-90.31027,15.20706,1473.6978],[-90.31316,15.20781,1433.2045],[-90.32384,15.21809,1458.4695],[-90.37892,15.25431,1508.1782],[-90.40055,15.26098,1152.4669],[-90.42411,15.26013,934.3245],[-90.4577,15.26098,868.1342],[-90.48057,15.26114,1020.6639],[-90.50377,15.2622,798.0],[-90.54132,15.21251,798.0],[-90.57436,15.20998,1048.61],[-90.69156,15.21494,1044.605],[-90.85739,15.25269,1257.609],[-90.86566,15.25685,1252.3176],[-90.87192,15.14848,1166.1516],[-90.79724,15.05495,2195.438],[-90.70727,15.00022,1916.0881],[-90.70774,14.99552,1898.0154],[-90.71216,14.97376,1419.5363],[-90.69428,14.95568,1640.2981],[-90.6874,14.94994,1462.1334],[-90.68082,14.9457,1464.6992],[-90.67348,14.93904,1465.098],[-90.66901,14.92958,1246.9143],[-90.65761,14.90395,1119.1403],[-90.62198,14.89134,751.1262],[-90.6071,14.89408,993.8905],[-90.59943,14.88581,805.9352],[-90.59415,14.88354,784.2333],[-90.58992,14.88483,851.751],[-90.5854,14.88726,998.8235],[-90.57919,14.88726,1004.1885],[-90.56398,14.88493,716.4324],[-90.53884,14.89,773.1626],[-90.51338,14.89878,846.9929],[-90.49724,14.90777,676.1664],[-90.48979,14.90777,835.2649],[-90.48499,14.89857,922.842],[-90.4775,14.89423,962.3174],[-90.46781,14.89315,727.8835],[-90.45628,14.89408,884.869],[-90.44305,14.89749,748.1055],[-90.43902,14.90245,590.8342],[-90.43662,14.90819,571.4523],[-90.42835,14.91397,585.3077],[-90.41207,14.91702,565.4645],[-90.4043,14.91077,553.837],[-90.39993,14.89904,560.5454],[-90.38737,14.88726,670.4213],[-90.3543,14.88152,593.0391],[-90.3034,14.88958,394.6897],[-90.29844,14.90565,1104.4629],[-90.28257,14.95449,829.1597],[-90.12387,15.06125,2035.2952],[-90.03845,15.11675,2069.8188],[-89.99995,15.14207,1219.312],[-89.973,15.15654,2264.9048],[-89.92885,15.21793,931.8792],[-89.91815,15.24705,333.7745],[-89.91737,15.25718,324.025],[-89.91931,15.26214,291.249],[-89.92172,15.26656,175.1991],[-89.92642,15.27219,433.1695],[-89.93766,15.28248,498.6653],[-89.9451,15.28674,539.2569],[-89.94874,15.28783,477.58],[-89.9521,15.2885,408.4344],[-89.99701,15.28486,593.6692],[-90.00605,15.28279,660.2629],[-90.03881,15.27015,500.3015],[-90.07801,15.26884,546.2318]]]}}