{"type":"Feature","properties":{"GID_2":"GTM.13.10_1","GID_0":"GTM","country":"Guatemala","GID_1":"GTM.13_1","province":"Quezaltenango","NL_NAME_1":"NA","county":"Génova","VARNAME_2":"NA","NL_NAME_2":"NA","TYPE_2":"Municipio","ENGTYPE_2":"Municipality","CC_2":"NA","HASC_2":"NA","name":"Génova.county"},
"geometry":{"type": "MultiPolygon","coordinates": [[[[-91.9687,14.5346,24.7018],[-91.9475,14.5213,28.1014],[-91.9433,14.5246,34.7931],[-91.9392,14.5252,33.2148],[-91.9289,14.5196,28.1564],[-91.9202,14.5186,32.9697],[-91.9161,14.5164,34.2571],[-91.9118,14.5107,35.9407],[-91.8892,14.5117,49.3649],[-91.8862,14.5088,46.162],[-91.8781,14.5153,51.666],[-91.874,14.5152,46.5139],[-91.8718,14.5112,48.6379],[-91.8564,14.5056,57.3162],[-91.8513,14.5012,56.4784],[-91.8381,14.4991,71.4406],[-91.833,14.4949,56.9968],[-91.8261,14.4943,66.68],[-91.8212,14.498,69.0877],[-91.8164,14.4959,66.7403],[-91.8139,14.4973,82.0136],[-91.8091,14.4961,78.741],[-91.8055,14.5026,93.0474],[-91.8015,14.5059,87.3432],[-91.8026,14.5116,90.9631],[-91.8008,14.514099999999999,87.6669],[-91.801,14.5206,101.2617],[-91.7979,14.5249,111.0823],[-91.7958,14.5333,101.7334],[-91.7928,14.534,103.7695],[-91.789,14.5403,135.4829],[-91.7854,14.553,166.4145],[-91.802,14.5576,223.8753],[-91.8052,14.5605,192.4391],[-91.8072,14.5659,193.4043],[-91.8015,14.5742,233.2616],[-91.8027,14.5824,267.445],[-91.7958,14.596,349.1994],[-91.7935,14.6163,416.015],[-91.7865,14.6275,502.3337],[-91.7856,14.6338,548.4587],[-91.7668,14.6492,655.7513],[-91.7672,14.6717,769.3292],[-91.7727,14.6729,769.6603],[-91.7781,14.6765,788.8004],[-91.7805,14.6757,757.3972],[-91.7891,14.6611,648.3102],[-91.7952,14.66,634.6989],[-91.802,14.6522,591.5781],[-91.8072,14.6526,568.4647],[-91.8132,14.661,600.0227],[-91.8231,14.6469,491.4344],[-91.8324,14.641,430.3605],[-91.8331,14.6352,422.0631],[-91.8488,14.6144,299.7511],[-91.8556,14.6079,259.5301],[-91.8587,14.5963,224.1858],[-91.8672,14.5884,163.5045],[-91.8748,14.5749,129.8927],[-91.8745,14.5692,109.8182],[-91.8845,14.5596,92.988],[-91.9017,14.5545,57.3137],[-91.915,14.5585,49.947],[-91.9263,14.5565,40.7157],[-91.9353,14.5575,37.0187],[-91.9687,14.5346,24.7018]]]]}}