{"type": "Feature","bbox": [-90.638,15.6936,-89.9297,16.0741],"geometry": {"type": "MultiPolygon","coordinates": [[[[-89.9827,15.9975,133.93],[-89.9908,16.0002,129.8804],[-90.0006,15.9974,133.1861],[-90.0091,15.9916,131.6803],[-90.0138,15.9945,127.3578],[-90.0083,15.9994,137.9884],[-90.0154,16.0084,125.9697],[-90.027,16.0066,131.6264],[-90.0351,16.0118,126.8105],[-90.0394,16.0086,127.5452],[-90.0356,15.9983,142.4489],[-90.0408,15.9902,141.0532],[-90.2229,16.0473,177.2918],[-90.4392,16.0741,131.3494],[-90.435,16.0656,131.464],[-90.4308,16.0636,128.0],[-90.4186,16.0676,131.3112],[-90.4161,16.0641,142.0719],[-90.4244,16.057,131.9106],[-90.4282,16.0518,130.5666],[-90.4294,16.0469,132.8378],[-90.4409,16.0436,129.0],[-90.4417,16.0408,129.0],[-90.4374,16.0393,131.5802],[-90.429,16.0414,136.8346],[-90.4231,16.0345,133.2216],[-90.4229,16.0234,141.2455],[-90.4359,16.0294,133.6377],[-90.4383,16.0275,133.746],[-90.4415,16.0171,136.4298],[-90.455,16.0152,133.71],[-90.4641,16.0063,130.5],[-90.4718,16.0059,135.4379],[-90.4712,16.0087,134.0121],[-90.4738,16.0144,134.0032],[-90.4781,16.0164,134.9051],[-90.4869,16.0135,135.3907],[-90.4911,15.9913,139.051],[-90.4998,15.9847,138.4426],[-90.5018,15.9879,134.3254],[-90.5042,15.9865,132.9221],[-90.5079,15.9816,144.852],[-90.5019,15.9725,134.9117],[-90.4955,15.9736,138.5014],[-90.4958,15.9723,138.5014],[-90.5141,15.9651,135.0666],[-90.5163,15.9681,140.0973],[-90.5222,15.9578,136.7366],[-90.5237,15.9604,137.8306],[-90.5267,15.9573,136.2826],[-90.5308,15.9575,142.9124],[-90.5358,15.9539,137.0143],[-90.5423,15.9548,137.4122],[-90.5476,15.9486,137.7111],[-90.5486,15.9426,143.2955],[-90.5552,15.9356,151.8688],[-90.5572,15.9298,151.8999],[-90.5646,15.9284,143.5775],[-90.5753,15.9174,146.0605],[-90.5791,15.9178,160.0066],[-90.5799,15.9055,149.7213],[-90.5859,15.9036,151.843],[-90.5821,15.8983,157.6012],[-90.5849,15.8842,155.7036],[-90.5896,15.8839,164.5048],[-90.5916,15.8731,151.206],[-90.5967,15.8768,162.6242],[-90.5962,15.8629,188.4714],[-90.5991,15.8583,225.5861],[-90.6112,15.8584,180.7997],[-90.6169,15.8645,159.7993],[-90.6229,15.8565,175.6586],[-90.625,15.848,179.512],[-90.63,15.8491,188.15],[-90.6336,15.8425,159.6762],[-90.638,15.84,189.5469],[-90.6154,15.826599999999999,259.5241],[-90.6107,15.8356,248.4194],[-90.6073,15.8359,213.3556],[-90.6045,15.829,222.5058],[-90.6023,15.8299,216.0391],[-90.6005,15.8334,217.1957],[-90.5922,15.8341,211.487],[-90.5937,15.8292,221.5529],[-90.5926,15.8259,219.3425],[-90.5951,15.8229,209.8438],[-90.5844,15.8209,206.4506],[-90.5836,15.8188,205.6786],[-90.586,15.8159,206.8627],[-90.5823,15.8114,211.0912],[-90.5775,15.813,206.1574],[-90.5697,15.8109,207.863],[-90.5624,15.8123,208.5476],[-90.559,15.811,212.5056],[-90.559,15.8052,242.8063],[-90.5501,15.8066,231.7938],[-90.545,15.8099,229.539],[-90.5423,15.8074,233.7544],[-90.5414,15.8087,230.4704],[-90.5338,15.8075,267.3589],[-90.5321,15.7955,220.6832],[-90.5399,15.7919,214.4898],[-90.541,15.7818,212.2136],[-90.546,15.7794,227.9461],[-90.5457,15.7734,240.2631],[-90.5331,15.7575,234.6936],[-90.5207,15.7564,245.3918],[-90.5026,15.7711,282.5542],[-90.4847,15.7414,344.5827],[-90.4919,15.7219,262.4588],[-90.4918,15.7186,251.6845],[-90.4808,15.7143,262.2418],[-90.4713,15.7163,276.0901],[-90.4689,15.7136,275.0976],[-90.4504,15.7243,400.6091],[-90.423,15.7225,415.9299],[-90.4208,15.7077,325.9882],[-90.4178,15.7076,335.2532],[-90.4165,15.7143,399.5914],[-90.4123,15.7135,394.3115],[-90.4023,15.7035,310.979],[-90.3885,15.703,334.71],[-90.3808,15.6936,375.0769],[-90.3626,15.6959,338.9072],[-90.3586,15.7002,364.9118],[-90.3593,15.7037,456.4937],[-90.3611,15.7047,499.0842],[-90.3624,15.7122,513.2952],[-90.3599,15.7176,491.7616],[-90.357,15.7199,427.3161],[-90.3388,15.7224,327.9886],[-90.3376,15.7244,331.6851],[-90.3311,15.7268,333.64],[-90.327,15.7257,323.3463],[-90.3253,15.7226,323.3009],[-90.3211,15.7209,319.5019],[-90.3152,15.7236,328.9949],[-90.3056,15.7197,317.8995],[-90.2915,15.7231,313.3401],[-90.2744,15.713,580.669],[-90.2697,15.7046,498.1255],[-90.2651,15.7036,541.833],[-90.2626,15.7064,501.5154],[-90.2505,15.7093,389.4709],[-90.2431,15.7145,421.1161],[-90.233,15.7143,461.1561],[-90.2177,15.7189,318.188],[-90.2134,15.7232,309.6639],[-90.2126,15.7293,313.2141],[-90.2096,15.7346,307.959],[-90.2004,15.7451,427.5922],[-90.193,15.7674,415.594],[-90.185,15.7678,314.2069],[-90.1541,15.7619,186.6616],[-90.1354,15.7607,187.0441],[-90.1289,15.7631,186.9347],[-90.1241,15.7678,188.7206],[-90.1167,15.7669,189.6711],[-90.1148,15.769,186.6097],[-90.1023,15.7614,185.5032],[-90.0987,15.7635,186.4933],[-90.0907,15.7612,188.4406],[-90.0905,15.7591,186.3946],[-90.0818,15.7521,187.353],[-90.0715,15.7547,183.7311],[-90.0706,15.7509,193.1512],[-90.050299999999993,15.7511,184.666],[-90.0309,15.7441,182.3819],[-90.0272,15.746,179.6993],[-90.0254,15.7422,180.571],[-90.0127,15.7449,189.6548],[-90.004,15.7364,179.0137],[-90.0016,15.7387,181.6697],[-90.0005,15.738,179.8942],[-89.9997,15.7335,180.4745],[-89.9966,15.7343,183.195],[-89.9954,15.7384,182.5899],[-89.9924,15.7395,181.8397],[-89.9881,15.7342,187.7107],[-89.9751,15.7398,189.7568],[-89.9729,15.7368,184.9019],[-89.9675,15.7408,188.1242],[-89.9549,15.7453,182.3565],[-89.9489,15.7522,195.0214],[-89.9509,15.7637,174.5674],[-89.9554,15.7728,298.6917],[-89.9445,15.7937,147.1871],[-89.9442,15.8074,161.7119],[-89.9413,15.8235,148.6538],[-89.9433,15.8312,149.875],[-89.9406,15.8354,148.9907],[-89.9311,15.8397,147.1944],[-89.9297,15.8454,154.6038],[-89.9362,15.8508,158.2111],[-89.9367,15.8558,156.7388],[-89.9507,15.8579,142.9293],[-89.9523,15.8735,152.9171],[-89.9485,15.8715,147.9547],[-89.9478,15.8728,144.4083],[-89.9488,15.8769,155.6684],[-89.9567,15.8812,138.2483],[-89.9535,15.8868,152.3023],[-89.9543,15.8893,152.4871],[-89.9587,15.8899,154.6101],[-89.9602,15.887,152.4184],[-89.9646,15.886,149.877],[-89.9694,15.8921,149.4426],[-89.9816,15.8927,146.4247],[-89.9798,15.8962,155.1968],[-89.9757,15.8988,137.8945],[-89.9836,15.9027,147.1333],[-89.9861,15.9007,146.1334],[-89.9867,15.8935,144.8593],[-89.9941,15.8937,146.7348],[-89.9926,15.901,134.6959],[-89.9932,15.9031,138.8586],[-89.998,15.9046,133.6279],[-89.9973,15.9067,140.5342],[-89.9879,15.9093,146.2211],[-89.9854,15.9124,133.2837],[-89.9871,15.9175,147.8117],[-89.9902,15.9192,139.3218],[-89.9958,15.9194,139.1415],[-89.9975,15.9228,141.8007],[-89.9929,15.9292,136.1418],[-89.9943,15.9343,143.8492],[-89.99,15.9358,132.3464],[-89.9884,15.9409,133.2827],[-89.991,15.9456,143.4924],[-89.991,15.9548,133.4847],[-89.9928,15.9581,133.9465],[-89.9947,15.9573,139.8139],[-89.9989,15.941,148.6689],[-90.0046,15.9373,132.9886],[-90.0056,15.9534,148.2041],[-90.0134,15.9453,147.7883],[-90.0225,15.9607,143.2959],[-90.0231,15.965,140.3477],[-90.0202,15.9653,134.2488],[-90.0106,15.9573,130.5831],[-90.0065,15.9596,132.8078],[-90.01,15.9718,133.5414],[-90.0165,15.9786,137.4853],[-90.0036,15.9895,142.9801],[-89.9827,15.9975,133.93]]]]}
,"properties": {"GID_2": "GTM.1.2_1","GID_0": "GTM","country": "Guatemala","GID_1": "GTM.1_1","province": "AltaVerapaz","NL_NAME_1": "NA","county": "Chisec","VARNAME_2": "NA","NL_NAME_2": "NA","TYPE_2": "Municipio","ENGTYPE_2": "Municipality","CC_2": "NA","HASC_2": "NA","name": "Chisec.county","area_km2": 2060.528,"hist_schema_id": "Elevation0-9000","hist_area_km2": {"125": 37.624,"150": 254.722,"175": 328.69,"200": 239.491,"225": 155.467,"250": 120.562,"275": 103.532,"300": 105.515,"325": 146.764,"350": 90.566,"375": 71.491,"400": 63.23,"425": 57.704,"450": 48.179,"475": 42.204,"500": 37.328,"525": 31.984,"550": 26.333,"575": 22.518,"600": 18.234,"625": 15.48,"650": 11.38,"675": 8.933,"700": 8.158,"725": 6.445,"750": 4.058,"775": 2.039,"800": 1.224,"825": 0.591,"850": 0.082}}}