{"type":"Feature","properties":{"ISO3166-1-Alpha-3":"GTM","country":"Guatemala","fill":"#F00","id":"1952","name":"Suchitepéquez"},
"geometry":{"type": "Polygon","coordinates": [[[-91.40299,14.6065,680.2139],[-91.41633,14.61012,745.0965],[-91.46188,14.61621,881.478],[-91.47661,14.62986,995.8109],[-91.45289,14.67399,1428.3779],[-91.44813,14.68804,1573.0876],[-91.44842,14.69145,1654.6954],[-91.44953,14.69693,1708.3984],[-91.46198,14.72913,2702.4746],[-91.46482,14.73378,2974.6313],[-91.46968,14.73957,2962.8706],[-91.51051,14.71295,1976.4067],[-91.54058,14.68711,1169.2891],[-91.56324,14.66231,866.8044],[-91.5659,14.65833,872.1606],[-91.56898,14.65223,778.3612],[-91.56965,14.64939,735.1892],[-91.57022,14.63818,787.627],[-91.56942,14.62541,721.2079],[-91.56888,14.61559,684.9299],[-91.60836,14.53715,305.8275],[-91.6088,14.5309,290.7281],[-91.60867,14.52764,276.0018],[-91.60828,14.52475,275.7102],[-91.61624,14.46615,173.027],[-91.61541,14.46015,167.4495],[-91.61391,14.45493,161.6258],[-91.61192,14.44992,154.4011],[-91.59929,14.42801,129.4993],[-91.59869,14.42057,125.1792],[-91.60327,14.35551,76.2621],[-91.60259,14.34223,72.5962],[-91.60309,14.33571,58.5553],[-91.60394,14.33112,56.886],[-91.61531,14.31468,56.9632],[-91.62776,14.27779,45.2859],[-91.63236,14.24802,37.4074],[-91.63443,14.21515,23.883],[-91.63559,14.20885,17.5447],[-91.6367,14.20663,14.1345],[-91.66523,14.16539,11.732],[-91.65926,14.12549,9.2244],[-91.6585,14.11735,4.8],[-91.63712,14.10444,3.2276],[-91.55187,14.05728,3.2044],[-91.52838,14.04714,5.3572],[-91.52852,14.04829,5.3572],[-91.52952,14.05651,3.1268],[-91.53291,14.07196,9.3634],[-91.53198,14.07661,10.8906],[-91.52981,14.08219,6.9324],[-91.48123,14.1519,26.8628],[-91.47304,14.16921,26.7354],[-91.46829,14.17676,27.2475],[-91.46307,14.18193,29.824],[-91.45692,14.18988,22.5],[-91.4556,14.20601,34.4563],[-91.45793,14.24626,40.881],[-91.46172,14.26988,37.9139],[-91.46219,14.27794,56.5501],[-91.4616,14.29008,50.0779],[-91.45986,14.29696,42.4027],[-91.45831,14.30026,42.5787],[-91.44798,14.30652,53.4417],[-91.44007,14.30104,56.5023],[-91.43656,14.29639,55.1515],[-91.43403,14.28869,51.4464],[-91.43266,14.28652,61.4414],[-91.42992,14.28574,58.8782],[-91.42581,14.28667,54.0912],[-91.41878,14.29081,57.1748],[-91.4154,14.29365,57.6652],[-91.41338,14.29654,58.4715],[-91.41369,14.29913,60.1205],[-91.4146,14.3015,63.868],[-91.41943,14.31039,69.6699],[-91.42137,14.31535,75.6387],[-91.42307,14.32409,72.7538],[-91.42364,14.33044,59.7633],[-91.42333,14.33664,59.9861],[-91.42121,14.34502,68.9914],[-91.41917,14.34977,72.7565],[-91.4178,14.35184,74.4808],[-91.41423,14.35535,68.3908],[-91.38573,14.37576,94.8355],[-91.38106,14.37819,107.9938],[-91.37292,14.38072,85.4169],[-91.36907,14.37923,85.2332],[-91.36473,14.37597,98.1369],[-91.35827,14.3662,96.1088],[-91.35643,14.36124,94.0993],[-91.35628,14.35742,92.1371],[-91.36354,14.34698,85.0757],[-91.36457,14.3446,83.7892],[-91.3653,14.34197,80.7835],[-91.36524,14.33923,98.1806],[-91.36437,14.3369,77.4102],[-91.36292,14.33437,77.7752],[-91.35806,14.32786,89.2197],[-91.35705,14.32466,84.0418],[-91.35687,14.32145,77.5059],[-91.35899,14.31313,74.693],[-91.35928,14.31019,83.552],[-91.35899,14.30729,78.4302],[-91.35798,14.30435,89.1293],[-91.35589,14.30119,81.422],[-91.35163,14.29722,74.9131],[-91.34659,14.29427,73.5373],[-91.34277,14.29262,77.239],[-91.33625,14.29163,76.4035],[-91.32628,14.29189,77.5684],[-91.31819,14.29665,78.0163],[-91.29995,14.31639,98.3879],[-91.28913,14.30595,101.8959],[-91.29409,14.28197,86.3159],[-91.28773,14.28042,86.6525],[-91.1711,14.27205,108.8978],[-91.16492,14.27598,140.2571],[-91.15603,14.29293,140.1521],[-91.15148,14.29944,164.0455],[-91.15009,14.30336,158.7087],[-91.14906,14.309,156.8851],[-91.14619,14.3569,220.3909],[-91.13957,14.37395,273.8879],[-91.11133,14.43044,529.573],[-91.09717,14.46764,589.5311],[-91.09717,14.48072,609.1244],[-91.09539,14.5032,702.5491],[-91.09722,14.51296,775.6262],[-91.10079,14.51756,803.6976],[-91.1072,14.52428,897.8455],[-91.11415,14.53043,745.3967],[-91.15311,14.55947,1406.2195],[-91.16639,14.56759,1994.4631],[-91.17608,14.57105,2617.3401],[-91.18195,14.57213,2778.9639],[-91.19226,14.57239,2666.0029],[-91.20107,14.57126,2306.3496],[-91.22882,14.5571,1196.5326],[-91.25138,14.55394,965.0801],[-91.25419,14.55539,975.1248],[-91.25719,14.55741,1073.6927],[-91.25765,14.5603,1085.8604],[-91.25763,14.5633,1111.2919],[-91.25523,14.57461,1305.6064],[-91.25486,14.57766,1358.9373],[-91.25517,14.58691,1422.4694],[-91.25672,14.59508,1430.6217],[-91.25858,14.59926,1486.9829],[-91.26313,14.60454,1618.7004],[-91.2922,14.62955,2402.2922],[-91.30259,14.6405,2168.7522],[-91.30553,14.64133,2497.0591],[-91.30928,14.64195,2340.5898],[-91.3206,14.63952,1670.5488],[-91.34297,14.63761,1683.1559],[-91.34382,14.63818,1683.1559],[-91.35522,14.65125,1370.4513],[-91.3701,14.65807,1326.9385],[-91.37788,14.6588,917.9105],[-91.38398,14.65683,819.3529],[-91.38747,14.65497,760.738],[-91.39232,14.65166,818.9502],[-91.39506,14.64898,765.4849],[-91.39661,14.64624,811.9392],[-91.39754,14.6434,721.0243],[-91.3978,14.6405,802.2184],[-91.39708,14.62789,764.9821],[-91.39798,14.62019,736.0005],[-91.40299,14.6065,680.2139]]]}}