{"type": "Feature","bbox": [-91.6678,14.045,-91.0943,14.7109],"geometry": {"type": "MultiPolygon","coordinates": [[[[-91.6678,14.1353,6.65],[-91.6638,14.1321,3.4624],[-91.6642,14.1276,8.1307],[-91.6663,14.1257,4.5519],[-91.6643,14.1243,2.459],[-91.6649,14.1215,1.6986],[-91.6521,14.114,5.6946],[-91.6462,14.1129,1.2436],[-91.6462,14.1107,2.5579],[-91.6401,14.1082,5.2459],[-91.6382,14.1051,3.2276],[-91.6307,14.1026,4.4654],[-91.6304,14.101,3.5],[-91.6276,14.1046,1.0414],[-91.6274,14.1018,2.3392],[-91.629,14.101,1.4475],[-91.6279,14.0982,3.1628],[-91.6249,14.0982,5.173],[-91.6199,14.0929,5.9766],[-91.6179,14.0926,0.6194],[-91.6176,14.0949,3.0456],[-91.6112,14.0901,0.7841],[-91.6104,14.0924,2.6056],[-91.6124,14.0968,1.7299],[-91.6099,14.1062,5.4865],[-91.6104,14.1099,3.8114],[-91.6126,14.1113,3.6341],[-91.6085,14.114,0.0],[-91.6065,14.1185,2.199],[-91.6074,14.1099,5.1044],[-91.6051,14.1004,1.8236],[-91.6018,14.1001,0.0],[-91.6004,14.1032,2.4274],[-91.5993,14.1021,6.9274],[-91.6021,14.0985,4.4465],[-91.6054,14.0996,1.8236],[-91.6062,14.0968,4.5933],[-91.6076,14.0979,0.7869],[-91.6099,14.0971,1.1435],[-91.6101,14.0949,0.5055],[-91.6035,14.0904,1.1227],[-91.6026,14.0935,1.346],[-91.5999,14.0951,1.2943],[-91.6004,14.0935,0.0],[-91.5982,14.0924,3.9195],[-91.5976,14.0899,4.7993],[-91.604,14.089,3.1027],[-91.6096,14.0932,0.0],[-91.6085,14.0893,5.1276],[-91.6115,14.0882,5.1063],[-91.5935,14.0763,3.0157],[-91.5899,14.0754,3.5],[-91.5899,14.0735,1.5342],[-91.5832,14.0715,4.8337],[-91.5815,14.0688,5.7004],[-91.5754,14.0671,5.8634],[-91.5746,14.0646,4.5572],[-91.5726,14.0651,4.7389],[-91.5707,14.0626,4.1614],[-91.5687,14.0629,4.3249],[-91.5571,14.0562,4.3018],[-91.5535,14.0524,5.2018],[-91.5496,14.051,2.3022],[-91.549,14.0529,4.8986],[-91.5424,14.049,3.3679],[-91.5385,14.0493,2.742],[-91.5387,14.0463,0.0],[-91.5354,14.045,0.8764],[-91.5373,14.0493,2.3589],[-91.5344,14.0512,3.2701],[-91.5389,14.0635,5.6662],[-91.5387,14.0668,7.7832],[-91.5324,14.0726,9.8199],[-91.5319,14.0751,10.288],[-91.535,14.0783,10.5657],[-91.5355,14.0813,11.5837],[-91.5109,14.1015,8.5],[-91.508,14.1059,9.7684],[-91.505,14.1186,18.0802],[-91.4912,14.1309,15.3233],[-91.4889,14.1441,23.0994],[-91.4847,14.1535,17.3364],[-91.4753,14.1633,20.0989],[-91.4616,14.1733,26.6237],[-91.4542,14.1933,24.9734],[-91.4498,14.1967,24.0],[-91.449,14.1998,25.317],[-91.4532,14.2015,33.0215],[-91.4533,14.2056,28.2879],[-91.4475,14.2079,33.4687],[-91.453,14.2228,36.5409],[-91.4504,14.2383,36.5635],[-91.4528,14.2453,41.2018],[-91.4501,14.2513,42.0593],[-91.4548,14.2658,40.0053],[-91.4607,14.2652,46.166],[-91.461,14.2685,40.6857],[-91.4571,14.2757,45.3839],[-91.4551,14.2898,38.8887],[-91.4612,14.29,46.0297],[-91.4651,14.2955,46.4235],[-91.4607,14.3026,46.9217],[-91.4631,14.3045,46.5067],[-91.4614,14.3077,49.1413],[-91.4522,14.3084,49.916],[-91.45,14.3123,45.2084],[-91.44,14.3197,51.7355],[-91.4389,14.3181,56.4901],[-91.4317,14.3203,65.5131],[-91.4277,14.3195,77.2203],[-91.4314,14.2974,61.3878],[-91.4207,14.2775,55.3752],[-91.3945,14.2922,61.2238],[-91.4103,14.3211,67.8128],[-91.4093,14.3232,66.3278],[-91.4022,14.3259,70.4243],[-91.3946,14.3366,69.1924],[-91.3885,14.3362,71.7397],[-91.3846,14.3479,70.2001],[-91.3846,14.3553,76.4288],[-91.3832,14.3576,72.3586],[-91.3763,14.3596,79.5803],[-91.3734,14.3745,81.2468],[-91.3645,14.3773,98.4168],[-91.3604,14.3804,104.6839],[-91.3483,14.3814,110.8959],[-91.3271,14.3981,145.5403],[-91.3235,14.3985,149.6771],[-91.3233,14.3963,147.2913],[-91.3328,14.3841,132.4223],[-91.3348,14.3791,155.5931],[-91.3314,14.3763,139.1831],[-91.3344,14.3724,121.0211],[-91.335,14.366,116.0662],[-91.3397,14.357,107.813],[-91.3403,14.3523,112.358],[-91.3372,14.34,95.33],[-91.3452,14.3266,87.0279],[-91.3423,14.3176,89.2513],[-91.332,14.3224,90.2822],[-91.32,14.3179,87.1017],[-91.2817,14.3089,118.2782],[-91.2798,14.3144,109.0765],[-91.2801,14.3217,125.0481],[-91.276,14.3278,141.3935],[-91.268,14.329,119.3326],[-91.2678,14.3363,125.6918],[-91.2565,14.3356,121.7185],[-91.256,14.333,121.5557],[-91.263,14.3189,105.5275],[-91.262,14.3124,102.7846],[-91.2648,14.3039,97.2497],[-91.1576,14.2851,116.9533],[-91.1536,14.2877,103.4698],[-91.1485,14.2827,117.3126],[-91.1463,14.2867,114.0437],[-91.1453,14.2945,124.095],[-91.1475,14.2983,149.6966],[-91.1455,14.3054,133.9366],[-91.1404,14.3108,172.1811],[-91.1425,14.3144,142.0369],[-91.1385,14.3146,151.2406],[-91.1379,14.3211,163.9867],[-91.1308,14.3213,169.3478],[-91.1275,14.3316,185.1374],[-91.1293,14.342,192.5206],[-91.1254,14.357,258.9691],[-91.1317,14.3622,231.0221],[-91.1319,14.3696,228.9707],[-91.1373,14.3746,267.7602],[-91.1213,14.3892,350.9797],[-91.1177,14.3982,412.7027],[-91.113,14.4043,381.01369999999997],[-91.1073,14.4099,436.7016],[-91.1007,14.4124,463.9526],[-91.0972,14.4179,473.1271],[-91.1002,14.4277,565.2757],[-91.096,14.4327,549.7168],[-91.0943,14.4435,534.0264],[-91.0958,14.4489,547.0874],[-91.1026,14.4489,546.1538],[-91.1068,14.4521,568.8685],[-91.1305,14.4572,422.1192],[-91.1259,14.4683,459.1281],[-91.1264,14.4733,480.5875],[-91.1232,14.4773,492.6015],[-91.123,14.4833,513.4612],[-91.1204,14.4899,541.4561],[-91.1244,14.4969,585.7014],[-91.1257,14.5106,628.0193],[-91.1187,14.5153,708.13],[-91.1241,14.5175,691.2962],[-91.1248,14.5231,729.2709],[-91.1283,14.5254,750.3679],[-91.1294,14.5345,828.533],[-91.1355,14.5454,991.7801],[-91.1436,14.5513,1096.4547],[-91.16,14.5582,1519.4214],[-91.1595,14.554,1480.1638],[-91.1764,14.5571,1973.9878],[-91.1789,14.561,2072.9202],[-91.1958,14.5628,2060.5813],[-91.2086,14.5602,1682.1193],[-91.2186,14.5558,1415.593],[-91.2236,14.5563,1239.6514],[-91.2268,14.5548,1211.6582],[-91.251,14.5379,812.2793],[-91.253,14.535,792.4869],[-91.2526,14.5272,707.897],[-91.2538,14.5256,699.1035],[-91.2553,14.5261,699.1035],[-91.2557,14.5334,809.8573],[-91.266,14.5309,853.9084],[-91.2697,14.5347,782.3293],[-91.2715,14.5415,752.971],[-91.275,14.5436,788.3665],[-91.2822,14.5972,1874.6895],[-91.2854,14.6066,1553.8074],[-91.2998,14.6091,1656.062],[-91.303,14.6129,1827.2694],[-91.3129,14.6147,1944.5671],[-91.3117,14.6209,2280.7754],[-91.3057,14.6258,2572.96],[-91.3102,14.6313,2523.4915],[-91.321,14.6382,1679.5836],[-91.3285,14.6338,1524.3303],[-91.3306,14.6435,2208.1255],[-91.3558,14.6425,977.132],[-91.3614,14.638,999.2667],[-91.3666,14.6401,885.7188],[-91.3755,14.6347,803.0982],[-91.3905,14.6354,742.957],[-91.3914,14.6378,656.3642],[-91.398,14.6426,761.3472],[-91.4021,14.6403,861.0781],[-91.4106,14.641,946.8629],[-91.4146,14.6363,930.5363],[-91.4219,14.6349,918.314],[-91.4472,14.6074,765.4338],[-91.4462,14.6007,724.0475],[-91.4474,14.5969,710.8259],[-91.4516,14.6008,760.7172],[-91.4647,14.5999,748.8101],[-91.4815,14.6026,764.1238],[-91.4834,14.5949,704.0027],[-91.5066,14.6015,719.2163],[-91.4908,14.6261,923.5366],[-91.4802,14.6374,1081.0244],[-91.4819,14.6604,1381.0935],[-91.4887,14.6848,1977.3474],[-91.4872,14.695,2349.0703],[-91.4875,14.7109,2923.811],[-91.5112,14.6874,1440.3333],[-91.5209,14.6848,1268.4758],[-91.5225,14.6824,1207.8427],[-91.5174,14.6755,1356.8917],[-91.52,14.6714,1266.28],[-91.5414,14.6568,1017.4542],[-91.5464,14.6556,986.7996],[-91.563,14.6302,774.4124],[-91.566,14.6105,667.8101],[-91.5706,14.6041,613.0089],[-91.5721,14.5971,577.5318],[-91.573,14.5818,498.9909],[-91.5801,14.5676,434.4911],[-91.581,14.5573,390.6927],[-91.591,14.5368,322.569],[-91.5854,14.5152,269.7838],[-91.5841,14.4882,218.8768],[-91.5818,14.4858,213.6372],[-91.5838,14.4777,198.7405],[-91.584,14.4584,165.2919],[-91.582,14.4519,159.4229],[-91.5854,14.428,134.5317],[-91.5873,14.426,132.0344],[-91.5852,14.4184,123.5215],[-91.5875,14.4035,96.5666],[-91.5911,14.4004,91.9975],[-91.5916,14.3977,100.0009],[-91.5901,14.3963,99.3568],[-91.5977,14.3872,91.0807],[-91.5934,14.3767,79.257],[-91.5995,14.3611,83.741],[-91.5983,14.3595,57.1776],[-91.601,14.3572,78.7338],[-91.6015,14.3547,76.8364],[-91.5979,14.3496,59.6652],[-91.6005,14.3472,62.3467],[-91.6005,14.3431,69.415],[-91.5964,14.3404,58.3721],[-91.5937,14.341,46.0872],[-91.5904,14.3394,46.6353],[-91.5913,14.3376,42.5061],[-91.5946,14.3373,69.7206],[-91.5971,14.3321,45.9235],[-91.5966,14.3292,41.4092],[-91.5991,14.3269,53.2903],[-91.5964,14.3225,43.379],[-91.6026,14.3169,43.7745],[-91.6063,14.3166,61.6616],[-91.6064,14.313,37.1399],[-91.6088,14.3121,45.2628],[-91.6088,14.3094,39.6988],[-91.6124,14.3056,58.3629],[-91.6087,14.3022,42.7146],[-91.6089,14.2998,33.4805],[-91.6118,14.2989,57.1663],[-91.6138,14.2893,33.2709],[-91.6161,14.2912,45.2182],[-91.6172,14.2903,33.1103],[-91.6159,14.2862,25.0615],[-91.6205,14.2843,33.851],[-91.6215,14.2813,33.851],[-91.6199,14.2791,22.7451],[-91.6222,14.2757,33.2357],[-91.6205,14.2731,22.0889],[-91.6239,14.2737,23.081],[-91.6231,14.2707,22.2453],[-91.6258,14.2669,25.2173],[-91.6256,14.2626,19.9527],[-91.6273,14.2607,39.5705],[-91.6257,14.2559,25.2261],[-91.6269,14.2439,28.7982],[-91.6235,14.2431,18.0405],[-91.6252,14.2382,16.8767],[-91.6229,14.2343,16.5805],[-91.6251,14.2214,13.1124],[-91.6234,14.2205,15.0496],[-91.6235,14.2165,12.9605],[-91.628,14.2042,10.8663],[-91.6359,14.1978,10.5973],[-91.636,14.1945,12.8966],[-91.6392,14.1947,10.468],[-91.6442,14.1917,8.7711],[-91.6435,14.1829,9.3042],[-91.6467,14.1815,11.1126],[-91.6474,14.1796,16.5702],[-91.645,14.1786,11.3431],[-91.648,14.1747,8.3675],[-91.6441,14.1736,9.3435],[-91.6465,14.1693,8.1599],[-91.6498,14.1694,6.7682],[-91.6529,14.1619,7.213],[-91.6558,14.1591,3.5955],[-91.6545,14.1561,4.0747],[-91.658,14.1528,7.695],[-91.6577,14.1497,6.4391],[-91.6631,14.1445,5.3975],[-91.6678,14.1353,6.65]]]]}
,"properties": {"GID_1": "GTM.20_1","GID_0": "GTM","country": "Guatemala","province": "Suchitepéquez","VARNAME_1": "NA","NL_NAME_1": "NA","TYPE_1": "Departamento","ENGTYPE_1": "Department","CC_1": "NA","HASC_1": "GT.SU","ISO_1": "NA","name": "Suchitepéquez.province","area_km2": 2087.579,"hist_schema_id": "Elevation0-9000","hist_area_km2": {"0": 99.949,"25": 222.104,"50": 162.837,"75": 121.421,"100": 118.899,"125": 128.097,"150": 102.129,"175": 79.019,"200": 72.217,"225": 66.013,"250": 60.998,"275": 57.3,"300": 49.024,"325": 46.888,"350": 43.52,"375": 40.42,"400": 39.311,"425": 34.403,"450": 32.062,"475": 29.618,"500": 30.356,"525": 29.864,"550": 28.241,"575": 27.687,"600": 24.567,"625": 24.566,"650": 24.997,"675": 23.211,"700": 22.184,"725": 21.794,"750": 17.545,"775": 14.836,"800": 13.995,"825": 12.64,"850": 11.696,"875": 10.486,"900": 9.747,"925": 8.372,"950": 8.187,"975": 6.977,"1000": 6.628,"1025": 7.161,"1050": 6.402,"1075": 6.012,"1100": 5.437,"1125": 5.13,"1150": 4.514,"1175": 4.329,"1200": 4.104,"1225": 3.755,"1250": 3.611,"1275": 3.427,"1300": 3.529,"1325": 3.057,"1350": 2.934,"1375": 3.057,"1400": 2.503,"1425": 2.606,"1450": 2.257,"1475": 2.072,"1500": 1.682,"1525": 1.805,"1550": 1.846,"1575": 1.293,"1600": 1.498,"1625": 1.272,"1650": 1.416,"1675": 0.903,"1700": 1.19,"1725": 1.108,"1750": 0.821,"1775": 0.964,"1800": 0.821,"1825": 0.759,"1850": 0.862,"1875": 0.759,"1900": 0.595,"1925": 0.657,"1950": 0.513,"1975": 0.41,"2000": 0.513,"2025": 0.472,"2050": 0.554,"2075": 0.328,"2100": 0.39,"2125": 0.267,"2150": 0.369,"2175": 0.226,"2200": 0.205,"2225": 0.287,"2250": 0.185,"2275": 0.205,"2300": 0.185,"2325": 0.123,"2350": 0.144,"2375": 0.123,"2400": 0.144,"2425": 0.144,"2450": 0.082,"2475": 0.144,"2500": 0.041,"2525": 0.185,"2550": 0.082,"2575": 0.062,"2600": 0.041,"2675": 0.021,"2700": 0.123,"2725": 0.021,"2750": 0.021,"2775": 0.021}}}