{"type":"Feature","properties":{"GID_2":"GTM.8.26_1","GID_0":"GTM","country":"Guatemala","GID_1":"GTM.8_1","province":"Huehuetenango","NL_NAME_1":"NA","county":"SantaCruzBarillas","VARNAME_2":"NA","NL_NAME_2":"NA","TYPE_2":"Municipio","ENGTYPE_2":"Municipality","CC_2":"NA","HASC_2":"NA","name":"Santa_Cruz_Barillas.county"},
"geometry":{"type": "MultiPolygon","coordinates": [[[[-91.3551,15.8205,1974.3905],[-91.341,15.8181,1816.9061],[-91.3378,15.8124,1671.5083],[-91.326,15.8042,1496.7188],[-91.3205,15.793,1814.4543],[-91.306,15.7748,1612.4673],[-91.2786,15.7754,1079.9622],[-91.2678,15.7791,1163.6534],[-91.258,15.7779,1079.3667],[-91.2522,15.7801,912.0112],[-91.234,15.7765,1004.161],[-91.2215,15.7692,1117.0914],[-91.2087,15.7683,959.6187],[-91.2017,15.7604,665.4075],[-91.1829,15.749,632.3141],[-91.1655,15.7507,1175.9579],[-91.1644,15.7763,1135.4958],[-91.1537,15.8003,1045.0641],[-91.0995,15.8154,285.9011],[-91.0807,15.8451,303.3654],[-90.9574,16.0737,153.8566],[-91.0589,16.0723,227.3688],[-91.0593,16.0743,209.714],[-91.3197,16.0744,433.0598],[-91.3472,16.0551,782.6935],[-91.3542,16.0415,724.5231],[-91.3678,16.0403,979.7599],[-91.3815,16.0346,837.7545],[-91.3929,16.0377,1049.64],[-91.4118,16.0267,1158.1152],[-91.4133,16.0201,1128.1923],[-91.4085,16.0157,1179.9788],[-91.389,16.0082,1307.2432],[-91.3811,16.0011,1341.6974],[-91.3718,15.9668,1675.6133],[-91.3643,15.9532,1815.3062],[-91.3632,15.9451,1946.2435],[-91.3491,15.9341,1953.4423],[-91.3465,15.9225,1935.3176],[-91.3296,15.9163,1657.4241],[-91.3228,15.9033,1675.9977],[-91.3232,15.8963,1697.7479],[-91.3134,15.8801,1909.5334],[-91.3213,15.8471,2316.1172],[-91.3429,15.8426,2446.8979],[-91.3551,15.8205,1974.3905]]]]}}