{"type":"Feature","properties":{"GID_2":"GTM.12.7_1","GID_0":"GTM","country":"Guatemala","GID_1":"GTM.12_1","province":"Petén","NL_NAME_1":"NA","county":"SanBenito","VARNAME_2":"NA","NL_NAME_2":"NA","TYPE_2":"Municipio","ENGTYPE_2":"Municipality","CC_2":"NA","HASC_2":"NA","name":"San_Benito.county"},
"geometry":{"type": "MultiPolygon","coordinates": [[[[-89.9167,16.9438,105.0],[-89.97,16.9454,105.0],[-90.0748,16.9586,160.5681],[-90.0365,16.8725,189.8325],[-89.9166,16.8637,223.4604],[-89.9167,16.9438,105.0]]]]}}