{"type":"Feature","properties":{"GID_2":"GTM.22.2_1","GID_0":"GTM","country":"Guatemala","GID_1":"GTM.22_1","province":"Zacapa","NL_NAME_1":"NA","county":"Estanzuela","VARNAME_2":"NA","NL_NAME_2":"NA","TYPE_2":"Municipio","ENGTYPE_2":"Municipality","CC_2":"NA","HASC_2":"NA","name":"Estanzuela.county"},
"geometry":{"type": "MultiPolygon","coordinates": [[[[-89.639,14.9185,614.5364],[-89.6334,14.9248,626.21],[-89.6163,14.9285,310.6993],[-89.6113,14.9332,286.9308],[-89.6103,14.9367,275.7434],[-89.6153,14.9449,255.1801],[-89.6096,14.9505,243.2728],[-89.593,14.9517,235.8358],[-89.5851,14.9492,234.2103],[-89.5755,14.9586,215.9689],[-89.5642,14.966,196.2577],[-89.5529,14.9699,181.7639],[-89.5496,14.9728,178.8258],[-89.5516,14.9826,175.9163],[-89.5472,14.9876,199.7267],[-89.5456,15.0014,184.4358],[-89.5536,15.0152,164.6604],[-89.5529,15.033,170.9657],[-89.5544,15.032,160.1756],[-89.5606,15.034,172.145],[-89.5603,15.0363,177.9822],[-89.5651,15.0392,169.7944],[-89.5895,15.0311,186.0117],[-89.5989,15.0217,183.5508],[-89.6064,15.02,188.9529],[-89.616,15.0085,176.6593],[-89.6321,15.0059,170.0769],[-89.6605,14.9914,210.4716],[-89.6601,14.9664,240.4025],[-89.6637,14.9638,247.8038],[-89.6499,14.947,664.904],[-89.6546,14.9258,879.4193],[-89.651,14.9217,785.0963],[-89.639,14.9185,614.5364]]]]}}