{"type": "Feature","bbox": [-92.138,14.6263,-91.9702,14.8022],"geometry": {"type": "MultiPolygon","coordinates": [[[[-92.0098,14.7135,107.2341],[-92.0091,14.7183,104.8423],[-92.004,14.7207,119.105],[-92.0006,14.7297,143.5757],[-91.9893,14.7349,169.4728],[-91.9722,14.7494,226.0544],[-91.9702,14.753,240.2911],[-91.9799,14.7618,247.7563],[-91.9794,14.7638,235.3618],[-91.9703,14.7647,262.7138],[-91.9774,14.77,288.5897],[-91.9825,14.776,304.5432],[-91.9903,14.78,232.5709],[-91.9996,14.7883,238.4413],[-92.009,14.7865,250.2748],[-92.0128,14.7842,226.9723],[-92.0153,14.7848,254.0016],[-92.013,14.7949,338.1581],[-92.0189,14.7956,328.3418],[-92.0198,14.799,300.8629],[-92.0247,14.7984,284.2906],[-92.0267,14.8022,296.4855],[-92.0294,14.8022,330.3322],[-92.0325,14.7935,235.0754],[-92.038,14.7866,222.7328],[-92.042,14.7865,207.8271],[-92.0452,14.7887,198.6227],[-92.0454,14.7905,150.6643],[-92.052,14.7944,159.5036],[-92.0569,14.7941,144.2703],[-92.0641,14.7891,96.3149],[-92.0775,14.7941,104.4541],[-92.0723,14.7849,95.3709],[-92.0713,14.7788,85.1593],[-92.0751,14.78,88.0776],[-92.0761,14.762,64.9754],[-92.071,14.756,55.9819],[-92.0739,14.7551,54.8687],[-92.0782,14.742,47.3521],[-92.0654,14.7382,101.1528],[-92.0845,14.7225,52.468],[-92.115,14.7406,50.8087],[-92.1162,14.7053,32.2743],[-92.121,14.7006,32.5236],[-92.1194,14.6942,22.8768],[-92.1161,14.6935,24.4856],[-92.1145,14.6869,23.3742],[-92.1258,14.6714,27.2966],[-92.1263,14.6597,17.1595],[-92.1307,14.6547,22.4765],[-92.1319,14.6449,20.8919],[-92.1358,14.6429,20.8051],[-92.138,14.6263,17.9906],[-92.1163,14.6408,16.6658],[-92.1084,14.6515,19.9261],[-92.1066,14.6575,19.8314],[-92.1035,14.6594,24.4215],[-92.0969,14.6583,26.215699999999998],[-92.0929,14.6647,30.7302],[-92.0886,14.6793,30.2107],[-92.0835,14.6846,33.6115],[-92.0713,14.6827,46.9526],[-92.065,14.6908,53.0859],[-92.0602,14.6945,47.6616],[-92.0525,14.7067,57.2325],[-92.042,14.7083,72.7801],[-92.0384,14.7128,70.8465],[-92.0324,14.7133,73.7195],[-92.0275,14.7172,84.5212],[-92.0227,14.7176,85.0922],[-92.0098,14.7135,107.2341]]]]}
,"properties": {"GID_2": "GTM.17.14_1","GID_0": "GTM","country": "Guatemala","GID_1": "GTM.17_1","province": "SanMarcos","NL_NAME_1": "NA","county": "Pajapita","VARNAME_2": "NA","NL_NAME_2": "NA","TYPE_2": "Municipio","ENGTYPE_2": "Municipality","CC_2": "NA","HASC_2": "NA","name": "Pajapita.county","area_km2": 126.64058,"hist_schema_id": "Elevation0-9000","hist_area_km2": {"0": 0.24616,"25": 28.46766,"50": 19.76876,"75": 17.67532,"100": 13.98348,"125": 9.47247,"150": 8.95974,"175": 8.24199,"200": 7.74973,"225": 5.43291,"250": 3.6903,"275": 1.86556,"300": 0.697,"325": 0.34849,"350": 0.041}}}