{"type":"Feature","properties":{"GID_2":"GTM.17.5_1","GID_0":"GTM","country":"Guatemala","GID_1":"GTM.17_1","province":"SanMarcos","NL_NAME_1":"NA","county":"ElQuetzal","VARNAME_2":"NA","NL_NAME_2":"NA","TYPE_2":"Municipio","ENGTYPE_2":"Municipality","CC_2":"NA","HASC_2":"NA","name":"El_Quetzal.county"},
"geometry":{"type": "MultiPolygon","coordinates": [[[[-91.8442,14.7145,503.2234],[-91.8314,14.7183,483.6618],[-91.8247,14.7229,539.5864],[-91.823,14.7293,534.0168],[-91.8209,14.7305,492.3628],[-91.8035,14.7311,624.2046],[-91.7953,14.7364,515.3508],[-91.7909,14.7421,759.8528],[-91.7892,14.7556,717.0675],[-91.7837,14.7645,625.0681],[-91.7846,14.7679,698.1678],[-91.7834,14.7715,695.4813],[-91.7782,14.7795,719.7925],[-91.7818,14.7846,820.7916],[-91.7787,14.7919,753.3462],[-91.7833,14.7992,911.7646],[-91.7831,14.8125,1121.7468],[-91.7823,14.8151,918.3572],[-91.7731,14.8239,984.6102],[-91.7762,14.8318,1009.6398],[-91.7699,14.841,1151.7781],[-91.7779,14.8493,1622.6016],[-91.7869,14.8682,2182.6755],[-91.7962,14.8476,1789.3303],[-91.7999,14.8427,1659.1571],[-91.8043,14.8218,1343.5787],[-91.8015,14.8174,1284.9713],[-91.8057,14.808,1077.4235],[-91.8119,14.7856,783.7432],[-91.8204,14.7724,748.0233],[-91.8267,14.7661,656.4058],[-91.8419,14.7594,672.6949],[-91.859,14.7492,544.7954],[-91.8626,14.7448,466.9564],[-91.8675,14.7428,414.3544],[-91.8766,14.7323,398.0338],[-91.8837,14.7273,423.1622],[-91.9174,14.7326,236.0252],[-91.9211,14.7294,295.6226],[-91.9205,14.725,322.5261],[-91.9183,14.7252,307.4772],[-91.9162,14.7225,332.0818],[-91.9126,14.7229,325.2973],[-91.9113,14.7203,362.3173],[-91.9067,14.7206,274.4795],[-91.9015,14.7157,309.331],[-91.8978,14.7182,256.7345],[-91.8808,14.716,354.7631],[-91.8772,14.7181,325.3486],[-91.8629,14.7175,383.2365],[-91.8535,14.7189,387.2518],[-91.8488,14.7183,489.2345],[-91.8467,14.7146,489.7378],[-91.8442,14.7145,503.2234]]]]}}