{"type":"Feature","properties":{"GID_2":"GTM.1.15_1","GID_0":"GTM","country":"Guatemala","GID_1":"GTM.1_1","province":"AltaVerapaz","NL_NAME_1":"NA","county":"Tucurú","VARNAME_2":"NA","NL_NAME_2":"NA","TYPE_2":"Municipio","ENGTYPE_2":"Municipality","CC_2":"NA","HASC_2":"NA","name":"Tucurú.county"},
"geometry":{"type": "MultiPolygon","coordinates": [[[[-89.962,15.305,195.6253],[-89.9783,15.3176,529.2776],[-89.9787,15.3285,690.6218],[-89.9834,15.3295,882.5772],[-89.9823,15.332,996.9797],[-89.9896,15.3423,1643.6782],[-90.021,15.3383,1631.3389],[-90.0265,15.3398,1487.6658],[-90.0303,15.3493,1467.3281],[-90.0348,15.3535,1544.5399],[-90.0514,15.3555,1911.3236],[-90.0562,15.3576,2173.0852],[-90.0603,15.3606,2164.8738],[-90.0613,15.3652,2067.6216],[-90.0629,15.3662,2185.4038],[-90.0699,15.3598,2231.3569],[-90.0813,15.361,2318.1743],[-90.096,15.3714,2005.0328],[-90.0982,15.366,2066.6936],[-90.1057,15.3613,1775.8312],[-90.1098,15.3642,1410.8243],[-90.1241,15.3634,1058.8232],[-90.1274,15.36,1170.2949],[-90.1294,15.3534,1055.9043],[-90.1426,15.3438,1541.8168],[-90.1463,15.3449,1582.2844],[-90.1532,15.3419,1945.6511],[-90.1743,15.3449,1939.0143],[-90.1771,15.342,1893.8934],[-90.1767,15.3323,1461.4763],[-90.1661,15.328,1122.5188],[-90.1637,15.3138,847.2021],[-90.1479,15.3034,619.9885],[-90.1453,15.3035,654.4919],[-90.1451,15.298,567.1887],[-90.1472,15.2968,728.1215],[-90.1491,15.2987,673.5899],[-90.1626,15.2964,684.0764],[-90.1654,15.2922,708.164],[-90.1815,15.2825,1199.4952],[-90.1871,15.2751,1427.9082],[-90.1841,15.2624,2080.7349],[-90.1671,15.2579,1950.0247],[-90.1537,15.2571,1858.1289],[-90.1432,15.2625,1563.9248],[-90.124,15.2596,1288.0244],[-90.0976,15.2619,1119.7649],[-90.0902,15.2598,1047.0681],[-90.063,15.2607,806.9465],[-90.0568,15.2571,802.4243],[-90.0396,15.2625,823.0112],[-90.0096,15.2658,738.9999],[-89.9703,15.2737,825.7202],[-89.9648,15.2774,813.8647],[-89.9659,15.2978,296.8041],[-89.962,15.305,195.6253]]]]}}