{"type": "Feature","bbox": [-89.7761,14.5408,-89.6483,14.7572],"geometry": {"type": "MultiPolygon","coordinates": [[[[-89.7322,14.7408,1178.2384],[-89.7475,14.7249,1096.1809],[-89.7452,14.7167,955.9175],[-89.7581,14.7073,954.5021],[-89.7621,14.6968,1082.3374],[-89.7507,14.6891,801.1216],[-89.7609,14.6814,1073.6775],[-89.7623,14.6786,1113.5619],[-89.7729,14.6723,1373.0153],[-89.7756,14.6667,1384.8782],[-89.7761,14.6519,1600.6176],[-89.7721,14.6248,1284.6594],[-89.7643,14.6214,1186.4972],[-89.7616,14.6151,1106.2959],[-89.7611,14.6045,1155.4133],[-89.7574,14.6016,1112.1077],[-89.7541,14.5859,1054.729],[-89.7539,14.5769,985.2849],[-89.7496,14.5696,967.2141],[-89.7427,14.5647,929.4702],[-89.7425,14.5525,986.6302],[-89.7207,14.5484,863.1137],[-89.7163,14.544,825.6914],[-89.7107,14.5452,806.5291],[-89.7067,14.5426,823.7307],[-89.7023,14.5446,815.5515],[-89.6942,14.5408,840.7202],[-89.6855,14.5446,840.5413],[-89.6872,14.5493,837.2048],[-89.6871,14.5609,834.3176],[-89.6617,14.6182,772.5821],[-89.6641,14.6298,778.9175],[-89.6592,14.638,783.3842],[-89.66,14.6436,788.4343],[-89.6509,14.6569,783.5779],[-89.6483,14.706,608.5172],[-89.6555,14.7044,618.3239],[-89.6612,14.705,626.1776],[-89.6595,14.7289,972.5048],[-89.6556,14.7428,1062.3263],[-89.6596,14.7476,1275.6038],[-89.6612,14.7549,1408.5938],[-89.6703,14.7572,1322.6967],[-89.6802,14.7571,1415.6987],[-89.6964,14.7396,978.0347],[-89.7055,14.7367,944.7316],[-89.7124,14.7309,909.9629],[-89.7322,14.7408,1178.2384]]]]}
,"properties": {"GID_2": "GTM.10.5_1","GID_0": "GTM","country": "Guatemala","GID_1": "GTM.10_1","province": "Jalapa","NL_NAME_1": "NA","county": "SanLuisJilotepeque","VARNAME_2": "NA","NL_NAME_2": "NA","TYPE_2": "Municipio","ENGTYPE_2": "Municipality","CC_2": "NA","HASC_2": "NA","name": "San_Luis_Jilotepeque.county","area_km2": 223.9995,"hist_schema_id": "Elevation0-9000","hist_area_km2": {"525": 0.0615,"550": 0.2666,"575": 0.5947,"600": 1.4356,"625": 1.9484,"650": 2.8918,"675": 3.8558,"700": 7.0967,"725": 12.5331,"750": 17.1077,"775": 24.4728,"800": 23.7553,"825": 21.0684,"850": 16.1448,"875": 11.8161,"900": 9.4978,"925": 6.9128,"950": 5.9074,"975": 5.9074,"1000": 4.923,"1025": 4.5945,"1050": 4.2869,"1075": 3.9792,"1100": 3.8971,"1125": 4.5946,"1150": 3.9793,"1175": 3.1178,"1200": 2.2358,"1225": 1.5589,"1250": 1.9281,"1275": 1.2512,"1300": 1.251,"1325": 1.1897,"1350": 1.4152,"1375": 1.2921,"1400": 0.8614,"1425": 0.923,"1450": 0.8615,"1475": 0.7999,"1500": 0.5128,"1525": 0.2872,"1550": 0.2667,"1575": 0.3897,"1600": 0.3077,"1625": 0.0205}}}