{"type": "Feature","bbox": [-90.5771,14.4849,-90.5254,14.5434],"geometry": {"type": "MultiPolygon","coordinates": [[[[-90.5378,14.5389,1318.6761],[-90.5575,14.5434,1354.943],[-90.5482,14.5334,1301.0974],[-90.5493,14.5298,1269.1742],[-90.5531,14.5274,1295.6486],[-90.5575,14.529,1256.5444],[-90.5656,14.5251,1247.7052],[-90.565,14.5097,1272.7693],[-90.5733,14.4912,1307.2913],[-90.5771,14.4861,1188.0],[-90.5698,14.4861,1188.0],[-90.5713,14.4879,1188.0],[-90.5704,14.4893,1312.4911],[-90.5685,14.4872,1222.4972],[-90.5403,14.4891,1282.0502],[-90.536,14.4849,1224.9813],[-90.5282,14.4919,1291.7543],[-90.5255,14.4964,1348.0144],[-90.5254,14.5014,1352.9982],[-90.5282,14.5024,1349.0842],[-90.5365,14.5145,1289.8566],[-90.5365,14.5166,1288.0032],[-90.5352,14.5186,1294.3945],[-90.5265,14.5213,1261.6235],[-90.5265,14.5293,1279.1259],[-90.5309,14.5331,1318.0867],[-90.5305,14.539,1330.7769],[-90.5378,14.5389,1318.6761]]]]}
,"properties": {"GID_2": "GTM.7.7_1","GID_0": "GTM","country": "Guatemala","GID_1": "GTM.7_1","province": "Guatemala","NL_NAME_1": "NA","county": "Petapa","VARNAME_2": "NA","NL_NAME_2": "NA","TYPE_2": "Municipio","ENGTYPE_2": "Municipality","CC_2": "NA","HASC_2": "NA","name": "Petapa.county","area_km2": 21.26483,"hist_schema_id": "Elevation0-9000","hist_area_km2": {"1200": 0.16422,"1225": 3.71531,"1250": 6.36302,"1275": 5.91152,"1300": 2.85301,"1325": 1.55989,"1350": 0.32841,"1375": 0.14367,"1400": 0.14367,"1425": 0.08209}}}