{"type":"Feature","properties":{"GID_2":"GTM.6.1_1","GID_0":"GTM","country":"Guatemala","GID_1":"GTM.6_1","province":"Escuintla","NL_NAME_1":"NA","county":"Escuintla","VARNAME_2":"NA","NL_NAME_2":"NA","TYPE_2":"Municipio","ENGTYPE_2":"Municipality","CC_2":"NA","HASC_2":"NA","name":"Escuintla.county"},
"geometry":{"type": "MultiPolygon","coordinates": [[[[-90.9536,14.3991,778.8971],[-90.9507,14.3983,782.7768],[-90.9549,14.3938,753.5124],[-90.9549,14.3881,713.8473],[-90.9612,14.3766,646.6326],[-90.9612,14.3714,619.0286],[-90.9504,14.3672,626.3753],[-90.9477,14.3785,676.083],[-90.9403,14.3764,688.0277],[-90.9287,14.376,732.5916],[-90.9381,14.3608,615.1565],[-90.9374,14.3593,608.3257],[-90.9203,14.357,756.2412],[-90.9166,14.3538,736.8741],[-90.9108,14.3543,686.1649],[-90.9063,14.3527,667.3644],[-90.8955,14.3461,693.7139],[-90.8883,14.3462,679.7042],[-90.8813,14.3424,596.1337],[-90.874,14.341,423.7622],[-90.8732,14.3359,387.7547],[-90.8772,14.3312,329.9492],[-90.8828,14.328,302.2677],[-90.8847,14.3216,286.481],[-90.898,14.3228,429.4037],[-90.9016,14.3208,338.4491],[-90.9128,14.325,261.9613],[-90.9154,14.3207,253.8348],[-90.9187,14.3193,268.2115],[-90.9232,14.3103,244.6492],[-90.9191,14.295,224.815],[-90.9215,14.2919,216.1669],[-90.9196,14.2835,183.3112],[-90.907,14.2786,158.7159],[-90.8975,14.2726,147.8157],[-90.8983,14.2656,137.3946],[-90.8875,14.2484,118.4825],[-90.8877,14.2459,115.0229],[-90.8825,14.2429,114.3873],[-90.8826,14.2364,108.0479],[-90.8774,14.2383,111.5625],[-90.8668,14.2315,121.9046],[-90.8497,14.2186,118.4602],[-90.8472,14.2133,122.6633],[-90.8373,14.2266,143.5973],[-90.8262,14.2329,157.8772],[-90.825,14.231,159.7206],[-90.8168,14.2423,182.1967],[-90.8027,14.237,181.1658],[-90.8035,14.2306,173.0892],[-90.8079,14.2293,168.7218],[-90.8101,14.2232,157.9568],[-90.7827,14.2137,159.4568],[-90.7851,14.2096,154.0758],[-90.782,14.2053,146.3781],[-90.7812,14.2007,143.3699],[-90.7693,14.1988,147.2984],[-90.7682,14.1933,133.2067],[-90.7727,14.1916,132.9734],[-90.7718,14.1887,134.2983],[-90.7552,14.1676,105.2581],[-90.7435,14.1726,115.4973],[-90.7426,14.1857,125.553],[-90.741,14.1881,127.6974],[-90.7226,14.1865,116.3571],[-90.7206,14.189,117.4497],[-90.7139,14.1855,108.1577],[-90.7074,14.1722,96.9302],[-90.6765,14.1554,48.0104],[-90.6719,14.1593,63.74],[-90.6687,14.1729,60.8199],[-90.6672,14.1737,58.2067],[-90.669,14.1776,61.5864],[-90.6694,14.1855,66.113],[-90.6769,14.1971,75.8906],[-90.6821,14.2018,76.2767],[-90.6816,14.207,78.1224],[-90.6841,14.2113,89.7939],[-90.69,14.2155,104.9421],[-90.6921,14.2253,114.6883],[-90.6967,14.2265,122.6702],[-90.6979,14.2291,134.4365],[-90.6835,14.2374,276.2257],[-90.688,14.2474,287.6378],[-90.7003,14.2597,273.3889],[-90.7095,14.2726,272.3492],[-90.6908,14.2746,364.7117],[-90.6889,14.277,360.8876],[-90.6889,14.279,366.2549],[-90.6925,14.2806,379.713],[-90.6902,14.291,436.6556],[-90.6925,14.2953,523.3568],[-90.6889,14.3192,666.4805],[-90.6857,14.3217,854.4915],[-90.713,14.3262,347.1407],[-90.7422,14.3286,544.8716],[-90.7438,14.342,552.2422],[-90.7456,14.3459,609.5821],[-90.7486,14.3433,549.4428],[-90.7544,14.3528,603.4612],[-90.7534,14.357,625.2254],[-90.7492,14.3608,663.9958],[-90.7469,14.3708,747.9617],[-90.7341,14.3726,783.2446],[-90.7457,14.3802,818.0201],[-90.7476,14.3876,891.0533],[-90.745,14.4047,1113.3838],[-90.7478,14.4079,1160.6448],[-90.7637,14.4109,1189.3262],[-90.7693,14.4139,1194.3118],[-90.7904,14.4134,1024.366],[-90.7966,14.4048,922.8403],[-90.8031,14.4009,859.9502],[-90.8075,14.3868,732.4832],[-90.8084,14.3776,668.9941],[-90.8108,14.378,677.903],[-90.816,14.3876,707.9014],[-90.8161,14.4077,836.5322],[-90.8193,14.4089,853.0752],[-90.8253,14.4174,965.4998],[-90.8339,14.423,1083.2639],[-90.8342,14.43,1152.8132],[-90.8434,14.4473,1484.2319],[-90.8528,14.45,1597.9596],[-90.8675,14.465,2672.3259],[-90.88,14.4716,3531.769],[-90.8912,14.4498,2085.2979],[-90.9099,14.4383,1488.3196],[-90.9226,14.4273,1154.3049],[-90.9322,14.4247,1066.8756],[-90.9437,14.4136,896.98],[-90.9536,14.3991,778.8971]]]]}}