{"type": "Feature","bbox": [-90.4355,14.5836,-90.3838,14.7069],"geometry": {"type": "MultiPolygon","coordinates": [[[[-90.3841,14.7066,1113.9713],[-90.387,14.7069,1100.1332],[-90.3912,14.7028,1149.3716],[-90.3971,14.7065,1144.2566],[-90.3996,14.7062,1148.5303],[-90.3979,14.7021,1186.4402],[-90.3998,14.6944,1196.6465],[-90.4051,14.6877,1227.2151],[-90.4104,14.6863,1211.7361],[-90.4139,14.6835,1220.8384],[-90.4188,14.6758,1276.0095],[-90.4231,14.6633,1318.1099],[-90.4355,14.6506,1427.3431],[-90.434,14.6487,1440.062],[-90.4348,14.6477,1455.3646],[-90.4313,14.6448,1354.3354],[-90.4269,14.6504,1394.8312],[-90.4263,14.6495,1369.1338],[-90.4275,14.6461,1393.0247],[-90.4322,14.6417,1389.5381],[-90.4312,14.6329,1443.8931],[-90.4335,14.6297,1411.3683],[-90.4313,14.6295,1408.0337],[-90.4296,14.626,1460.1698],[-90.4247,14.6254,1466.4576],[-90.4229,14.6228,1490.7416],[-90.4251,14.6205,1481.8223],[-90.4206,14.6153,1532.1711],[-90.4205,14.6131,1539.3619],[-90.4191,14.6132,1530.1526],[-90.4246,14.603,1691.921],[-90.4273,14.6021,1709.682],[-90.4344,14.5939,1662.0505],[-90.4225,14.5836,1822.6201],[-90.4181,14.5882,1746.9849],[-90.4027,14.5836,1669.8323],[-90.4024,14.5876,1646.5076],[-90.4108,14.6068,1517.2039],[-90.3998,14.6305,1416.127],[-90.4029,14.6351,1336.9419],[-90.4013,14.6369,1362.6364],[-90.4025,14.6427,1379.4807],[-90.3997,14.6426,1305.8976],[-90.3982,14.6372,1338.1864],[-90.394,14.635,1393.66],[-90.3924,14.6358,1301.8833],[-90.3911,14.6413,1370.3563],[-90.3937,14.6484,1315.629],[-90.3903,14.6603,1304.8287],[-90.3939,14.6696,1263.1053],[-90.389,14.6814,1125.3453],[-90.39,14.6889,1291.6975],[-90.3873,14.6899,1140.4005],[-90.3861,14.6937,1135.3708],[-90.3838,14.6949,1151.2836],[-90.3841,14.7066,1113.9713]]]]}
,"properties": {"GID_2": "GTM.7.31_1","GID_0": "GTM","country": "Guatemala","GID_1": "GTM.7_1","province": "Guatemala","NL_NAME_1": "NA","county": "ZONA25","VARNAME_2": "NA","NL_NAME_2": "NA","TYPE_2": "Municipio","ENGTYPE_2": "Municipality","CC_2": "NA","HASC_2": "NA","name": "Z_O_N_A25.county","area_km2": 36.30859,"hist_schema_id": "Elevation0-9000","hist_area_km2": {"1075": 0.06153,"1100": 0.24611,"1125": 0.55375,"1150": 0.82038,"1175": 1.14855,"1200": 2.15354,"1225": 2.89194,"1250": 2.13311,"1275": 2.42037,"1300": 2.15378,"1325": 1.76409,"1350": 2.40002,"1375": 2.40012,"1400": 2.54372,"1425": 1.92833,"1450": 1.62068,"1475": 1.49763,"1500": 1.08734,"1525": 1.16946,"1550": 0.82069,"1575": 0.84121,"1600": 0.69761,"1625": 0.94384,"1650": 0.61555,"1675": 0.61554,"1700": 0.28726,"1725": 0.18467,"1750": 0.14363,"1775": 0.04104,"1800": 0.04104,"1825": 0.06156,"1850": 0.02052}}}