{"type":"Feature","properties":{"GID_2":"GTM.17.1_1","GID_0":"GTM","country":"Guatemala","GID_1":"GTM.17_1","province":"SanMarcos","NL_NAME_1":"NA","county":"Ayutla","VARNAME_2":"NA","NL_NAME_2":"NA","TYPE_2":"Municipio","ENGTYPE_2":"Municipality","CC_2":"NA","HASC_2":"NA","name":"Ayutla.county"},
"geometry":{"type": "MultiPolygon","coordinates": [[[[-92.138,14.6263,17.9906],[-92.1358,14.6429,20.8051],[-92.1319,14.6449,20.8919],[-92.1307,14.6547,22.4765],[-92.1263,14.6597,17.1595],[-92.1258,14.6714,27.2966],[-92.1145,14.6869,23.3742],[-92.1161,14.6935,24.4856],[-92.1194,14.6942,22.8768],[-92.121,14.7006,32.5236],[-92.1162,14.7053,32.2743],[-92.115,14.7406,50.8087],[-92.0845,14.7225,52.468],[-92.0654,14.7382,101.1528],[-92.0782,14.742,47.3521],[-92.0739,14.7551,54.8687],[-92.071,14.756,55.9819],[-92.0761,14.762,64.9754],[-92.0751,14.78,88.0776],[-92.0955,14.7942,107.6974],[-92.105,14.7973,114.2127],[-92.104,14.7883,102.5486],[-92.105,14.7869,98.8029],[-92.1138,14.7877,94.0548],[-92.1191,14.8004,104.8411],[-92.1255,14.7979,92.1359],[-92.1299,14.7908,79.1633],[-92.1334,14.7897,78.4509],[-92.1756,14.7993,61.8455],[-92.1711,14.7894,54.3467],[-92.1649,14.783,52.7651],[-92.1647,14.7774,48.0079],[-92.1609,14.773,58.4041],[-92.1628,14.7607,40.2761],[-92.1694,14.7593,42.5428],[-92.1718,14.7567,44.9373],[-92.1718,14.7527,49.0744],[-92.1695,14.749,35.4537],[-92.1702,14.7446,40.5798],[-92.1576,14.736,32.0685],[-92.1549,14.7266,29.5344],[-92.1483,14.7206,36.8106],[-92.149,14.7054,29.3795],[-92.1474,14.6978,24.6534],[-92.143,14.6912,21.896],[-92.147,14.6814,24.3662],[-92.1468,14.6608,20.1632],[-92.151,14.6552,17.526],[-92.1604,14.6507,17.1951],[-92.1587,14.6429,20.0824],[-92.1598,14.6413,19.5422],[-92.166,14.6416,16.3695],[-92.1691,14.6397,13.0],[-92.1725,14.6309,14.9132],[-92.1771,14.6262,15.1011],[-92.1771,14.6206,18.2903],[-92.1814,14.6155,13.1354],[-92.181,14.6138,10.3407],[-92.1747,14.612,13.5261],[-92.176,14.6007,14.2862],[-92.1698,14.601,16.0774],[-92.154,14.5953,15.6608],[-92.14,14.6168,16.7516],[-92.138,14.6263,17.9906]]]]}}