{"type": "Feature","bbox": [-91.1838,15.3172,-90.8776,15.4192],"geometry": {"type": "MultiPolygon","coordinates": [[[[-91.1838,15.3172,1465.3812],[-91.1794,15.3251,1420.3728],[-91.1634,15.3189,1424.9491],[-91.1575,15.3191,1453.4789],[-91.1377,15.3217,1526.7292],[-91.1265,15.3291,1743.5537],[-91.0883,15.33,2365.0994],[-91.0782,15.3265,2394.696],[-91.0467,15.3281,2159.3293],[-91.0404,15.3226,2033.301],[-91.0343,15.3232,2013.4802],[-91.0177,15.3304,1764.3599],[-90.9976,15.3273,1564.5686],[-90.9837,15.3298,1750.4806],[-90.9678,15.3363,2205.6191],[-90.957,15.3332,1981.5577],[-90.9407,15.3371,1955.8987],[-90.9344,15.3474,2017.1979],[-90.9247,15.3421,1909.5522],[-90.908,15.3401,1789.9198],[-90.8971,15.3435,1824.1277],[-90.8878,15.3415,1805.3615],[-90.8816,15.3594,2145.0764],[-90.8838,15.3673,2443.7275],[-90.8796,15.3839,2345.2512],[-90.8809,15.3923,2227.4636],[-90.8776,15.4041,2240.7986],[-90.8798,15.4174,2206.2371],[-90.8902,15.4137,2397.5632],[-90.9011,15.4192,2325.0168],[-90.9157,15.4103,1803.0895],[-90.9252,15.4128,1622.3177],[-90.9376,15.4185,1920.8673],[-90.9524,15.4076,2166.4529],[-90.9745,15.4057,2148.7297],[-90.9898,15.3977,2347.0156],[-91.0018,15.3977,2316.6594],[-91.0096,15.4028,2187.9336],[-91.0149,15.41,2143.3652],[-91.0202,15.4098,2193.4204],[-91.0346,15.4046,2086.8247],[-91.0604,15.4001,2100.7498],[-91.0711,15.3892,2298.0439],[-91.0984,15.3804,2848.1914],[-91.1109,15.3802,2288.0767],[-91.125,15.3746,2528.3567],[-91.1466,15.3744,2633.9863],[-91.1582,15.3618,2235.5474],[-91.1638,15.3509,2053.5146],[-91.1782,15.3356,1756.3926],[-91.1838,15.3172,1465.3812]]]]}
,"properties": {"GID_2": "GTM.14.7_1","GID_0": "GTM","country": "Guatemala","GID_1": "GTM.14_1","province": "Quiché","NL_NAME_1": "NA","county": "Cunén","VARNAME_2": "NA","NL_NAME_2": "NA","TYPE_2": "Municipio","ENGTYPE_2": "Municipality","CC_2": "NA","HASC_2": "NA","name": "Cunén.county","area_km2": 226.6461,"hist_schema_id": "Elevation0-9000","hist_area_km2": {"1375": 0.0204,"1400": 0.1022,"1425": 0.3067,"1450": 0.3885,"1475": 0.5726,"1500": 0.4907,"1525": 0.8383,"1550": 0.9201,"1575": 1.2268,"1600": 1.4517,"1625": 1.4517,"1650": 1.7174,"1675": 1.6152,"1700": 2.1876,"1725": 1.7992,"1750": 1.472,"1775": 1.2471,"1800": 1.7788,"1825": 3.0465,"1850": 3.0874,"1875": 2.8624,"1900": 2.9646,"1925": 3.3529,"1950": 3.4144,"1975": 3.3939,"2000": 3.4962,"2025": 4.3139,"2050": 5.4383,"2075": 6.2152,"2100": 5.5404,"2125": 6.9306,"2150": 7.0736,"2175": 6.2354,"2200": 5.8879,"2225": 6.2355,"2250": 6.2969,"2275": 6.808,"2300": 6.3991,"2325": 6.3582,"2350": 7.3803,"2375": 7.6666,"2400": 6.951,"2425": 7.0328,"2450": 6.1332,"2475": 4.7838,"2500": 4.2318,"2525": 3.6798,"2550": 4.0682,"2575": 4.007,"2600": 3.5368,"2625": 3.271,"2650": 3.6594,"2675": 3.3732,"2700": 3.5777,"2725": 3.823,"2750": 3.639,"2775": 3.2505,"2800": 3.7207,"2825": 2.9643,"2850": 2.6372,"2875": 2.1057,"2900": 1.6764,"2925": 2.0443,"2950": 1.5128,"2975": 0.8382,"3000": 0.1431}}}