{"type":"Feature","properties":{"GID_2":"GTM.3.10_1","GID_0":"GTM","country":"Guatemala","GID_1":"GTM.3_1","province":"Chimaltenango","NL_NAME_1":"NA","county":"SanJoséPoaquil","VARNAME_2":"NA","NL_NAME_2":"NA","TYPE_2":"Municipio","ENGTYPE_2":"Municipality","CC_2":"NA","HASC_2":"NA","name":"San_José_Poaquil.county"},
"geometry":{"type": "MultiPolygon","coordinates": [[[[-90.858,14.8009,1880.2758],[-90.8536,14.8051,1827.5056],[-90.8519,14.8264,1763.0658],[-90.8551,14.8312,1718.8047],[-90.8545,14.8346,1641.0913],[-90.8563,14.8363,1679.4213],[-90.853,14.848,1592.4626],[-90.8601,14.852,1595.3551],[-90.8633,14.8512,1594.7673],[-90.8651,14.8567,1637.0079],[-90.8675,14.8583,1608.615],[-90.8825,14.8608,1558.3455],[-90.8907,14.8784,1582.0238],[-90.8876,14.8848,1434.29],[-90.8956,14.8941,1408.1736],[-90.9003,14.8955,1363.7488],[-90.9015,14.8997,1464.6476],[-90.8995,14.9059,1414.9586],[-90.9023,14.9055,1351.1819],[-90.9045,14.919,1417.4846],[-90.904,14.9232,1417.7737],[-90.9012,14.9275,1295.2911],[-90.9032,14.9322,1329.6808],[-90.9122,14.9265,1313.0957],[-90.9171,14.9273,1377.4084],[-90.9172,14.9226,1270.8215],[-90.9194,14.9218,1302.7471],[-90.9241,14.9241,1467.3733],[-90.9308,14.9209,1291.2576],[-90.9328,14.9255,1442.5531],[-90.9376,14.9256,1456.3381],[-90.936,14.9175,1357.9744],[-90.9444,14.9079,1399.2385],[-90.9474,14.8956,1522.8845],[-90.9425,14.8712,1700.9436],[-90.9418,14.8531,1986.8076],[-90.9284,14.8302,2082.5979],[-90.9284,14.8247,2029.6566],[-90.9312,14.8172,2168.3943],[-90.9279,14.8125,2104.8982],[-90.9308,14.8044,2176.6106],[-90.914,14.789,2345.6052],[-90.8751,14.8019,2013.5742],[-90.858,14.8009,1880.2758]]]]}}