{"type": "Feature","bbox": [-90.7757,14.607,-90.7085,14.7219],"geometry": {"type": "MultiPolygon","coordinates": [[[[-90.7757,14.6382,1776.1267],[-90.7645,14.6346,1774.4355],[-90.7548,14.6237,1715.1873],[-90.7482,14.6136,1770.1458],[-90.7454,14.6126,1867.7205],[-90.7289,14.6157,2102.8486],[-90.7258,14.6091,2070.7266],[-90.7161,14.607,2049.6482],[-90.7086,14.6136,2458.1267],[-90.7085,14.6287,2167.4131],[-90.7195,14.6389,1985.6288],[-90.7256,14.6549,1868.9202],[-90.7242,14.682,1670.1578],[-90.7297,14.6872,1673.1178],[-90.7269,14.7005,1739.7473],[-90.7325,14.6994,1716.4562],[-90.7388,14.7077,1706.7004],[-90.7392,14.7114,1684.921],[-90.7534,14.7219,1500.9165],[-90.7593,14.711,1561.5529],[-90.7625,14.7086,1640.1913],[-90.766,14.7094,1631.8812],[-90.7679,14.7059,1727.9844],[-90.7689,14.6942,1744.3805],[-90.7708,14.6902,1746.8354],[-90.7592,14.6619,1974.8699],[-90.7635,14.6505,1957.4154],[-90.7684,14.6429,1785.9569],[-90.7747,14.6401,1779.1458],[-90.7757,14.6382,1776.1267]]]]}
,"properties": {"GID_2": "GTM.16.16_1","GID_0": "GTM","country": "Guatemala","GID_1": "GTM.16_1","province": "Sacatepéquez","NL_NAME_1": "NA","county": "Sumpango","VARNAME_2": "NA","NL_NAME_2": "NA","TYPE_2": "Municipio","ENGTYPE_2": "Municipality","CC_2": "NA","HASC_2": "NA","name": "Sumpango.county","area_km2": 50.0287,"hist_schema_id": "Elevation0-9000","hist_area_km2": {"1425": 0.04101,"1450": 0.06152,"1475": 0.20507,"1500": 0.16406,"1525": 0.26659,"1550": 0.36913,"1575": 0.32812,"1600": 0.67675,"1625": 0.84081,"1650": 1.16895,"1675": 1.1895,"1700": 1.21006,"1725": 1.6408,"1750": 2.74862,"1775": 4.24619,"1800": 2.91262,"1825": 2.76907,"1850": 3.05621,"1875": 3.5691,"1900": 4.24598,"1925": 4.36913,"1950": 3.77435,"1975": 2.60521,"2000": 1.49749,"2025": 1.08718,"2050": 0.82053,"2075": 0.59492,"2100": 0.5539,"2125": 0.47186,"2150": 0.47186,"2175": 0.3898,"2200": 0.30774,"2225": 0.20516,"2250": 0.14361,"2275": 0.12309,"2300": 0.18464,"2325": 0.10258,"2350": 0.16413,"2375": 0.06155,"2400": 0.20516,"2425": 0.08206,"2450": 0.02052,"2475": 0.02052,"2500": 0.06155}}}