{"type":"Feature","properties":{"GID_2":"GTM.17.27_1","GID_0":"GTM","country":"Guatemala","GID_1":"GTM.17_1","province":"SanMarcos","NL_NAME_1":"NA","county":"Tacaná","VARNAME_2":"NA","NL_NAME_2":"NA","TYPE_2":"Municipio","ENGTYPE_2":"Municipality","CC_2":"NA","HASC_2":"NA","name":"Tacaná.county"},
"geometry":{"type": "MultiPolygon","coordinates": [[[[-92.1183,15.4188,1056.7264],[-92.2106,15.2614,2766.512],[-92.1351,15.1658,1820.0814],[-92.1227,15.1629,2253.1445],[-92.1161,15.1597,2456.8364],[-92.1091,15.1538,2877.3662],[-92.1001,15.1573,2756.8784],[-92.0936,15.1564,2796.5713],[-92.0678,15.1666,3379.4111],[-92.0632,15.1639,3259.0723],[-92.0465,15.1753,3177.8696],[-92.012,15.1731,2952.3398],[-91.999,15.1691,3130.0562],[-91.9907,15.162,2685.071],[-91.985,15.162,3010.2849],[-91.9784,15.1674,3254.4722],[-91.9653,15.1682,3333.4902],[-91.965,15.1711,3400.9573],[-91.9754,15.1804,3127.8809],[-91.9624,15.18,3360.7983],[-91.9617,15.173,3345.3674],[-91.9519,15.1689,3191.8325],[-91.9469,15.1711,3393.5818],[-91.9669,15.1889,3240.6421],[-91.967,15.1939,3263.6567],[-91.9708,15.1993,3052.7576],[-92.0032,15.2071,2577.7744],[-92.0064,15.2095,2580.6152],[-92.0075,15.2125,2534.4949],[-92.0009,15.2198,2600.0586],[-92.0025,15.2589,3028.6018],[-92.0084,15.2643,2955.6243],[-92.0112,15.2621,2887.7319],[-92.077,15.2764,2633.085],[-92.0809,15.3934,1391.6815],[-92.1045,15.4016,1150.1534],[-92.1183,15.4188,1056.7264]]]]}}