{"type": "Feature","bbox": [-91.7358,14.2958,-91.5903,14.5979],"geometry": {"type": "MultiPolygon","coordinates": [[[[-91.7323,14.2958,36.7613],[-91.7109,14.3112,43.6283],[-91.7013,14.3225,50.5655],[-91.6859,14.3465,64.0258],[-91.6768,14.3734,75.0094],[-91.6805,14.3758,80.4259],[-91.6794,14.3874,85.3372],[-91.6818,14.392,92.2419],[-91.6733,14.4,92.3766],[-91.6714,14.4037,89.0458],[-91.6622,14.4096,106.4541],[-91.6595,14.4139,119.9019],[-91.6581,14.4297,109.9175],[-91.6542,14.4321,125.1389],[-91.6374,14.4524,161.0608],[-91.6329,14.4704,171.5802],[-91.6291,14.4804,184.1952],[-91.6254,14.4838,191.6778],[-91.6239,14.4883,200.4662],[-91.6248,14.4927,202.8072],[-91.6216,14.4968,207.1902],[-91.6171,14.5254,268.9774],[-91.6067,14.5369,299.1872],[-91.5991,14.5526,363.8715],[-91.5969,14.5768,428.6365],[-91.5903,14.5968,528.8281],[-91.6052,14.5979,496.6237],[-91.6229,14.5962,437.7903],[-91.63,14.5944,414.5897],[-91.6348,14.5862,390.5548],[-91.6338,14.5785,357.4047],[-91.6398,14.5635,321.6227],[-91.6436,14.5583,312.0571],[-91.6438,14.5454,277.3382],[-91.6476,14.5395,265.0797],[-91.6482,14.5333,249.9263],[-91.6585,14.5177,222.8346],[-91.6634,14.4929,192.3858],[-91.6814,14.4705,151.108],[-91.6819,14.4686,150.1543],[-91.6752,14.4523,139.0723],[-91.6755,14.4427,124.6579],[-91.6792,14.4386,123.841],[-91.6794,14.428,118.3039],[-91.6847,14.4171,106.3866],[-91.6904,14.3874,85.6188],[-91.6964,14.3778,79.0414],[-91.7094,14.3711,73.3408],[-91.7188,14.3627,69.0649],[-91.7225,14.3525,60.669],[-91.727,14.3494,57.6944],[-91.7353,14.3347,49.1293],[-91.7358,14.3141,42.8639],[-91.7323,14.2958,36.7613]]]]}
,"properties": {"GID_2": "GTM.15.9_1","GID_0": "GTM","country": "Guatemala","GID_1": "GTM.15_1","province": "Retalhuleu","NL_NAME_1": "NA","county": "SantaCruzMuluá","VARNAME_2": "NA","NL_NAME_2": "NA","TYPE_2": "Municipio","ENGTYPE_2": "Municipality","CC_2": "NA","HASC_2": "NA","name": "Santa_Cruz_Muluá.county","area_km2": 122.11492,"hist_schema_id": "Elevation0-9000","hist_area_km2": {"25": 0.30818,"50": 18.52941,"75": 13.65872,"100": 7.53643,"125": 8.48002,"150": 10.86065,"175": 8.64271,"200": 8.51886,"225": 7.32776,"250": 5.06961,"275": 5.00777,"300": 4.43292,"325": 4.76107,"350": 4.22735,"375": 4.37084,"400": 3.54989,"425": 2.66748,"450": 2.07239,"475": 1.16955,"500": 0.73865,"525": 0.18466}}}