{"type":"Feature","properties":{"GID_2":"GTM.1.3_1","GID_0":"GTM","country":"Guatemala","GID_1":"GTM.1_1","province":"AltaVerapaz","NL_NAME_1":"NA","county":"Cobán","VARNAME_2":"NA","NL_NAME_2":"NA","TYPE_2":"Municipio","ENGTYPE_2":"Municipality","CC_2":"NA","HASC_2":"NA","name":"Cobán.county"},
"geometry":{"type": "MultiPolygon","coordinates": [[[[-90.5058,15.9831,141.1792],[-90.506,15.9874,132.8991],[-90.502,15.9894,140.0667],[-90.4956,15.9979,132.0],[-90.4984,15.9994,136.2665],[-90.5065,15.9929,134.36],[-90.5098,15.9948,137.0323],[-90.5162,15.9945,135.3296],[-90.5153,16.0026,137.1828],[-90.5187,16.0048,137.0995],[-90.5234,15.9968,137.1079],[-90.5254,15.9981,138.4796],[-90.5251,16.001,139.0266],[-90.5288,16.0043,138.5001],[-90.5327,16.0027,138.3777],[-90.5332,15.9987,138.6864],[-90.5383,15.9976,137.8351],[-90.5458,16.0065,140.1279],[-90.5482,16.0063,138.0607],[-90.5502,16.0039,142.3624],[-90.5487,15.9988,140.3765],[-90.5562,15.9928,139.8357],[-90.5601,15.9944,138.4008],[-90.5585,15.9982,138.8783],[-90.5607,16.0001,139.6898],[-90.5677,15.9955,137.0],[-90.572,15.996,137.4427],[-90.5741,16.0095,140.9834],[-90.5835,16.0152,139.7649],[-90.6043,16.0134,142.8136],[-90.6072,16.0166,143.2083],[-90.5973,16.0196,143.5451],[-90.5926,16.0232,144.1055],[-90.5951,16.0358,185.8565],[-90.6103,16.0245,161.5573],[-90.6152,16.0244,145.976],[-90.6286,16.0399,156.6472],[-90.6342,16.0404,148.1475],[-90.6426,16.037,159.771],[-90.6516,16.04,143.0],[-90.6541,16.0363,183.2329],[-90.6645,16.0386,155.7332],[-90.6706,16.0309,178.873],[-90.681,16.0227,146.5],[-90.6918,16.0194,151.426],[-90.6991,16.021,166.3215],[-90.6985,16.0164,151.9258],[-90.691,16.0084,174.7362],[-90.6883,15.9962,182.2647],[-90.7004,15.9968,154.4182],[-90.7028,15.9946,152.0278],[-90.7029,15.9893,152.4886],[-90.6973,15.9802,180.9104],[-90.6993,15.9753,182.3601],[-90.7039,15.9737,187.2705],[-90.7101,15.9756,154.9567],[-90.7111,15.9798,156.1833],[-90.7205,15.9847,160.9076],[-90.7279,15.9852,156.5699],[-90.7307,15.9831,157.0336],[-90.7321,15.9787,157.9159],[-90.7311,15.9734,170.1225],[-90.7336,15.9691,185.5974],[-90.7441,15.9691,162.2415],[-90.7544,15.9588,159.1181],[-90.7532,15.955,156.5184],[-90.7446,15.951,166.0822],[-90.7426,15.9462,160.2087],[-90.7387,15.9449,160.7315],[-90.7339,15.9474,157.5],[-90.7294,15.943,164.7854],[-90.7294,15.9371,179.4717],[-90.7337,15.9269,179.762],[-90.746,15.9229,161.2102],[-90.7487,15.9199,164.356],[-90.7472,15.9032,193.6005],[-90.7531,15.894,167.5231],[-90.7543,15.8889,168.3535],[-90.7519,15.8862,168.1247],[-90.741,15.8868,198.1777],[-90.7353,15.8853,205.0225],[-90.7326,15.8823,208.1387],[-90.7351,15.8718,196.8373],[-90.7259,15.8651,199.6132],[-90.74,15.8444,210.4264],[-90.7444,15.8418,193.6264],[-90.7472,15.8372,199.2716],[-90.7566,15.8379,195.6002],[-90.7677,15.827,206.8244],[-90.7687,15.8184,223.6502],[-90.7745,15.816,182.9749],[-90.7791,15.8089,196.6407],[-90.7782,15.8037,234.3637],[-90.7747,15.8008,260.1265],[-90.7803,15.7919,217.1838],[-90.7855,15.7916,200.0862],[-90.7852,15.7882,193.925],[-90.7903,15.7838,205.9649],[-90.7923,15.7774,255.1575],[-90.7948,15.775,223.2624],[-90.8046,15.7729,199.1329],[-90.8082,15.7587,293.2365],[-90.8123,15.7527,219.6897],[-90.8174,15.7499,236.6492],[-90.8056,15.7427,205.2388],[-90.794,15.7474,206.6589],[-90.7848,15.7452,210.1711],[-90.781,15.7419,215.2484],[-90.7811,15.7386,218.0689],[-90.7782,15.7366,235.6786],[-90.7766,15.7323,211.905],[-90.7806,15.7263,256.64],[-90.7927,15.7254,210.9763],[-90.7948,15.7207,214.3049],[-90.792,15.7194,227.753],[-90.7805,15.7193,254.2182],[-90.7692,15.7067,330.5226],[-90.7702,15.7049,255.2532],[-90.7757,15.7042,218.1832],[-90.7907,15.6886,309.4379],[-90.7907,15.6833,334.789],[-90.7891,15.6811,320.69],[-90.7861,15.6794,265.8151],[-90.7792,15.68,272.6703],[-90.7751,15.6776,242.6125],[-90.7681,15.678,352.9306],[-90.7609,15.6711,243.5205],[-90.6927,15.6536,306.2899],[-90.6915,15.6516,294.3313],[-90.6541,15.6487,257.8641],[-90.6576,15.6436,262.9958],[-90.6558,15.6385,264.9788],[-90.6484,15.6379,271.1436],[-90.6425,15.6325,346.7939],[-90.6434,15.6236,500.6143],[-90.6413,15.6192,370.7495],[-90.6354,15.6168,542.2527],[-90.635,15.6126,291.3517],[-90.6292,15.6101,278.2296],[-90.6291,15.5963,282.791],[-90.633,15.5919,330.6452],[-90.6388,15.5907,376.3618],[-90.6419,15.5853,342.8319],[-90.6324,15.5773,433.1817],[-90.6198,15.5733,445.6819],[-90.6175,15.5648,453.9346],[-90.6124,15.5563,316.8856],[-90.6099,15.5441,324.4287],[-90.6073,15.5402,404.2923],[-90.6039,15.5164,310.1562],[-90.6052,15.5119,371.8373],[-90.6031,15.507,388.7356],[-90.5758,15.4891,640.4785],[-90.5685,15.492,642.5579],[-90.5653,15.4917,736.2311],[-90.5459,15.4804,1442.9353],[-90.5352,15.4776,1546.9478],[-90.5287,15.4785,1692.092],[-90.5162,15.4876,1557.4418],[-90.5139,15.4872,1598.8708],[-90.5112,15.4782,1799.1187],[-90.4792,15.4719,1687.0035],[-90.473,15.4754,1648.3463],[-90.471,15.4748,1624.3224],[-90.47,15.4715,1532.2657],[-90.4622,15.4668,1442.5234],[-90.4596,15.468,1453.9227],[-90.4591,15.4636,1389.8748],[-90.4664,15.4533,1661.1602],[-90.4782,15.4431,1766.1804],[-90.4792,15.4295,1553.6624],[-90.4815,15.4253,1606.8499],[-90.4804,15.4199,1526.7101],[-90.4384,15.4103,1439.3649],[-90.4299,15.4133,1466.8843],[-90.4229,15.4197,1438.3077],[-90.4189,15.4107,1443.9297],[-90.4002,15.4072,1458.368],[-90.3931,15.4033,1447.0382],[-90.3855,15.3894,1439.6044],[-90.3759,15.3889,1464.6013],[-90.3734,15.3789,1416.6445],[-90.3843,15.3785,1443.5984],[-90.3901,15.3755,1417.2886],[-90.3853,15.3672,1646.7974],[-90.3485,15.3439,1898.2404],[-90.3385,15.3437,1851.2245],[-90.3039,15.3358,2100.6042],[-90.292,15.3367,2475.6143],[-90.2869,15.3399,2218.3345],[-90.2832,15.3471,1926.224],[-90.2818,15.3555,1959.4572],[-90.2844,15.3599,2122.6956],[-90.3031,15.3723,1837.1887],[-90.3093,15.3691,1839.6949],[-90.3161,15.368,1882.4116],[-90.3405,15.3687,1729.7207],[-90.3534,15.3715,1444.8409],[-90.3593,15.3862,1422.1152],[-90.3665,15.3938,1406.1807],[-90.3645,15.4136,1402.7668],[-90.3686,15.4165,1398.0066],[-90.3818,15.416,1420.8361],[-90.3832,15.4191,1452.762],[-90.3813,15.4301,1462.5991],[-90.3598,15.4336,1431.0116],[-90.3583,15.432,1411.2358],[-90.3475,15.4371,1427.6151],[-90.3353,15.436,1388.5956],[-90.327,15.4443,1423.2048],[-90.3324,15.4667,1311.9009],[-90.3314,15.4722,1311.0468],[-90.3357,15.4716,1325.0483],[-90.3384,15.4738,1362.382],[-90.3364,15.476,1331.9015],[-90.3368,15.4775,1323.4015],[-90.3391,15.4773,1311.6758],[-90.3388,15.4825,1296.0378],[-90.341,15.4831,1323.033],[-90.3405,15.4867,1332.3224],[-90.3432,15.498,1393.8096],[-90.3463,15.4974,1410.8765],[-90.3469,15.5,1436.1112],[-90.35,15.4994,1410.5571],[-90.347,15.5062,1398.344],[-90.3475,15.51,1429.2144],[-90.3607,15.5177,1408.1892],[-90.3568,15.525,1363.1876],[-90.3514,15.5306,1271.2108],[-90.3468,15.5334,1239.0306],[-90.3421,15.5329,1223.8644],[-90.3349,15.5351,1230.4171],[-90.3273,15.541,1160.5798],[-90.3428,15.5692,862.5588],[-90.3446,15.5969,833.0599],[-90.3521,15.6046,972.9913],[-90.3631,15.6073,1032.832],[-90.3677,15.6154,908.0875],[-90.3731,15.6157,911.2419],[-90.3755,15.6236,727.5778],[-90.381,15.6283,583.238],[-90.3826,15.6339,584.7849],[-90.3793,15.6417,344.3461],[-90.3751,15.6441,338.9824],[-90.3724,15.6429,364.7179],[-90.3706,15.6459,345.5125],[-90.3676,15.6455,344.188],[-90.3575,15.6551,350.2035],[-90.3568,15.6594,342.4218],[-90.3472,15.6679,395.3808],[-90.3524,15.6799,327.0306],[-90.3656,15.6764,363.6151],[-90.3669,15.68,356.9002],[-90.361,15.6907,351.2339],[-90.3626,15.6959,338.9072],[-90.3808,15.6936,375.0769],[-90.3885,15.703,334.71],[-90.4023,15.7035,310.979],[-90.4123,15.7135,394.3115],[-90.4153,15.7142,402.3471],[-90.4165,15.7143,399.5914],[-90.4178,15.7076,335.2532],[-90.4208,15.7077,325.9882],[-90.423,15.7225,415.9299],[-90.4504,15.7243,400.6091],[-90.4689,15.7136,275.0976],[-90.4713,15.7163,276.0901],[-90.4808,15.7143,262.2418],[-90.4918,15.7186,251.6845],[-90.4919,15.7219,262.4588],[-90.4847,15.7414,344.5827],[-90.5026,15.7711,282.5542],[-90.5207,15.7564,245.3918],[-90.5331,15.7575,234.6936],[-90.5457,15.7734,240.2631],[-90.546,15.7794,227.9461],[-90.541,15.7818,212.2136],[-90.5399,15.7919,214.4898],[-90.5321,15.7955,220.6832],[-90.5338,15.8075,267.3589],[-90.5414,15.8087,230.4704],[-90.5423,15.8074,233.7544],[-90.545,15.8099,229.539],[-90.5501,15.8066,231.7938],[-90.559,15.8052,242.8063],[-90.559,15.811,212.5056],[-90.5624,15.8123,208.5476],[-90.5697,15.8109,207.863],[-90.5775,15.813,206.1574],[-90.5823,15.8114,211.0912],[-90.586,15.8159,206.8627],[-90.5836,15.8188,205.6786],[-90.5844,15.8209,206.4506],[-90.5951,15.8229,209.8438],[-90.5926,15.8259,219.3425],[-90.5937,15.8292,221.5529],[-90.5922,15.8341,211.487],[-90.6005,15.8334,217.1957],[-90.6023,15.8299,216.0391],[-90.6045,15.829,222.5058],[-90.6073,15.8359,213.3556],[-90.6107,15.8356,248.4194],[-90.6154,15.826599999999999,259.5241],[-90.638,15.84,189.5469],[-90.6336,15.8425,159.6762],[-90.63,15.8491,188.15],[-90.625,15.848,179.512],[-90.6229,15.8565,175.6586],[-90.6169,15.8645,159.7993],[-90.6112,15.8584,180.7997],[-90.5991,15.8583,225.5861],[-90.5962,15.8629,188.4714],[-90.5967,15.8768,162.6242],[-90.5916,15.8731,151.206],[-90.5896,15.8839,164.5048],[-90.5849,15.8842,155.7036],[-90.5821,15.8983,157.6012],[-90.5859,15.9036,151.843],[-90.5799,15.9055,149.7213],[-90.5791,15.9178,160.0066],[-90.5753,15.9174,146.0605],[-90.5646,15.9284,143.5775],[-90.5572,15.9298,151.8999],[-90.5552,15.9356,151.8688],[-90.5486,15.9426,143.2955],[-90.5476,15.9486,137.7111],[-90.5423,15.9548,137.4122],[-90.5358,15.9539,137.0143],[-90.5308,15.9575,142.9124],[-90.5267,15.9573,136.2826],[-90.5237,15.9604,137.8306],[-90.5222,15.9578,136.7366],[-90.5163,15.9681,140.0973],[-90.5141,15.9651,135.0666],[-90.4958,15.9723,138.5014],[-90.4955,15.9736,138.5014],[-90.5019,15.9725,134.9117],[-90.5079,15.9816,144.852],[-90.5058,15.9831,141.1792]]]]}}