{"type": "Feature","bbox": [-89.5591,14.5242,-89.3508,14.6984],"geometry": {"type": "MultiPolygon","coordinates": [[[[-89.4176,14.5702,1251.7747],[-89.4139,14.5736,1559.7209],[-89.4107,14.5729,1620.2211],[-89.4071,14.5754,1736.5875],[-89.4002,14.5861,1632.5625],[-89.3957,14.5842,1683.9685],[-89.3711,14.5882,1193.3528],[-89.3681,14.5867,1078.5847],[-89.3661,14.5875,1095.7202],[-89.3596,14.6026,1073.5242],[-89.3584,14.6128,1040.6023],[-89.3601,14.6237,1057.4341],[-89.3637,14.6271,1127.5026],[-89.3535,14.6444,1208.855],[-89.3576,14.6489,1373.8746],[-89.364,14.6471,1435.8956],[-89.3657,14.6522,1623.6661],[-89.3526,14.6607,1228.6836],[-89.3508,14.6658,1332.8738],[-89.3525,14.6677,1309.024],[-89.3604,14.6696,1309.6653],[-89.362799999999993,14.6732,1376.5073],[-89.3667,14.6737,1385.5864],[-89.3724,14.6788,1384.3962],[-89.3754,14.6826,1475.6001],[-89.3753,14.6921,1627.9913],[-89.4135,14.6929,1313.8549],[-89.4281,14.6984,1054.8849],[-89.4348,14.6957,1057.6376],[-89.4562,14.6952,1175.5803],[-89.4654,14.6744,749.8787],[-89.4732,14.6687,834.7421],[-89.4695,14.6635,694.804],[-89.4713,14.6599,817.6717],[-89.4748,14.6576,911.376],[-89.4747,14.6543,858.9032],[-89.4907,14.6406,597.4642],[-89.4914,14.6436,578.4381],[-89.5016,14.6423,652.0576],[-89.5056,14.6372,809.1221],[-89.5086,14.6296,948.3373],[-89.5278,14.626,1095.9622],[-89.5338,14.6279,1070.9402],[-89.5371,14.6263,1094.7627],[-89.537,14.608,1074.8936],[-89.5379,14.6071,1066.2103],[-89.5402,14.6101,1056.2363],[-89.5452,14.6053,998.7759],[-89.55,14.6042,1118.8711],[-89.5571,14.6059,1141.0121],[-89.5591,14.602,1169.3309],[-89.5511,14.5912,991.0286],[-89.5477,14.5814,1077.0831],[-89.5508,14.5661,1089.157],[-89.5497,14.5606,943.2951],[-89.5442,14.5552,971.971],[-89.5395,14.5529,1082.9657],[-89.5359,14.5451,959.8314],[-89.5284,14.5361,845.4489],[-89.5303,14.5248,765.1217],[-89.5154,14.5242,869.4523],[-89.5124,14.5359,794.2033],[-89.5095,14.5345,783.4534],[-89.5082,14.5354,836.432],[-89.506,14.5542,839.975],[-89.5044,14.5557,970.2285],[-89.4995,14.5531,894.8864],[-89.4938,14.5546,804.4688],[-89.4851,14.5543,798.0488],[-89.4787,14.5485,807.2365],[-89.4699,14.548,783.1329],[-89.4575,14.5528,815.0532],[-89.4465,14.55,918.8353],[-89.4425,14.5507,867.1026],[-89.4376,14.5548,879.8566],[-89.4327,14.5697,999.6671],[-89.426,14.5713,1185.9413],[-89.4176,14.5702,1251.7747]]]]}
,"properties": {"GID_2": "GTM.4.8_1","GID_0": "GTM","country": "Guatemala","GID_1": "GTM.4_1","province": "Chiquimula","NL_NAME_1": "NA","county": "Quezaltepeque","VARNAME_2": "NA","NL_NAME_2": "NA","TYPE_2": "Municipio","ENGTYPE_2": "Municipality","CC_2": "NA","HASC_2": "NA","name": "Quezaltepeque.county","area_km2": 242.2332,"hist_schema_id": "Elevation0-9000","hist_area_km2": {"550": 0.3692,"575": 1.1488,"600": 1.8258,"625": 4.1851,"650": 6.1751,"675": 6.5648,"700": 7.5292,"725": 9.1708,"750": 9.089,"775": 11.6949,"800": 12.3721,"825": 10.5461,"850": 10.0946,"875": 8.2888,"900": 7.6939,"925": 6.2165,"950": 6.7499,"975": 7.3449,"1000": 6.2575,"1025": 6.0933,"1050": 5.9908,"1075": 6.3602,"1100": 5.724,"1125": 5.047,"1150": 5.3137,"1175": 4.6367,"1200": 4.3698,"1225": 4.1032,"1250": 4.2672,"1275": 3.7337,"1300": 3.3644,"1325": 3.4055,"1350": 3.1593,"1375": 3.2619,"1400": 2.79,"1425": 2.6874,"1450": 2.4617,"1475": 3.2411,"1500": 3.5695,"1525": 4.0823,"1550": 2.9746,"1575": 2.9746,"1600": 2.5438,"1625": 2.0925,"1650": 1.9489,"1675": 1.9694,"1700": 1.3745,"1725": 1.4156,"1750": 1.4566,"1775": 1.1899,"1800": 0.8001,"1825": 0.3898,"1850": 0.1026,"1875": 0.0205}}}