{"type": "Feature","bbox": [-92.0548,14.2276,-91.7767,14.4391],"geometry": {"type": "MultiPolygon","coordinates": [[[[-91.8284,14.2276,2.5455],[-91.8111,14.2745,16.2128],[-91.795,14.2795,23.5073],[-91.7874,14.2858,27.6241],[-91.7767,14.3027,35.031],[-91.7817,14.323,35.1058],[-91.7942,14.3419,42.1898],[-91.7925,14.3487,45.7729],[-91.7931,14.3552,47.3488],[-91.8074,14.3556,40.5732],[-91.8073,14.3743,50.5068],[-91.8006,14.3782,56.2552],[-91.7993,14.3817,57.2747],[-91.7939,14.379,58.5925],[-91.7918,14.3804,60.1196],[-91.7898,14.3919,64.7183],[-91.8014,14.3971,59.0272],[-91.8254,14.417,56.7875],[-91.8275,14.4211,66.7055],[-91.8334,14.421,58.0305],[-91.8401,14.4391,58.5395],[-91.8542,14.4343,52.545],[-91.8609,14.4349,49.7805],[-91.8631,14.4313,50.3682],[-91.868,14.4306,50.3191],[-91.873,14.4324,46.3283],[-91.8785,14.4294,41.7791],[-91.8833,14.4293,43.1744],[-91.8913,14.4226,34.7528],[-91.9011,14.4256,35.8989],[-91.9141,14.4187,23.8092],[-91.9194,14.4172,25.9293],[-91.9267,14.4196,19.6078],[-91.9311,14.4177,24.0997],[-91.9318,14.4155,17.9371],[-91.9403,14.4134,15.6901],[-91.948,14.4168,18.7607],[-91.957,14.4085,14.1185],[-91.9609,14.4087,6.1696],[-91.9626,14.4104,8.0577],[-91.971,14.4088,16.0357],[-91.9757,14.4125,12.6479],[-91.9799,14.4107,6.7463],[-91.9964,14.4122,1.6449],[-92.0005,14.4144,5.9381],[-92.0032,14.4131,6.6802],[-92.0047,14.4088,6.5388],[-92.0125,14.4076,6.7176],[-92.0166,14.4089,4.6538],[-92.0198,14.4061,6.3703],[-92.0269,14.4056,18.899],[-92.0364,14.4083,9.4605],[-92.039,14.4073,12.8183],[-92.0497,14.4088,6.9886],[-92.0548,14.4051,1.162],[-92.0485,14.4007,0.0],[-92.0449,14.4038,5.6068],[-92.0451,14.4013,2.0847],[-92.0351,14.3924,7.4664],[-92.0371,14.3926,0.0],[-92.0415,14.3971,2.3089],[-92.0432,14.3971,0.4839],[-92.0418,14.3954,2.978],[-92.0285,14.386,7.4282],[-92.0263,14.386,6.1096],[-92.0132,14.3754,4.6593],[-91.9924,14.3551,0.0],[-91.9879,14.356,1.372],[-91.9849,14.3618,1.0],[-91.9857,14.3679,1.5],[-91.9826,14.3688,4.5698],[-91.9818,14.3707,4.5014],[-91.9749,14.3693,5.1803],[-91.9699,14.3713,5.4893],[-91.9674,14.3696,4.5428],[-91.9749,14.3668,6.4349],[-91.9821,14.3685,5.7849],[-91.9837,14.3663,4.5822],[-91.9832,14.3596,3.7384],[-91.9874,14.3554,0.0],[-91.9876,14.3515,0.9014],[-91.9765,14.3413,0.0],[-91.9729,14.3474,3.4561],[-91.9693,14.3488,5.9427],[-91.9685,14.351,8.4122],[-91.9626,14.3507,2.6641],[-91.9629,14.349,0.0],[-91.9668,14.3488,0.0],[-91.9715,14.3457,0.0],[-91.9724,14.3415,0.9193],[-91.9743,14.3401,0.7839],[-91.9601,14.3301,4.1515],[-91.9599,14.3274,0.9968],[-91.959,14.3301,1.5963],[-91.9551,14.3313,0.5],[-91.9521,14.3357,5.1536],[-91.9485,14.3363,1.5],[-91.9457,14.3388,4.3058],[-91.9463,14.3365,3.3944],[-91.9521,14.3337,1.0],[-91.9532,14.3296,3.7271],[-91.9574,14.3282,2.4492],[-91.9579,14.326,2.481],[-91.9546,14.3249,5.49],[-91.926,14.3007,0.0],[-91.9207,14.2993,1.0453],[-91.9187,14.2946,0.4827],[-91.901,14.2818,0.7364],[-91.8965,14.2812,2.3032],[-91.8965,14.279,3.4829],[-91.8846,14.2715,2.3882],[-91.8768,14.2638,2.7115],[-91.8704,14.2662,1.0],[-91.8724,14.2621,4.6248],[-91.8662,14.2587,3.759],[-91.8615,14.2535,0.6818],[-91.8587,14.2546,3.2486],[-91.8585,14.2582,1.0],[-91.8574,14.2526,1.0459],[-91.8538,14.2546,1.7961],[-91.8487,14.2546,1.9562],[-91.849,14.2529,2.0763],[-91.8524,14.2535,3.5468],[-91.8562,14.2499,3.3014],[-91.8512,14.2474,5.053],[-91.8284,14.2276,2.5455]]]]}
,"properties": {"GID_2": "GTM.15.1_1","GID_0": "GTM","country": "Guatemala","GID_1": "GTM.15_1","province": "Retalhuleu","NL_NAME_1": "NA","county": "Champerico","VARNAME_2": "NA","NL_NAME_2": "NA","TYPE_2": "Municipio","ENGTYPE_2": "Municipality","CC_2": "NA","HASC_2": "NA","name": "Champerico.county","area_km2": 337.4016,"hist_schema_id": "Elevation0-9000","hist_area_km2": {"0": 109.3889,"25": 173.9803,"50": 53.9503,"75": 0.0821}}}