{"type": "Feature","bbox": [-91.5389,14.0051,-91.256,14.3985],"geometry": {"type": "MultiPolygon","coordinates": [[[[-91.2648,14.3039,97.2497],[-91.262,14.3124,102.7846],[-91.263,14.3189,105.5275],[-91.256,14.333,121.5557],[-91.2565,14.3356,121.7185],[-91.2678,14.3363,125.6918],[-91.268,14.329,119.3326],[-91.276,14.3278,141.3935],[-91.2801,14.3217,125.0481],[-91.2798,14.3144,109.0765],[-91.2817,14.3089,118.2782],[-91.32,14.3179,87.1017],[-91.332,14.3224,90.2822],[-91.3423,14.3176,89.2513],[-91.3452,14.3266,87.0279],[-91.3372,14.34,95.33],[-91.3403,14.3523,112.358],[-91.3397,14.357,107.813],[-91.335,14.366,116.0662],[-91.3344,14.3724,121.0211],[-91.3314,14.3763,139.1831],[-91.3348,14.3791,155.5931],[-91.3292,14.39,133.9324],[-91.3233,14.3963,147.2913],[-91.3235,14.3985,149.6771],[-91.3271,14.3981,145.5403],[-91.3312,14.3954,133.2839],[-91.3483,14.3814,110.8959],[-91.3604,14.3804,104.6839],[-91.3645,14.3773,98.4168],[-91.3734,14.3745,81.2468],[-91.3763,14.3596,79.5803],[-91.3832,14.3576,72.3586],[-91.3846,14.3553,76.4288],[-91.3846,14.3479,70.2001],[-91.3885,14.3362,71.7397],[-91.3946,14.3366,69.1924],[-91.4022,14.3259,70.4243],[-91.4093,14.3232,66.3278],[-91.4103,14.3211,67.8128],[-91.3945,14.2922,61.2238],[-91.4207,14.2775,55.3752],[-91.4314,14.2974,61.3878],[-91.4277,14.3195,77.2203],[-91.4317,14.3203,65.5131],[-91.4389,14.3181,56.4901],[-91.44,14.3197,51.7355],[-91.45,14.3123,45.2084],[-91.4522,14.3084,49.916],[-91.4614,14.3077,49.1413],[-91.4631,14.3045,46.5067],[-91.4607,14.3026,46.9217],[-91.4651,14.2955,46.4235],[-91.4612,14.29,46.0297],[-91.4551,14.2898,38.8887],[-91.4571,14.2757,45.3839],[-91.461,14.2685,40.6857],[-91.4607,14.2652,46.166],[-91.4548,14.2658,40.0053],[-91.4501,14.2513,42.0593],[-91.4528,14.2453,41.2018],[-91.4504,14.2383,36.5635],[-91.453,14.2228,36.5409],[-91.4475,14.2079,33.4687],[-91.4533,14.2056,28.2879],[-91.4532,14.2015,33.0215],[-91.449,14.1998,25.317],[-91.4498,14.1967,24.0],[-91.4542,14.1933,24.9734],[-91.4616,14.1733,26.6237],[-91.4753,14.1633,20.0989],[-91.4847,14.1535,17.3364],[-91.4889,14.1441,23.0994],[-91.4912,14.1309,15.3233],[-91.505,14.1186,18.0802],[-91.508,14.1059,9.7684],[-91.5109,14.1015,8.5],[-91.5355,14.0813,11.5837],[-91.535,14.0783,10.5657],[-91.5319,14.0751,10.288],[-91.5324,14.0726,9.8199],[-91.5387,14.0668,7.7832],[-91.5389,14.0635,5.6662],[-91.5344,14.0512,3.2701],[-91.5373,14.0493,2.3589],[-91.5353,14.0464,0.5583],[-91.536,14.044,0.0],[-91.5135,14.0365,2.037],[-91.5121,14.0365,4.6866],[-91.5115,14.0387,3.8371],[-91.501,14.0321,4.2065],[-91.4982,14.0335,3.8046],[-91.4985,14.0318,4.0923],[-91.4965,14.0304,1.7652],[-91.469,14.0201,2.7425],[-91.4654,14.0171,5.5342],[-91.4599,14.0162,4.8018],[-91.4354,14.0051,1.7863],[-91.4329,14.012,3.205],[-91.4297,14.012,4.9928],[-91.4268,14.0153,3.6109],[-91.4291,14.0287,7.7897],[-91.424,14.0474,11.3814],[-91.4217,14.077,16.1469],[-91.3901,14.1213,25.8439],[-91.3767,14.1234,28.4961],[-91.3753,14.1268,29.0995],[-91.3711,14.1289,29.9244],[-91.3674,14.134,32.0972],[-91.3664,14.1381,35.7985],[-91.3548,14.1461,34.3035],[-91.3449,14.1471,35.4997],[-91.3398,14.1512,36.4712],[-91.3388,14.1606,38.9419],[-91.335,14.1726,43.3595],[-91.3245,14.1828,45.7985],[-91.3229,14.1813,45.9665],[-91.3188,14.1852,47.1747],[-91.3178,14.2017,53.3811],[-91.3208,14.2039,53.5605],[-91.3196,14.2082,54.577],[-91.323,14.2095,54.8839],[-91.3161,14.2221,58.45],[-91.3129,14.2225,54.371],[-91.3105,14.2248,60.3681],[-91.3058,14.2331,59.0182],[-91.3063,14.2359,58.9506],[-91.298,14.2417,67.5681],[-91.2957,14.2481,69.9431],[-91.2965,14.2546,67.3092],[-91.2912,14.26,69.6186],[-91.2794,14.2818,85.153],[-91.2761,14.2844,86.3556],[-91.2759,14.2916,90.512],[-91.2693,14.2972,90.504],[-91.2648,14.3039,97.2497]]]]}
,"properties": {"GID_2": "GTM.6.13_1","GID_0": "GTM","country": "Guatemala","GID_1": "GTM.6_1","province": "Escuintla","NL_NAME_1": "NA","county": "Tiquisate","VARNAME_2": "NA","NL_NAME_2": "NA","TYPE_2": "Municipio","ENGTYPE_2": "Municipality","CC_2": "NA","HASC_2": "NA","name": "Tiquisate.county","area_km2": 510.7435,"hist_schema_id": "Elevation0-9000","hist_area_km2": {"0": 74.0638,"25": 162.7112,"50": 140.4667,"75": 94.9028,"100": 31.4304,"125": 5.7719,"150": 1.2939,"175": 0.1027}}}