{"type": "Feature","bbox": [-91.6678,14.0662,-91.5052,14.4946],"geometry": {"type": "MultiPolygon","coordinates": [[[[-91.6663,14.1257,4.5519],[-91.6643,14.1243,2.459],[-91.6649,14.1215,1.6986],[-91.6521,14.114,5.6946],[-91.6462,14.1129,1.2436],[-91.6462,14.1107,2.5579],[-91.6401,14.1082,5.2459],[-91.6382,14.1051,3.2276],[-91.6307,14.1026,4.4654],[-91.6304,14.101,3.5],[-91.6276,14.1046,1.0414],[-91.6274,14.1018,2.3392],[-91.629,14.101,1.4475],[-91.6279,14.0982,3.1628],[-91.6249,14.0982,5.173],[-91.6199,14.0929,5.9766],[-91.6179,14.0926,0.6194],[-91.6176,14.0949,3.0456],[-91.6112,14.0901,0.7841],[-91.6104,14.0924,2.6056],[-91.6124,14.0968,1.7299],[-91.6099,14.1062,5.4865],[-91.6104,14.1099,3.8114],[-91.6126,14.1113,3.6341],[-91.6085,14.114,0.0],[-91.6065,14.1185,2.199],[-91.6074,14.1099,5.1044],[-91.6051,14.1004,1.8236],[-91.6018,14.1001,0.0],[-91.6004,14.1032,2.4274],[-91.5993,14.1021,6.9274],[-91.6021,14.0985,4.4465],[-91.6054,14.0996,1.8236],[-91.6062,14.0968,4.5933],[-91.6076,14.0979,0.7869],[-91.6099,14.0971,1.1435],[-91.6101,14.0949,0.5055],[-91.6035,14.0904,1.1227],[-91.6026,14.0935,1.346],[-91.5999,14.0951,1.2943],[-91.6004,14.0935,0.0],[-91.5982,14.0924,3.9195],[-91.5976,14.0899,4.7993],[-91.604,14.089,3.1027],[-91.6096,14.0932,0.0],[-91.6085,14.0893,5.1276],[-91.6115,14.0882,5.1063],[-91.5935,14.0763,3.0157],[-91.5899,14.0754,3.5],[-91.5899,14.0735,1.5342],[-91.5837,14.0718,4.8337],[-91.5815,14.0688,5.7004],[-91.5746,14.0662,4.8515],[-91.5754,14.0926,4.1973],[-91.586,14.1287,13.1894],[-91.5705,14.1778,23.38],[-91.5086,14.2145,34.1307],[-91.5107,14.2258,37.971],[-91.5052,14.2463,46.8951],[-91.5078,14.2499,46.903],[-91.5072,14.2643,50.3212],[-91.5132,14.275,57.5232],[-91.5096,14.2801,56.5748],[-91.5108,14.2822,60.3987],[-91.5281,14.2853,38.934],[-91.5298,14.2871,31.7859],[-91.5093,14.3285,71.4289],[-91.508,14.3352,77.0048],[-91.5137,14.345,74.3979],[-91.5178,14.3417,65.2623],[-91.5216,14.3421,49.0934],[-91.5255,14.3353,43.6527],[-91.5277,14.3359,47.3356],[-91.5328,14.3333,65.8086],[-91.5347,14.3389,68.3318],[-91.5343,14.3442,56.2731],[-91.5306,14.3422,58.1429],[-91.5243,14.3563,70.6493],[-91.5242,14.3582,72.4569],[-91.5269,14.3599,81.1708],[-91.5265,14.362,79.1545],[-91.5196,14.3665,77.0768],[-91.5222,14.3718,86.3574],[-91.5235,14.3828,95.5273],[-91.5182,14.3871,72.4543],[-91.5167,14.3977,95.8794],[-91.518,14.4028,109.1075],[-91.5205,14.4027,110.336],[-91.5194,14.4049,112.8226],[-91.5232,14.4117,114.6863],[-91.5129,14.4215,112.3918],[-91.5139,14.4236,132.3493],[-91.5127,14.4286,118.3729],[-91.5192,14.4343,149.2966],[-91.5129,14.4473,145.4153],[-91.5131,14.452,167.7229],[-91.5076,14.4727,197.9467],[-91.5083,14.4776,209.9684],[-91.5063,14.482,214.3927],[-91.5107,14.4842,223.7827],[-91.5077,14.4945,245.9454],[-91.5186,14.4931,241.4852],[-91.5209,14.4946,246.3816],[-91.5322,14.489,229.4636],[-91.5332,14.4848,219.8092],[-91.532,14.4773,203.507],[-91.5368,14.456,166.1524],[-91.5405,14.4506,161.6151],[-91.5433,14.4381,137.33],[-91.5486,14.4297,130.6726],[-91.5537,14.414,122.7472],[-91.550299999999993,14.4019,108.9004],[-91.5517,14.3947,105.9989],[-91.546,14.3884,104.5406],[-91.544,14.3839,98.5002],[-91.5473,14.3734,91.1057],[-91.5455,14.3607,88.9681],[-91.5449,14.3593,85.976],[-91.5415,14.3597,53.3263],[-91.54,14.3581,57.6932],[-91.5451,14.3384,74.1901],[-91.5437,14.3321,68.3998],[-91.5455,14.3282,72.3923],[-91.5405,14.3273,68.8126],[-91.5398,14.3238,73.4668],[-91.5364,14.3219,69.2235],[-91.5354,14.3184,66.3866],[-91.5412,14.3075,62.0661],[-91.534,14.3049,56.4744],[-91.5361,14.3007,59.1523],[-91.5396,14.2989,57.322],[-91.5395,14.2876,47.2675],[-91.5369,14.2851,37.7964],[-91.5363,14.2798,33.5095],[-91.5454,14.2815,52.9513],[-91.5451,14.2793,50.5212],[-91.547,14.2774,44.9479],[-91.5441,14.2706,38.7206],[-91.5498,14.2663,36.761],[-91.5523,14.2612,19.2625],[-91.5597,14.263,40.609],[-91.5621,14.2609,42.7851],[-91.5654,14.2497,35.7994],[-91.5764,14.24,28.5236],[-91.5788,14.2344,18.0351],[-91.5821,14.235,23.367],[-91.59,14.2263,29.0202],[-91.5978,14.2134,12.451599999999999],[-91.6041,14.212,14.6676],[-91.6086,14.2057,17.7772],[-91.6064,14.1992,13.1299],[-91.612,14.1922,16.6563],[-91.612799999999993,14.1877,8.0681],[-91.6161,14.1846,7.9651],[-91.6204,14.1838,13.8333],[-91.6258,14.1762,9.8361],[-91.6299,14.1732,9.4341],[-91.632,14.1667,7.3549],[-91.6366,14.1613,9.2441],[-91.6409,14.1594,8.2606],[-91.6486,14.1475,3.6402],[-91.6577,14.1497,6.4391],[-91.6599,14.1484,2.8369],[-91.6674,14.1382,4.122],[-91.6678,14.1353,6.65],[-91.6638,14.1321,3.4624],[-91.6636,14.1302,10.4626],[-91.6663,14.1257,4.5519]]]]}
,"properties": {"GID_2": "GTM.20.14_1","GID_0": "GTM","country": "Guatemala","GID_1": "GTM.20_1","province": "Suchitepéquez","NL_NAME_1": "NA","county": "SanLorenzo","VARNAME_2": "NA","NL_NAME_2": "NA","TYPE_2": "Municipio","ENGTYPE_2": "Municipality","CC_2": "NA","HASC_2": "NA","name": "San_Lorenzo.county","area_km2": 216.8697,"hist_schema_id": "Elevation0-9000","hist_area_km2": {"0": 59.2156,"25": 64.9311,"50": 43.8302,"75": 9.2021,"100": 11.4801,"125": 9.302,"150": 6.7757,"175": 4.6399,"200": 3.4489,"225": 3.1203,"250": 0.9237}}}