{"type":"Feature","properties":{"GID_2":"GTM.13.17_1","GID_0":"GTM","country":"Guatemala","GID_1":"GTM.13_1","province":"Quezaltenango","NL_NAME_1":"NA","county":"Salcajá","VARNAME_2":"NA","NL_NAME_2":"NA","TYPE_2":"Municipio","ENGTYPE_2":"Municipality","CC_2":"NA","HASC_2":"NA","name":"Salcajá.county"},
"geometry":{"type": "MultiPolygon","coordinates": [[[[-91.4407,14.8572,2395.5239],[-91.4368,14.8729,2390.5193],[-91.4365,14.8905,2394.291],[-91.4514,14.8952,2323.5444],[-91.4585,14.8992,2339.8215],[-91.4762,14.8938,2393.5425],[-91.4731,14.8888,2391.2026],[-91.4745,14.8844,2386.3257],[-91.4826,14.8782,2354.6306],[-91.479,14.8725,2382.5627],[-91.4741,14.858,2322.9636],[-91.4684,14.8539,2358.2761],[-91.4563,14.8578,2388.8633],[-91.4407,14.8572,2395.5239]]]]}}