{"type": "Feature","bbox": [-91.0179,14.2615,-90.8732,14.3991],"geometry": {"type": "MultiPolygon","coordinates": [[[[-90.973,14.3734,603.7499],[-90.9779,14.3699,581.6981],[-90.9827,14.3525,498.365],[-90.99,14.3476,476.6436],[-90.9906,14.3434,455.5121],[-91.0179,14.3169,338.8582],[-91.0022,14.2904,301.0054],[-90.991,14.2874,298.5076],[-90.9869,14.2829,287.1018],[-90.9645,14.2796,273.0532],[-90.9529,14.28,264.2466],[-90.9541,14.2774,260.0504],[-90.9533,14.2744,253.1614],[-90.9508,14.2749,248.5335],[-90.9517,14.2703,242.5357],[-90.9491,14.2697,236.5074],[-90.9444,14.27,233.9168],[-90.9418,14.276,246.3305],[-90.9345,14.2769,232.2398],[-90.9325,14.2808,235.863],[-90.931,14.2646,206.8565],[-90.9206,14.2667,194.5672],[-90.9208,14.2617,187.1004],[-90.9196,14.2615,184.2128],[-90.9132,14.2737,188.5127],[-90.907,14.2786,158.7159],[-90.9196,14.2835,183.3112],[-90.9215,14.2919,216.1669],[-90.9191,14.295,224.815],[-90.9232,14.3103,244.6492],[-90.9187,14.3193,268.2115],[-90.9154,14.3207,253.8348],[-90.9128,14.325,261.9613],[-90.9016,14.3208,338.4491],[-90.898,14.3228,429.4037],[-90.8847,14.3216,286.481],[-90.8828,14.328,302.2677],[-90.8772,14.3312,329.9492],[-90.8732,14.3359,387.7547],[-90.874,14.341,423.7622],[-90.8813,14.3424,596.1337],[-90.8883,14.3462,679.7042],[-90.8955,14.3461,693.7139],[-90.9063,14.3527,667.3644],[-90.9108,14.3543,686.1649],[-90.9166,14.3538,736.8741],[-90.9203,14.357,756.2412],[-90.9374,14.3593,608.3257],[-90.9381,14.3608,615.1565],[-90.9287,14.376,732.5916],[-90.9403,14.3764,688.0277],[-90.9477,14.3785,676.083],[-90.9504,14.3672,626.3753],[-90.9612,14.3714,619.0286],[-90.9612,14.3766,646.6326],[-90.9549,14.3881,713.8473],[-90.9549,14.3938,753.5124],[-90.9507,14.3983,782.7768],[-90.9536,14.3991,778.8971],[-90.9566,14.3956,759.7485],[-90.9641,14.392,706.5978],[-90.968,14.3842,665.8796],[-90.9673,14.3803,647.4806],[-90.973,14.3734,603.7499]]]]}
,"properties": {"GID_2": "GTM.6.12_1","GID_0": "GTM","country": "Guatemala","GID_1": "GTM.6_1","province": "Escuintla","NL_NAME_1": "NA","county": "Siquinalá","VARNAME_2": "NA","NL_NAME_2": "NA","TYPE_2": "Municipio","ENGTYPE_2": "Municipality","CC_2": "NA","HASC_2": "NA","name": "Siquinalá.county","area_km2": 104.58489,"hist_schema_id": "Elevation0-9000","hist_area_km2": {"175": 0.49314,"200": 2.03422,"225": 2.21909,"250": 4.37637,"275": 8.7728,"300": 11.46411,"325": 9.06022,"350": 8.11493,"375": 7.37511,"400": 6.28614,"425": 5.50538,"450": 4.97118,"475": 4.60133,"500": 3.9234,"525": 4.72444,"550": 3.75894,"575": 3.47131,"600": 2.93721,"625": 2.44424,"650": 2.25935,"675": 2.27986,"700": 1.76637,"725": 0.82152,"750": 0.45185,"775": 0.20538,"800": 0.18486,"825": 0.04108,"850": 0.04108}}}