{"type":"Feature","properties":{"GID_2":"GTM.14.19_1","GID_0":"GTM","country":"Guatemala","GID_1":"GTM.14_1","province":"Quiché","NL_NAME_1":"NA","county":"SantaCruzdelQuiché","VARNAME_2":"NA","NL_NAME_2":"NA","TYPE_2":"Municipio","ENGTYPE_2":"Municipality","CC_2":"NA","HASC_2":"NA","name":"Santa_Cruzdel_Quiché.county"},
"geometry":{"type": "MultiPolygon","coordinates": [[[[-91.0614,15.064,2171.4473],[-91.0638,15.0966,2119.7595],[-91.0793,15.1011,2157.1099],[-91.0875,15.1064,2201.5015],[-91.0929,15.1077,2155.416],[-91.1028,15.1029,2435.3896],[-91.1273,15.1056,2246.8889],[-91.1459,15.0965,2134.6638],[-91.1404,15.0858,2145.3152],[-91.1413,15.0814,2179.3086],[-91.1537,15.0661,2105.9858],[-91.1613,15.0594,2040.5524],[-91.1624,15.0537,2003.9229],[-91.1622,15.0462,1975.1084],[-91.1433,15.0153,2010.2742],[-91.1434,14.9821,2063.3665],[-91.1476,14.972,2043.4186],[-91.1524,14.9451,2114.3303],[-91.1356,14.9402,2210.0481],[-91.1225,14.9478,2014.7623],[-91.1256,14.9557,1987.2456],[-91.1017,14.9821,2009.9149],[-91.0981,15.0156,2038.6685],[-91.0745,15.0571,2139.1213],[-91.0657,15.0581,2136.8137],[-91.0614,15.064,2171.4473]]]]}}