{"type":"Feature","properties":{"GID_2":"GTM.1.9_1","GID_0":"GTM","country":"Guatemala","GID_1":"GTM.1_1","province":"AltaVerapaz","NL_NAME_1":"NA","county":"SanPedroCarchá","VARNAME_2":"NA","NL_NAME_2":"NA","TYPE_2":"Municipio","ENGTYPE_2":"Municipality","CC_2":"NA","HASC_2":"NA","name":"San_Pedro_Carchá.county"},
"geometry":{"type": "MultiPolygon","coordinates": [[[[-90.3626,15.6959,338.9072],[-90.361,15.6907,351.2339],[-90.3669,15.68,356.9002],[-90.3656,15.6764,363.6151],[-90.3524,15.6799,327.0306],[-90.3472,15.6679,395.3808],[-90.3568,15.6594,342.4218],[-90.3575,15.6551,350.2035],[-90.3676,15.6455,344.188],[-90.3706,15.6459,345.5125],[-90.3724,15.6429,364.7179],[-90.3751,15.6441,338.9824],[-90.3793,15.6417,344.3461],[-90.3826,15.6339,584.7849],[-90.381,15.6283,583.238],[-90.3755,15.6236,727.5778],[-90.3731,15.6157,911.2419],[-90.3677,15.6154,908.0875],[-90.3631,15.6073,1032.832],[-90.3521,15.6046,972.9913],[-90.3446,15.5969,833.0599],[-90.3428,15.5692,862.5588],[-90.3273,15.541,1160.5798],[-90.3349,15.5351,1230.4171],[-90.3421,15.5329,1223.8644],[-90.3468,15.5334,1239.0306],[-90.3514,15.5306,1271.2108],[-90.3568,15.525,1363.1876],[-90.3607,15.5177,1408.1892],[-90.3475,15.51,1429.2144],[-90.347,15.5062,1398.344],[-90.35,15.4994,1410.5571],[-90.3469,15.5,1436.1112],[-90.3463,15.4974,1410.8765],[-90.3432,15.498,1393.8096],[-90.3405,15.4867,1332.3224],[-90.341,15.4831,1323.033],[-90.3388,15.4825,1296.0378],[-90.3391,15.4773,1311.6758],[-90.3368,15.4775,1323.4015],[-90.3364,15.476,1331.9015],[-90.3384,15.4738,1362.382],[-90.3357,15.4716,1325.0483],[-90.3314,15.4722,1311.0468],[-90.3324,15.4667,1311.9009],[-90.327,15.4443,1423.2048],[-90.3101,15.4383,1474.0685],[-90.3044,15.4418,1409.288],[-90.3016,15.4418,1435.9296],[-90.2966,15.4378,1423.405],[-90.2886,15.4367,1428.9783],[-90.2779,15.4382,1533.1095],[-90.2731,15.4371,1617.8579],[-90.2722,15.4408,1539.7549],[-90.2672,15.4429,1455.6669],[-90.2598,15.4419,1552.5604],[-90.2428,15.435,1450.4702],[-90.2234,15.4313,1519.0789],[-90.205,15.4313,1578.7227],[-90.1963,15.4281,1654.5967],[-90.197,15.4257,1652.9017],[-90.201,15.4266,1599.6302],[-90.2019,15.4245,1648.4418],[-90.1944,15.42,1894.8772],[-90.185,15.4066,1893.2048],[-90.1805,15.4033,1927.03],[-90.17,15.4077,1834.8103],[-90.1638,15.4066,1859.7141],[-90.1578,15.3971,2148.6536],[-90.1513,15.394,2147.5549],[-90.1406,15.3946,2010.7114],[-90.1066,15.3878,2190.3911],[-90.0936,15.3784,1919.4927],[-90.081,15.3863,2260.6963],[-90.0618,15.395,2210.4766],[-90.0541,15.4046,1945.0012],[-90.0468,15.4082,2040.3942],[-90.0179,15.4118,1900.8304],[-89.9864,15.4283,1661.741],[-89.9659,15.4328,1485.1067],[-89.9637,15.4359,1468.3406],[-89.9663,15.4376,1405.3577],[-89.9665,15.4463,1375.3555],[-89.9721,15.4484,1310.043],[-89.9729,15.4538,1168.0461],[-89.9846,15.4543,1193.5261],[-89.9882,15.4528,1067.8098],[-89.9921,15.4475,1180.4973],[-89.9974,15.4527,1196.9761],[-89.9968,15.4587,1213.3517],[-90.0014,15.4613,1271.6437],[-90.0004,15.4659,1236.3804],[-89.9892,15.4682,1166.5653],[-89.9834,15.4801,835.0136],[-89.9833,15.4827,877.5866],[-89.9858,15.4822,761.5636],[-89.9893,15.4784,848.2228],[-89.9937,15.4767,910.7063],[-89.9963,15.4805,917.2639],[-89.9967,15.5037,774.5338],[-89.9955,15.5063,488.2992],[-90.0036,15.5096,502.783],[-90.0151,15.5052,515.7177],[-90.0187,15.5081,583.0805],[-90.0313,15.5069,503.986],[-90.0337,15.5028,474.0916],[-90.0541,15.4984,501.2611],[-90.0582,15.5066,709.8959],[-90.0608,15.5047,731.4882],[-90.0738,15.5082,782.2562],[-90.0662,15.5401,701.5599],[-90.074,15.5451,776.1198],[-90.0748,15.5589,1054.5835],[-90.0682,15.5659,1148.748],[-90.0541,15.5683,857.2356],[-90.05,15.5839,817.5702],[-90.0651,15.5815,954.3943],[-90.0575,15.5934,1192.3335],[-90.0481,15.5951,1171.5419],[-90.0399,15.6003,1141.2987],[-90.0217,15.6164,1009.6953],[-89.9991,15.6275,1123.2234],[-89.9948,15.6438,997.088],[-89.9791,15.6505,1090.1014],[-89.9757,15.6541,1083.3354],[-89.972,15.6643,1058.6174],[-89.9664,15.6659,927.4532],[-89.9621,15.6721,644.1827],[-89.9217,15.693,594.5516],[-89.9165,15.7207,270.2914],[-89.9249,15.7223,239.7471],[-89.953,15.7222,178.1165],[-89.9557,15.7252,181.6781],[-89.9568,15.73,185.6173],[-89.9549,15.7453,182.3565],[-89.9675,15.7408,188.1242],[-89.9729,15.7368,184.9019],[-89.9751,15.7398,189.7568],[-89.9881,15.7342,187.7107],[-89.9924,15.7395,181.8397],[-89.9954,15.7384,182.5899],[-89.9966,15.7343,183.195],[-89.9997,15.7335,180.4745],[-90.0005,15.738,179.8942],[-90.0016,15.7387,181.6697],[-90.004,15.7364,179.0137],[-90.0127,15.7449,189.6548],[-90.0254,15.7422,180.571],[-90.0272,15.746,179.6993],[-90.0309,15.7441,182.3819],[-90.050299999999993,15.7511,184.666],[-90.0706,15.7509,193.1512],[-90.0715,15.7547,183.7311],[-90.0818,15.7521,187.353],[-90.0905,15.7591,186.3946],[-90.0907,15.7612,188.4406],[-90.0987,15.7635,186.4933],[-90.1023,15.7614,185.5032],[-90.1148,15.769,186.6097],[-90.1167,15.7669,189.6711],[-90.1241,15.7678,188.7206],[-90.1289,15.7631,186.9347],[-90.1354,15.7607,187.0441],[-90.1541,15.7619,186.6616],[-90.185,15.7678,314.2069],[-90.193,15.7674,415.594],[-90.2004,15.7451,427.5922],[-90.2096,15.7346,307.959],[-90.2126,15.7293,313.2141],[-90.2134,15.7232,309.6639],[-90.2177,15.7189,318.188],[-90.233,15.7143,461.1561],[-90.2431,15.7145,421.1161],[-90.2505,15.7093,389.4709],[-90.2626,15.7064,501.5154],[-90.2651,15.7036,541.833],[-90.2697,15.7046,498.1255],[-90.2744,15.713,580.669],[-90.2915,15.7231,313.3401],[-90.3056,15.7197,317.8995],[-90.3152,15.7236,328.9949],[-90.3211,15.7209,319.5019],[-90.3253,15.7226,323.3009],[-90.327,15.7257,323.3463],[-90.3311,15.7268,333.64],[-90.3376,15.7244,331.6851],[-90.3388,15.7224,327.9886],[-90.357,15.7199,427.3161],[-90.3599,15.7176,491.7616],[-90.3624,15.7122,513.2952],[-90.3611,15.7047,499.0842],[-90.3593,15.7037,456.4937],[-90.3586,15.7002,364.9118],[-90.3626,15.6959,338.9072]]]]}}