{"type":"Feature","properties":{"GID_2":"GTM.8.14_1","GID_0":"GTM","country":"Guatemala","GID_1":"GTM.8_1","province":"Huehuetenango","NL_NAME_1":"NA","county":"SanIldefonsoIxtahuacán","VARNAME_2":"NA","NL_NAME_2":"NA","TYPE_2":"Municipio","ENGTYPE_2":"Municipality","CC_2":"NA","HASC_2":"NA","name":"San_Ildefonso_Ixtahuacán.county"},
"geometry":{"type": "MultiPolygon","coordinates": [[[[-91.7099,15.4833,2476.9961],[-91.7192,15.4976,2351.801],[-91.7289,15.4994,2282.144],[-91.74,15.5044,2265.3567],[-91.7686,15.505,1880.6317],[-91.7712,15.5131,2368.7627],[-91.7681,15.5262,2243.5286],[-91.7816,15.5236,2524.5693],[-91.8022,15.5095,1307.1459],[-91.8074,15.5104,1290.562],[-91.8246,15.5076,1337.1376],[-91.8247,15.4822,2203.7302],[-91.8293,15.4656,2653.9858],[-91.8431,15.4475,2581.458],[-91.8391,15.4341,2148.7341],[-91.8381,15.4146,1589.8015],[-91.8809,15.3616,1842.6699],[-91.8231,15.3278,2113.8892],[-91.7947,15.3287,2384.8057],[-91.764,15.3434,2218.7888],[-91.7498,15.3403,2266.2524],[-91.7447,15.3409,2181.2278],[-91.7415,15.3455,2302.1877],[-91.7309,15.3447,2028.2378],[-91.7293,15.3425,2040.079],[-91.7164,15.3391,1484.7803],[-91.7038,15.3697,1655.3706],[-91.7284,15.4048,1698.4476],[-91.7256,15.4164,1645.8698],[-91.7309,15.4263,1489.3467],[-91.7253,15.4414,1899.6367],[-91.7299,15.4573,1986.015],[-91.7176,15.4619,1937.465],[-91.7099,15.4833,2476.9961]]]]}}