{"type":"Feature","properties":{"GID_2":"GTM.7.32_1","GID_0":"GTM","country":"Guatemala","GID_1":"GTM.7_1","province":"Guatemala","NL_NAME_1":"NA","county":"ZONA3","VARNAME_2":"NA","NL_NAME_2":"NA","TYPE_2":"Municipio","ENGTYPE_2":"Municipality","CC_2":"NA","HASC_2":"NA","name":"Z_O_N_A3.county"},
"geometry":{"type": "MultiPolygon","coordinates": [[[[-90.5213,14.6512,1484.8647],[-90.5203,14.6629,1365.1469],[-90.5336,14.6388,1505.8386],[-90.5335,14.6298,1481.9434],[-90.5379,14.6154,1525.8657],[-90.537,14.6144,1527.4719],[-90.5238,14.6262,1526.5498],[-90.5254,14.6264,1518.9037],[-90.5248,14.633,1515.4594],[-90.5213,14.6512,1484.8647]]]]}}