{"type":"Feature","properties":{"GID_2":"GTM.1.13_1","GID_0":"GTM","country":"Guatemala","GID_1":"GTM.1_1","province":"AltaVerapaz","NL_NAME_1":"NA","county":"Tactic","VARNAME_2":"NA","NL_NAME_2":"NA","TYPE_2":"Municipio","ENGTYPE_2":"Municipality","CC_2":"NA","HASC_2":"NA","name":"Tactic.county"},
"geometry":{"type": "MultiPolygon","coordinates": [[[[-90.3901,15.3755,1417.2886],[-90.4006,15.3502,1661.1265],[-90.3981,15.3432,1827.8502],[-90.4005,15.3363,1613.0458],[-90.3988,15.3342,1635.1659],[-90.4017,15.3309,1476.1766],[-90.4042,15.3202,1583.1282],[-90.389,15.3189,1508.0994],[-90.3941,15.3124,1512.7632],[-90.4048,15.3091,1502.9109],[-90.4059,15.3011,1785.6909],[-90.3941,15.2843,1611.6334],[-90.3875,15.2785,1160.6421],[-90.3788,15.2595,1293.1289],[-90.3684,15.2557,1144.7183],[-90.3487,15.2407,1214.3721],[-90.335,15.2262,1537.9561],[-90.331,15.226,1578.0061],[-90.3284,15.23,1426.5171],[-90.3279,15.2413,1272.6064],[-90.3137,15.243,1640.996],[-90.3054,15.2468,1828.3098],[-90.2937,15.2799,1592.0946],[-90.2956,15.2824,1566.4841],[-90.2931,15.2908,1627.74],[-90.2904,15.2941,1789.1467],[-90.2814,15.292,1939.5215],[-90.2866,15.3112,1481.0452],[-90.3011,15.3149,1585.8191],[-90.3023,15.3174,1562.2992],[-90.3007,15.3221,1755.0457],[-90.2953,15.325,1899.5704],[-90.292,15.3367,2475.6143],[-90.3039,15.3358,2100.6042],[-90.3385,15.3437,1851.2245],[-90.3485,15.3439,1898.2404],[-90.3853,15.3672,1646.7974],[-90.3901,15.3755,1417.2886]]]]}}