{"type": "Feature","bbox": [-91.5335,15.6942,-91.4344,15.7677],"geometry": {"type": "MultiPolygon","coordinates": [[[[-91.4996,15.6965,2722.8167],[-91.4925,15.702,2842.2505],[-91.4803,15.7052,2936.6494],[-91.4681,15.717,2655.6628],[-91.447,15.7244,2415.9824],[-91.4344,15.7353,2437.2256],[-91.4449,15.7388,2493.4744],[-91.4516,15.7436,2474.0286],[-91.4859,15.7602,2774.7517],[-91.5071,15.7677,2947.1021],[-91.5153,15.7496,2612.7058],[-91.5254,15.7437,2777.2214],[-91.5335,15.7437,2802.772],[-91.5277,15.7297,2704.9666],[-91.5281,15.71,2471.3599],[-91.5257,15.7021,2659.5759],[-91.5181,15.6942,2921.5488],[-91.4996,15.6965,2722.8167]]]]}
,"properties": {"GID_2": "GTM.8.20_1","GID_0": "GTM","country": "Guatemala","GID_1": "GTM.8_1","province": "Huehuetenango","NL_NAME_1": "NA","county": "SanRafaelLaIndependencia","VARNAME_2": "NA","NL_NAME_2": "NA","TYPE_2": "Municipio","ENGTYPE_2": "Municipality","CC_2": "NA","HASC_2": "NA","name": "San_Rafael_La_Independencia.county","area_km2": 47.53062,"hist_schema_id": "Elevation0-9000","hist_area_km2": {"2275": 0.02041,"2300": 0.04082,"2325": 0.10205,"2350": 0.10205,"2375": 0.30611,"2400": 0.87753,"2425": 0.7755,"2450": 0.89793,"2475": 1.12244,"2500": 1.18367,"2525": 1.36734,"2550": 2.20408,"2575": 2.10204,"2600": 2.14287,"2625": 2.85713,"2650": 2.83671,"2675": 2.79591,"2700": 2.75512,"2725": 2.28572,"2750": 2.16327,"2775": 2.36731,"2800": 2.32651,"2825": 2.59177,"2850": 2.3877,"2875": 2.2857,"2900": 1.89793,"2925": 1.38781,"2950": 1.34704,"2975": 0.77558,"3000": 0.44901,"3025": 0.34696,"3050": 0.32656,"3075": 0.10205}}}