{"type": "Feature","bbox": [-91.4313,14.5905,-91.3905,14.6426],"geometry": {"type": "MultiPolygon","coordinates": [[[[-91.4313,14.6253,877.1229],[-91.4207,14.6087,746.8715],[-91.4117,14.604,694.5463],[-91.4,14.5905,606.0331],[-91.3967,14.6011,581.0015],[-91.397,14.6109,669.1516],[-91.3941,14.6162,689.0554],[-91.3949,14.6254,722.1824],[-91.3905,14.6354,742.957],[-91.3914,14.6378,656.3642],[-91.398,14.6426,761.3472],[-91.4021,14.6403,861.0781],[-91.4106,14.641,946.8629],[-91.4146,14.6363,930.5363],[-91.4219,14.6349,918.314],[-91.4313,14.6253,877.1229]]]]}
,"properties": {"GID_2": "GTM.20.19_1","GID_0": "GTM","country": "Guatemala","GID_1": "GTM.20_1","province": "Suchitepéquez","NL_NAME_1": "NA","county": "SantoTomásLaUnión","VARNAME_2": "NA","NL_NAME_2": "NA","TYPE_2": "Municipio","ENGTYPE_2": "Municipality","CC_2": "NA","HASC_2": "NA","name": "Santo_Tomás_La_Unión.county","area_km2": 13.82753,"hist_schema_id": "Elevation0-9000","hist_area_km2": {"600": 0.14363,"625": 0.45139,"650": 0.55397,"675": 0.80016,"700": 1.04634,"725": 1.45665,"750": 1.39507,"775": 1.74382,"800": 1.51812,"825": 1.47707,"850": 1.27192,"875": 1.12831,"900": 0.65646,"925": 0.18463}}}