{"type":"Feature","properties":{"GID_2":"GTM.8.2_1","GID_0":"GTM","country":"Guatemala","GID_1":"GTM.8_1","province":"Huehuetenango","NL_NAME_1":"NA","county":"Chiantla","VARNAME_2":"NA","NL_NAME_2":"NA","TYPE_2":"Municipio","ENGTYPE_2":"Municipality","CC_2":"NA","HASC_2":"NA","name":"Chiantla.county"},
"geometry":{"type": "MultiPolygon","coordinates": [[[[-91.3134,15.5208,2924.8962],[-91.3128,15.5357,2813.6892],[-91.3046,15.5593,2466.9578],[-91.2971,15.5684,2216.499],[-91.2816,15.5756,1962.6378],[-91.2629,15.5946,2344.2268],[-91.2755,15.6005,1980.6078],[-91.2751,15.6062,1876.4402],[-91.2576,15.6239,1712.2446],[-91.2398,15.626,1289.6827],[-91.2348,15.6247,1659.3298],[-91.2206,15.6371,1426.7952],[-91.2261,15.6413,1468.407],[-91.2353,15.6406,1325.0787],[-91.2547,15.6492,1960.1294],[-91.2543,15.6562,2067.1787],[-91.2615,15.656,2438.8479],[-91.2705,15.6482,2229.7673],[-91.2931,15.645,2329.9648],[-91.3107,15.6311,2734.2988],[-91.323,15.6291,2494.1558],[-91.3314,15.6246,2219.8691],[-91.3384,15.6239,2235.4375],[-91.3481,15.6185,2124.0291],[-91.3601,15.6186,2435.2788],[-91.3601,15.6231,2342.7307],[-91.3673,15.6232,2570.2861],[-91.38,15.6149,2629.9429],[-91.3899,15.6176,2298.5039],[-91.4065,15.6176,2110.0442],[-91.4094,15.6203,2184.3267],[-91.4247,15.6149,2289.9856],[-91.4347,15.6079,2402.8237],[-91.4426,15.6077,2157.6147],[-91.4548,15.5955,2244.9851],[-91.4623,15.5955,2548.2373],[-91.4685,15.5818,2965.0464],[-91.457,15.5714,2916.3647],[-91.4626,15.557,2600.7178],[-91.4681,15.552,2668.4858],[-91.4766,15.5518,3155.2334],[-91.4866,15.5328,3296.9277],[-91.4849,15.5291,3267.115],[-91.488,15.5116,3514.646],[-91.4886,15.4599,3186.8872],[-91.4834,15.4477,3230.1404],[-91.484,15.4398,3190.8381],[-91.4996,15.4011,2656.093],[-91.5113,15.3915,2153.1946],[-91.514,15.3778,2011.3464],[-91.4985,15.3827,2137.8672],[-91.4931,15.3801,2155.8386],[-91.4832,15.382,2345.4414],[-91.4699,15.3822,2616.4099],[-91.4519,15.3679,2266.8691],[-91.4442,15.3563,2027.5038],[-91.4337,15.3571,2101.6899],[-91.4143,15.3551,2119.5579],[-91.3715,15.3591,2397.8723],[-91.3741,15.3759,2810.9258],[-91.3698,15.3873,3093.8831],[-91.3548,15.4017,3032.188],[-91.3363,15.413,2728.0681],[-91.3232,15.449,2882.479],[-91.3257,15.4591,3084.0601],[-91.3242,15.4786,3104.8667],[-91.33,15.5005,3224.2473],[-91.3306,15.5136,3150.407],[-91.3245,15.5208,2851.6284],[-91.3134,15.5208,2924.8962]]]]}}