{"type":"Feature","properties":{"GID_2":"GTM.14.1_1","GID_0":"GTM","country":"Guatemala","GID_1":"GTM.14_1","province":"Quiché","NL_NAME_1":"NA","county":"Canillá","VARNAME_2":"NA","NL_NAME_2":"NA","TYPE_2":"Municipio","ENGTYPE_2":"Municipality","CC_2":"NA","HASC_2":"NA","name":"Canillá.county"},
"geometry":{"type": "MultiPolygon","coordinates": [[[[-90.809,15.2352,1053.3352],[-90.8317,15.235,910.9805],[-90.8446,15.2442,1180.4585],[-90.8776,15.2518,1135.3661],[-90.8824,15.2481,1122.7593],[-90.8835,15.2358,1145.4634],[-90.9066,15.1923,1399.7098],[-90.9075,15.1748,1232.493],[-90.9124,15.1486,1215.6982],[-90.8987,15.144,1428.5914],[-90.8807,15.1491,1198.7344],[-90.8538,15.1508,1238.8286],[-90.8256,15.1632,1440.1558],[-90.8058,15.1525,1600.4592],[-90.809,15.2352,1053.3352]]]]}}