{"type": "Feature","bbox": [-89.7527,14.9871,-89.4349,15.1962],"geometry": {"type": "MultiPolygon","coordinates": [[[[-89.7331,15.1468,2746.7588],[-89.7368,15.1415,2654.2124],[-89.7424,15.1378,2554.0879],[-89.7497,15.1272,2376.9497],[-89.7456,15.1213,2327.3845],[-89.7527,15.111,1928.9659],[-89.7386,15.1032,1850.0432],[-89.7367,15.0848,1655.5006],[-89.7264,15.0768,1476.658],[-89.7215,15.075,1255.9309],[-89.7228,15.0543,1119.252],[-89.7218,15.0447,1280.4285],[-89.711,15.0323,771.402],[-89.7076,15.0189,338.1983],[-89.7017,15.015,262.4935],[-89.6973,15.0038,235.5445],[-89.688,14.9972,232.9335],[-89.6886,14.9942,226.818],[-89.6917,14.9916,210.0103],[-89.681,14.9871,211.8134],[-89.6798,14.9938,205.957],[-89.6605,14.9914,210.4716],[-89.6321,15.0059,170.0769],[-89.616,15.0085,176.6593],[-89.6064,15.02,188.9529],[-89.5989,15.0217,183.5508],[-89.5895,15.0311,186.0117],[-89.5651,15.0392,169.7944],[-89.5603,15.0363,177.9822],[-89.5606,15.034,172.145],[-89.5544,15.032,160.1756],[-89.5365,15.051,165.3724],[-89.5053,15.0597,155.4471],[-89.4983,15.0678,264.5667],[-89.4898,15.0692,197.5485],[-89.4652,15.0802,134.3102],[-89.4598,15.0902,166.8945],[-89.462,15.0938,227.2594],[-89.4651,15.0937,207.6637],[-89.4699,15.0974,195.5637],[-89.463,15.1044,210.7266],[-89.4589,15.1205,369.8747],[-89.4506,15.1256,452.3571],[-89.4438,15.123,488.4241],[-89.4381,15.1259,602.1132],[-89.439,15.1435,1174.6382],[-89.4352,15.1454,1108.8365],[-89.4349,15.1521,855.9224],[-89.4395,15.151,1032.3944],[-89.4414,15.1559,1216.3857],[-89.4378,15.1626,856.3389],[-89.4442,15.165,1036.2043],[-89.4428,15.1673,949.9959],[-89.4478,15.1678,1289.2186],[-89.4529,15.174,1513.8925],[-89.4538,15.186,1351.3171],[-89.4652,15.1962,1816.5408],[-89.5025,15.1844,1881.7196],[-89.5155,15.1768,1860.7883],[-89.5361,15.1735,1824.6672],[-89.55,15.1755,1895.6031],[-89.5587,15.1827,1993.3823],[-89.562,15.1823,2134.2051],[-89.5655,15.1763,2079.8459],[-89.611,15.1589,2447.1523],[-89.6222,15.1566,2515.0681],[-89.6313,15.1614,2200.4404],[-89.6357,15.1601,2125.5596],[-89.6661,15.1485,2168.3181],[-89.6676,15.1449,2181.2517],[-89.6643,15.1385,1993.2319],[-89.6648,15.1301,1973.2942],[-89.6626,15.1225,1916.2114],[-89.6661,15.1197,2097.335],[-89.6776,15.1223,2092.0432],[-89.6869,15.1377,2173.48],[-89.6894,15.139099999999999,2262.0994],[-89.7041,15.1382,2441.1665],[-89.7145,15.1479,2320.9561],[-89.7223,15.1517,2704.2166],[-89.7331,15.1468,2746.7588]]]]}
,"properties": {"GID_2": "GTM.22.6_1","GID_0": "GTM","country": "Guatemala","GID_1": "GTM.22_1","province": "Zacapa","NL_NAME_1": "NA","county": "RíoHondo","VARNAME_2": "NA","NL_NAME_2": "NA","TYPE_2": "Municipio","ENGTYPE_2": "Municipality","CC_2": "NA","HASC_2": "NA","name": "Río_Hondo.county","area_km2": 446.9281,"hist_schema_id": "Elevation0-9000","hist_area_km2": {"150": 1.1671,"175": 16.79,"200": 31.0812,"225": 22.913,"250": 11.4046,"275": 7.2274,"300": 5.3027,"325": 5.5894,"350": 5.0161,"375": 4.5656,"400": 4.2175,"425": 4.115,"450": 3.5213,"475": 3.6031,"500": 3.7669,"525": 3.3982,"550": 4.0943,"575": 3.5416,"600": 4.1351,"625": 4.0532,"650": 3.8076,"675": 4.4217,"700": 4.0122,"725": 4.5853,"750": 4.0326,"775": 3.869,"800": 4.483,"825": 4.1554,"850": 3.6437,"875": 4.7082,"900": 4.9129,"925": 4.7901,"950": 4.4625,"975": 4.2987,"1000": 4.2373,"1025": 4.1349,"1050": 4.2986,"1075": 4.5647,"1100": 4.7899,"1125": 3.705,"1150": 4.2371,"1175": 4.5237,"1200": 4.1347,"1225": 4.503,"1250": 4.4826,"1275": 4.196,"1300": 3.6433,"1325": 3.5819,"1350": 4.2778,"1375": 4.462,"1400": 4.6667,"1425": 4.1345,"1450": 4.9122,"1475": 4.1959,"1500": 4.6258,"1525": 4.3596,"1550": 4.8918,"1575": 4.9123,"1600": 5.2602,"1625": 4.7486,"1650": 5.035,"1675": 4.8919,"1700": 5.1988,"1725": 5.2806,"1750": 5.1988,"1775": 4.81,"1800": 4.0731,"1825": 4.5029,"1850": 4.073,"1875": 3.9502,"1900": 4.339,"1925": 4.2163,"1950": 4.1548,"1975": 4.0524,"2000": 4.1753,"2025": 3.9092,"2050": 3.991,"2075": 4.1343,"2100": 3.3975,"2125": 4.0115,"2150": 3.7864,"2175": 3.3361,"2200": 3.0086,"2225": 3.5408,"2250": 2.5378,"2275": 2.2104,"2300": 1.5964,"2325": 2.0466,"2350": 1.535,"2375": 1.2075,"2400": 1.4326,"2425": 1.3098,"2450": 1.0643,"2475": 1.0438,"2500": 0.614,"2525": 0.5935,"2550": 0.5117,"2575": 0.6754,"2600": 0.5321,"2625": 0.4912,"2650": 0.307,"2675": 0.3479,"2700": 0.2251,"2725": 0.4093,"2750": 0.1637,"2775": 0.1433,"2800": 0.1842,"2825": 0.1842,"2850": 0.0819,"2875": 0.1023,"2900": 0.1023,"2925": 0.0409}}}