{"type":"Feature","properties":{"GID_2":"GTM.19.17_1","GID_0":"GTM","country":"Guatemala","GID_1":"GTM.19_1","province":"Sololá","NL_NAME_1":"NA","county":"SantaLucíaUtatlán","VARNAME_2":"NA","NL_NAME_2":"NA","TYPE_2":"Municipio","ENGTYPE_2":"Municipality","CC_2":"NA","HASC_2":"NA","name":"Santa_Lucía_Utatlán.county"},
"geometry":{"type": "MultiPolygon","coordinates": [[[[-91.3024,14.7697,2486.5679],[-91.3118,14.7606,2361.5264],[-91.3188,14.7419,2102.2815],[-91.3065,14.7387,2168.0303],[-91.2966,14.7394,2547.6499],[-91.2929,14.7413,2621.5308],[-91.2737,14.7434,2099.1582],[-91.2595,14.7501,2365.7432],[-91.2478,14.7507,2196.7993],[-91.2412,14.748,2362.1831],[-91.2429,14.7629,2416.0122],[-91.238,14.7729,2333.0525],[-91.2387,14.7803,2394.7661],[-91.2291,14.7969,2387.3984],[-91.2326,14.8066,2271.9036],[-91.2519,14.8118,2381.1213],[-91.2594,14.8215,2546.3516],[-91.2641,14.8221,2595.0396],[-91.2754,14.8137,2482.4004],[-91.2973,14.807,2779.2708],[-91.3002,14.8041,2693.2856],[-91.3011,14.8003,2559.4875],[-91.2914,14.7801,2489.8057],[-91.2917,14.7767,2503.74],[-91.2927,14.774,2512.9397],[-91.3024,14.7697,2486.5679]]]]}}