{"type": "Feature","bbox": [-91.1527,14.7602,-91.1028,14.8075],"geometry": {"type": "MultiPolygon","coordinates": [[[[-91.1143,14.7674,2206.9651],[-91.1074,14.7723,2251.8369],[-91.1053,14.7979,2365.084],[-91.1028,14.8043,2573.3289],[-91.1205,14.8037,2361.6865],[-91.1252,14.8075,2282.1177],[-91.1288,14.8067,2190.519],[-91.1392,14.8005,2226.2415],[-91.142,14.7947,1932.0564],[-91.1509,14.791,2205.0127],[-91.1527,14.775,2300.1589],[-91.1479,14.775,2177.8223],[-91.1423,14.7714,1911.0886],[-91.1421,14.7674,1840.2651],[-91.1382,14.7624,1694.8962],[-91.1321,14.7602,1838.913],[-91.1289,14.765,1947.592],[-91.1254,14.7666,2010.079],[-91.1143,14.7674,2206.9651]]]]}
,"properties": {"GID_2": "GTM.19.1_1","GID_0": "GTM","country": "Guatemala","GID_1": "GTM.19_1","province": "Sololá","NL_NAME_1": "NA","county": "Concepción","VARNAME_2": "NA","NL_NAME_2": "NA","TYPE_2": "Municipio","ENGTYPE_2": "Municipality","CC_2": "NA","HASC_2": "NA","name": "Concepción.county","area_km2": 18.5117,"hist_schema_id": "Elevation0-9000","hist_area_km2": {"1675": 0.041,"1700": 0.20502,"1725": 0.30753,"1750": 0.26652,"1775": 0.26652,"1800": 0.41002,"1825": 0.28702,"1850": 0.38953,"1875": 0.47153,"1900": 0.63552,"1925": 0.38951,"1950": 0.82003,"1975": 0.75853,"2000": 1.02503,"2025": 0.92253,"2050": 0.92252,"2075": 0.73801,"2100": 0.63551,"2125": 0.902,"2150": 0.656,"2175": 0.67651,"2200": 0.738,"2225": 0.7585,"2250": 0.4305,"2275": 0.94299,"2300": 0.71749,"2325": 0.92247,"2350": 1.08645,"2375": 0.30748,"2400": 0.20499,"2425": 0.14349,"2450": 0.10249,"2475": 0.16399,"2500": 0.0615,"2525": 0.08199,"2550": 0.08199,"2575": 0.041}}}