{"type": "Feature","bbox": [-90.6754,14.563,-90.6029,14.6314],"geometry": {"type": "MultiPolygon","coordinates": [[[[-90.6362,14.6314,2120.9612],[-90.6465,14.6224,2164.5771],[-90.6524,14.6264,2137.9709],[-90.6556,14.6245,2109.1279],[-90.6567,14.6189,2105.4229],[-90.6754,14.6213,2003.6162],[-90.675299999999993,14.6132,2055.0447],[-90.6713,14.6111,2071.8911],[-90.6699,14.6084,2075.3499],[-90.6697,14.596,2079.2959],[-90.6674,14.5899,2131.5271],[-90.6584,14.5826,2026.9847],[-90.6424,14.5786,1873.3716],[-90.6399,14.5698,1848.1384],[-90.6367,14.5652,1861.9211],[-90.6319,14.563,1752.2991],[-90.6221,14.5795,1753.8357],[-90.6225,14.5882,1914.3229],[-90.6172,14.5862,1702.6567],[-90.6099,14.5872,1643.2131],[-90.6051,14.5854,1562.1399],[-90.6029,14.5903,1533.4583],[-90.6117,14.5984,1652.0682],[-90.62,14.6016,1830.4543],[-90.6286,14.6021,1970.5769],[-90.6308,14.6125,2161.489],[-90.6304,14.6217,2202.4712],[-90.6277,14.6247,2039.3521],[-90.6291,14.6283,2089.291],[-90.6342,14.6282,2130.7476],[-90.6362,14.6314,2120.9612]]]]}
,"properties": {"GID_2": "GTM.16.9_1","GID_0": "GTM","country": "Guatemala","GID_1": "GTM.16_1","province": "Sacatepéquez","NL_NAME_1": "NA","county": "SanLucasSacatepéquez","VARNAME_2": "NA","NL_NAME_2": "NA","TYPE_2": "Municipio","ENGTYPE_2": "Municipality","CC_2": "NA","HASC_2": "NA","name": "San_Lucas_Sacatepéquez.county","area_km2": 27.69884,"hist_schema_id": "Elevation0-9000","hist_area_km2": {"1525": 0.04104,"1550": 0.02052,"1575": 0.12311,"1600": 0.18467,"1625": 0.2257,"1650": 0.18466,"1675": 0.26674,"1700": 0.20518,"1725": 0.3283,"1750": 0.38985,"1775": 0.26675,"1800": 0.47193,"1825": 0.59506,"1850": 1.1491,"1875": 1.25168,"1900": 0.88233,"1925": 0.90283,"1950": 0.92333,"1975": 1.19007,"2000": 1.39524,"2025": 1.74402,"2050": 2.97506,"2075": 4.02133,"2100": 2.01066,"2125": 1.23099,"2150": 1.0258,"2175": 1.08735,"2200": 0.9027,"2225": 0.5129,"2250": 0.65651,"2275": 0.43084,"2300": 0.10258}}}