{"type":"Feature","properties":{"GID_2":"GTM.13.15_1","GID_0":"GTM","country":"Guatemala","GID_1":"GTM.13_1","province":"Quezaltenango","NL_NAME_1":"NA","county":"PalestinadeLosAltos","VARNAME_2":"NA","NL_NAME_2":"NA","TYPE_2":"Municipio","ENGTYPE_2":"Municipality","CC_2":"NA","HASC_2":"NA","name":"Palestinade_Los_Altos.county"},
"geometry":{"type": "MultiPolygon","coordinates": [[[[-91.6374,14.9466,3118.572],[-91.637,14.9499,3058.3984],[-91.6454,14.9552,2953.9419],[-91.6504,14.9638,2836.634],[-91.6546,14.9674,2879.1306],[-91.6772,14.9611,2733.468],[-91.6752,14.9537,2850.5063],[-91.6801,14.9466,2686.0591],[-91.6875,14.9429,2687.7288],[-91.6936,14.9353,2646.4084],[-91.7,14.933,2614.4109],[-91.7007,14.9309,2601.9797],[-91.7107,14.9252,2547.3306],[-91.7255,14.9221,2379.9958],[-91.7222,14.9143,2694.2466],[-91.7127,14.9033,2582.2808],[-91.7133,14.9011,2445.218],[-91.7204,14.8967,2300.2085],[-91.706,14.8962,2575.5725],[-91.6932,14.902,2744.5359],[-91.6785,14.8992,2875.2856],[-91.6503,14.9183,2675.5095],[-91.645,14.9189,2792.4011],[-91.6385,14.9276,2681.8088],[-91.6395,14.9394,3063.8792],[-91.6374,14.9466,3118.572]]]]}}