{"type": "Feature","bbox": [-89.7969,14.0333,-89.718,14.1283],"geometry": {"type": "MultiPolygon","coordinates": [[[[-89.7377,14.0338,616.5134],[-89.7384,14.0373,589.5557],[-89.7326,14.0361,628.589],[-89.7314,14.0421,620.3523],[-89.7377,14.0456,666.0079],[-89.7399,14.0537,676.4595],[-89.7372,14.0601,709.7225],[-89.7417,14.0658,664.5601],[-89.731,14.0876,699.1661],[-89.7287,14.0983,832.4723],[-89.718,14.1253,1336.9249],[-89.7331,14.1244,1220.6195],[-89.7382,14.1209,1191.3818],[-89.7411,14.1243,1084.4083],[-89.7522,14.1283,945.5972],[-89.7517,14.1264,929.8394],[-89.7635,14.1203,880.5443],[-89.7734,14.1249,929.214],[-89.7768,14.1172,877.8499],[-89.786,14.1049,1008.1516],[-89.772,14.0861,716.5001],[-89.7766,14.0745,985.5828],[-89.7851,14.0684,900.2412],[-89.7911,14.0675,869.4642],[-89.7969,14.0555,533.7592],[-89.7857,14.0482,577.6338],[-89.7829,14.0399,569.0373],[-89.7791,14.0401,571.5705],[-89.7756,14.0354,527.8704],[-89.7584,14.0354,533.7075],[-89.7511,14.0333,602.2657],[-89.7377,14.0338,616.5134]]]]}
,"properties": {"GID_2": "GTM.11.9_1","GID_0": "GTM","country": "Guatemala","GID_1": "GTM.11_1","province": "Jutiapa","NL_NAME_1": "NA","county": "Jerez","VARNAME_2": "NA","NL_NAME_2": "NA","TYPE_2": "Municipio","ENGTYPE_2": "Municipality","CC_2": "NA","HASC_2": "NA","name": "Jerez.county","area_km2": 53.46945,"hist_schema_id": "Elevation0-9000","hist_area_km2": {"525": 0.10284,"550": 0.82275,"575": 1.27526,"600": 1.68661,"625": 2.24196,"650": 3.76375,"675": 5.0182,"700": 5.5732,"725": 3.80459,"750": 2.509,"775": 2.7351,"800": 3.20805,"825": 2.85842,"850": 2.05638,"875": 1.80964,"900": 1.83018,"925": 1.66567,"950": 1.54227,"975": 1.62457,"1000": 1.604,"1025": 0.90484,"1050": 0.67863,"1075": 0.39072,"1100": 0.24675,"1125": 0.12337,"1150": 0.28787,"1175": 0.10281,"1200": 0.22618,"1225": 0.08225,"1250": 0.10281,"1275": 0.12337,"1300": 0.1645,"1325": 0.12337,"1350": 0.16449,"1375": 0.18506,"1400": 0.22618,"1425": 0.14393,"1450": 0.08225,"1475": 0.16449,"1500": 0.12337,"1525": 0.20562,"1550": 0.10281,"1575": 0.12337,"1600": 0.06169,"1625": 0.06168,"1650": 0.06169,"1675": 0.16449,"1700": 0.08225,"1725": 0.14393,"1750": 0.06169,"1775": 0.02056}}}