{"type":"Feature","properties":{"GID_2":"GTM.1.8_1","GID_0":"GTM","country":"Guatemala","GID_1":"GTM.1_1","province":"AltaVerapaz","NL_NAME_1":"NA","county":"SanJuanChamelco","VARNAME_2":"NA","NL_NAME_2":"NA","TYPE_2":"Municipio","ENGTYPE_2":"Municipality","CC_2":"NA","HASC_2":"NA","name":"San_Juan_Chamelco.county"},
"geometry":{"type": "MultiPolygon","coordinates": [[[[-90.2832,15.3471,1926.224],[-90.2705,15.3431,2329.74],[-90.2623,15.3437,2319.9106],[-90.2458,15.3397,2181.6025],[-90.218,15.3216,1523.021],[-90.2046,15.325,1907.9395],[-90.1999,15.3296,1981.7484],[-90.193,15.3292,2003.2639],[-90.1881,15.3335,2092.3132],[-90.1859,15.3337,1995.5887],[-90.1847,15.33,1850.7419],[-90.1767,15.3323,1461.4763],[-90.1771,15.342,1893.8934],[-90.1743,15.3449,1939.0143],[-90.1532,15.3419,1945.6511],[-90.1463,15.3449,1582.2844],[-90.1426,15.3438,1541.8168],[-90.1294,15.3534,1055.9043],[-90.1274,15.36,1170.2949],[-90.1241,15.3634,1058.8232],[-90.1098,15.3642,1410.8243],[-90.1057,15.3613,1775.8312],[-90.0982,15.366,2066.6936],[-90.0936,15.3784,1919.4927],[-90.1066,15.3878,2190.3911],[-90.1406,15.3946,2010.7114],[-90.1513,15.394,2147.5549],[-90.1578,15.3971,2148.6536],[-90.1638,15.4066,1859.7141],[-90.17,15.4077,1834.8103],[-90.1805,15.4033,1927.03],[-90.185,15.4066,1893.2048],[-90.1944,15.42,1894.8772],[-90.2019,15.4245,1648.4418],[-90.201,15.4266,1599.6302],[-90.197,15.4257,1652.9017],[-90.1963,15.4281,1654.5967],[-90.205,15.4313,1578.7227],[-90.2234,15.4313,1519.0789],[-90.2428,15.435,1450.4702],[-90.2598,15.4419,1552.5604],[-90.2672,15.4429,1455.6669],[-90.2722,15.4408,1539.7549],[-90.2731,15.4371,1617.8579],[-90.2779,15.4382,1533.1095],[-90.2886,15.4367,1428.9783],[-90.2966,15.4378,1423.405],[-90.3016,15.4418,1435.9296],[-90.3044,15.4418,1409.288],[-90.3101,15.4383,1474.0685],[-90.327,15.4443,1423.2048],[-90.3353,15.436,1388.5956],[-90.3475,15.4371,1427.6151],[-90.3583,15.432,1411.2358],[-90.3598,15.4336,1431.0116],[-90.3813,15.4301,1462.5991],[-90.3832,15.4191,1452.762],[-90.3818,15.416,1420.8361],[-90.3686,15.4165,1398.0066],[-90.3645,15.4136,1402.7668],[-90.3665,15.3938,1406.1807],[-90.3593,15.3862,1422.1152],[-90.3534,15.3715,1444.8409],[-90.3405,15.3687,1729.7207],[-90.3161,15.368,1882.4116],[-90.3093,15.3691,1839.6949],[-90.3031,15.3723,1837.1887],[-90.2844,15.3599,2122.6956],[-90.2818,15.3555,1959.4572],[-90.2832,15.3471,1926.224]]]]}}