{"type": "Feature","bbox": [-91.4751,14.4962,-91.4216,14.561],"geometry": {"type": "MultiPolygon","coordinates": [[[[-91.4683,14.5193,332.8099],[-91.4649,14.5174,321.84],[-91.458,14.5183,336.5348],[-91.4534,14.5156,324.2246],[-91.4467,14.508,304.2365],[-91.44,14.5077,307.7833],[-91.4216,14.4962,266.7572],[-91.4294,14.5163,326.053],[-91.4311,14.5264,358.5451],[-91.4424,14.5472,453.0111],[-91.4433,14.561,516.7444],[-91.4721,14.5562,494.3056],[-91.4751,14.5333,370.9771],[-91.4744,14.5298,367.0816],[-91.4689,14.5238,338.2736],[-91.4683,14.5193,332.8099]]]]}
,"properties": {"GID_2": "GTM.20.9_1","GID_0": "GTM","country": "Guatemala","GID_1": "GTM.20_1","province": "Suchitepéquez","NL_NAME_1": "NA","county": "SanBernardino","VARNAME_2": "NA","NL_NAME_2": "NA","TYPE_2": "Municipio","ENGTYPE_2": "Municipality","CC_2": "NA","HASC_2": "NA","name": "San_Bernardino.county","area_km2": 20.93435,"hist_schema_id": "Elevation0-9000","hist_area_km2": {"275": 0.18474,"300": 1.41631,"325": 2.85304,"350": 3.65339,"375": 3.26332,"400": 2.85276,"425": 2.13438,"450": 1.90858,"475": 1.86749,"500": 0.77982,"525": 0.02052}}}