{"type":"Feature","properties":{"GID_2":"GTM.17.8_1","GID_0":"GTM","country":"Guatemala","GID_1":"GTM.17_1","province":"SanMarcos","NL_NAME_1":"NA","county":"EsquipulasPaloGordo","VARNAME_2":"NA","NL_NAME_2":"NA","TYPE_2":"Municipio","ENGTYPE_2":"Municipality","CC_2":"NA","HASC_2":"NA","name":"Esquipulas_Palo_Gordo.county"},
"geometry":{"type": "MultiPolygon","coordinates": [[[[-91.8285,14.891,2310.2917],[-91.8127,14.9091,3054.8582],[-91.8026,14.9255,2408.1973],[-91.8012,14.9292,2350.8179],[-91.802,14.9324,2309.2405],[-91.8057,14.9369,2303.2595],[-91.8272,14.9516,2454.7749],[-91.838,14.9526,2636.4338],[-91.851,14.9527,2575.6213],[-91.875,14.9393,1782.0273],[-91.874,14.9131,1552.093],[-91.8856,14.8965,1495.4066],[-91.8799,14.8867,1631.9556],[-91.8685,14.8818,1831.5104],[-91.8637,14.882,1854.7358],[-91.8574,14.8833,1915.5123],[-91.8407,14.8918,2055.1785],[-91.8336,14.8931,2198.2605],[-91.8285,14.891,2310.2917]]]]}}