{"type":"Feature","properties":{"ISO3166-1-Alpha-3":"GTM","country":"Guatemala","fill":"#F0F","id":"1946","name":"Retalhuleu"},
"geometry":{"type": "Polygon","coordinates": [[[-91.666,14.662,796.0847],[-91.67386,14.66241,579.2747],[-91.67967,14.66412,754.3208],[-91.6921,14.66634,795.1656],[-91.69708,14.66882,778.8104],[-91.69975,14.67161,745.5759],[-91.69693,14.68913,945.2362],[-91.68262,14.72215,1334.0276],[-91.68109,14.7344,1418.6426],[-91.68223,14.73657,1435.6899],[-91.68393,14.739,1472.7284],[-91.68662,14.73993,1462.3965],[-91.69006,14.74013,1313.778],[-91.69432,14.73951,1386.1992],[-91.69732,14.73833,1374.7213],[-91.70006,14.73688,1301.1189],[-91.70429,14.73414,1246.7039],[-91.71171,14.72794,1274.7458],[-91.72525,14.71347,1042.6615],[-91.76103,14.69652,950.6313],[-91.76773,14.68624,856.2893],[-91.77641,14.6588,695.9769],[-91.7809,14.64918,654.9525],[-91.79884,14.62314,453.2865],[-91.80325,14.61404,395.3745],[-91.80672,14.60495,339.0386],[-91.81023,14.59058,274.8161],[-91.81256,14.58407,269.2027],[-91.81478,14.57994,244.1707],[-91.8246,14.56883,200.6162],[-91.85578,14.52345,63.9257],[-91.89746,14.51431,47.0957],[-91.92666,14.51172,53.1175],[-91.93795,14.51348,29.528],[-91.99673,14.53798,28.2917],[-92.00094,14.53911,28.4969],[-92.00335,14.53865,26.6803],[-92.00854,14.53643,27.2036],[-92.01663,14.53095,24.984],[-92.04649,14.52371,8.6176],[-92.05518,14.51979,7.7824],[-92.06634,14.5078,5.1333],[-92.07027,14.50511,5.9787],[-92.07396,14.50356,5.3256],[-92.07678,14.5032,4.2232],[-92.07988,14.50335,4.0861],[-92.08272,14.50377,3.6536],[-92.08797,14.50563,2.1149],[-92.09745,14.50754,1.7703],[-92.10747,14.50821,4.6123],[-92.11236,14.50723,3.9903],[-92.11574,14.50594,2.4853],[-92.12468,14.49798,6.8852],[-92.13354,14.49183,13.0818],[-92.13853,14.48966,25.6664],[-92.14352,14.4893,16.2697],[-92.15398,14.49178,13.9563],[-92.15799,14.49105,18.8587],[-92.1607,14.49012,11.1717],[-92.16233,14.48744,6.2019],[-92.16239,14.48733,6.2019],[-92.04959,14.40803,7.073],[-91.90819,14.28384,0.0],[-91.76256,14.18017,0.0],[-91.6585,14.11735,4.8],[-91.65926,14.12549,9.2244],[-91.66523,14.16539,11.732],[-91.6367,14.20663,14.1345],[-91.63559,14.20885,17.5447],[-91.63443,14.21515,23.883],[-91.63236,14.24802,37.4074],[-91.62776,14.27779,45.2859],[-91.61531,14.31468,56.9632],[-91.60394,14.33112,56.886],[-91.60309,14.33571,58.5553],[-91.60259,14.34223,72.5962],[-91.60327,14.35551,76.2621],[-91.59869,14.42057,125.1792],[-91.59929,14.42801,129.4993],[-91.61192,14.44992,154.4011],[-91.61391,14.45493,161.6258],[-91.61541,14.46015,167.4495],[-91.61624,14.46615,173.027],[-91.60828,14.52475,275.7102],[-91.60867,14.52764,276.0018],[-91.6088,14.5309,290.7281],[-91.60836,14.53715,305.8275],[-91.56888,14.61559,684.9299],[-91.56942,14.62541,721.2079],[-91.57022,14.63818,787.627],[-91.56965,14.64939,735.1892],[-91.56898,14.65223,778.3612],[-91.5659,14.65833,872.1606],[-91.56324,14.66231,866.8044],[-91.54058,14.68711,1169.2891],[-91.51051,14.71295,1976.4067],[-91.52627,14.71946,1592.2896],[-91.53836,14.72045,1786.5984],[-91.54451,14.71859,1824.2461],[-91.56495,14.7052,1349.9553],[-91.57089,14.70236,1217.175],[-91.5757,14.70086,1172.6447],[-91.57898,14.70096,1093.8397],[-91.58446,14.70226,1151.4512],[-91.59048,14.70437,1067.7922],[-91.60091,14.70701,1074.9645],[-91.60464,14.7067,1033.3182],[-91.60735,14.70561,1023.5162],[-91.61076,14.7021,1038.8169],[-91.61647,14.69352,974.9629],[-91.61753,14.69135,963.7964],[-91.62249,14.68448,947.6643],[-91.63001,14.67647,864.7045],[-91.63355,14.67523,759.8031],[-91.63629,14.67523,761.6877],[-91.64246,14.67864,892.594],[-91.64828,14.68029,1005.5129],[-91.65158,14.67885,1023.1879],[-91.6537,14.67735,1072.3757],[-91.65662,14.67068,901.0412],[-91.666,14.662,796.0847]]]}}