{"type": "Feature","bbox": [-92.1643,14.1257,-91.5174,14.7157],"geometry": {"type": "MultiPolygon","coordinates": [[[[-91.8288,14.2279,2.5455],[-91.8104,14.2118,2.1742],[-91.8071,14.2143,2.2098],[-91.8076,14.2079,2.9755],[-91.8032,14.2046,1.1854],[-91.8026,14.2018,0.0],[-91.8004,14.2018,3.4012],[-91.7946,14.1962,0.0],[-91.786,14.1912,1.4862],[-91.7779,14.1951,5.0215],[-91.7787,14.1924,4.2029],[-91.784,14.1904,3.268],[-91.7832,14.189,3.268],[-91.7482,14.1732,0.0],[-91.7446,14.1743,0.4808],[-91.7438,14.171,2.0822],[-91.7407,14.1687,1.6008],[-91.7379,14.1693,4.3716],[-91.7363,14.1682,4.5894],[-91.7368,14.1662,2.0859],[-91.7312,14.1629,0.0],[-91.7299,14.1629,2.6245],[-91.7304,14.1649,3.0],[-91.7285,14.1646,7.2739],[-91.729,14.1621,3.7793],[-91.724,14.1593,1.5056],[-91.7226,14.1613,5.0173],[-91.7179,14.1596,2.3893],[-91.7174,14.1585,2.8959],[-91.7199,14.1587,1.6996],[-91.7204,14.1571,1.6996],[-91.7018,14.1451,1.7463],[-91.699,14.1454,4.0461],[-91.6979,14.1429,2.8202],[-91.6926,14.1418,4.087],[-91.6918,14.1388,4.193],[-91.6746,14.1279,2.6189],[-91.6707,14.1288,11.2391],[-91.6663,14.1257,4.5519],[-91.6642,14.1276,8.1307],[-91.6638,14.1321,3.4624],[-91.6678,14.1353,6.65],[-91.6674,14.1382,4.122],[-91.6577,14.1497,6.4391],[-91.658,14.1528,7.695],[-91.6545,14.1561,4.0747],[-91.6558,14.1591,3.5955],[-91.6529,14.1619,7.213],[-91.6498,14.1694,6.7682],[-91.6465,14.1693,8.1599],[-91.6441,14.1736,9.3435],[-91.648,14.1747,8.3675],[-91.645,14.1786,11.3431],[-91.6474,14.1796,16.5702],[-91.6467,14.1815,11.1126],[-91.6435,14.1829,9.3042],[-91.6442,14.1917,8.7711],[-91.6392,14.1947,10.468],[-91.636,14.1945,12.8966],[-91.6359,14.1978,10.5973],[-91.628,14.2042,10.8663],[-91.6235,14.2165,12.9605],[-91.6234,14.2205,15.0496],[-91.6251,14.2214,13.1124],[-91.6229,14.2343,16.5805],[-91.6252,14.2382,16.8767],[-91.6235,14.2431,18.0405],[-91.6269,14.2439,28.7982],[-91.6257,14.2559,25.2261],[-91.6273,14.2607,39.5705],[-91.6256,14.2626,19.9527],[-91.625,14.2688,28.9439],[-91.6231,14.2707,22.2453],[-91.6239,14.2737,23.081],[-91.6205,14.2731,22.0889],[-91.6222,14.2757,33.2357],[-91.6199,14.2791,22.7451],[-91.6215,14.2813,33.851],[-91.6205,14.2843,33.851],[-91.6159,14.2862,25.0615],[-91.6172,14.2903,33.1103],[-91.6161,14.2912,45.2182],[-91.6138,14.2893,33.2709],[-91.6118,14.2989,57.1663],[-91.6089,14.2998,33.4805],[-91.6087,14.3022,42.7146],[-91.6124,14.3056,58.3629],[-91.6088,14.3094,39.6988],[-91.6088,14.3121,45.2628],[-91.6064,14.313,37.1399],[-91.6063,14.3166,61.6616],[-91.6026,14.3169,43.7745],[-91.5964,14.3225,43.379],[-91.5991,14.3269,53.2903],[-91.5966,14.3292,41.4092],[-91.5971,14.3321,45.9235],[-91.5946,14.3373,69.7206],[-91.5913,14.3376,42.5061],[-91.5904,14.3394,46.6353],[-91.5937,14.341,46.0872],[-91.5964,14.3404,58.3721],[-91.6005,14.3431,69.415],[-91.6005,14.3472,62.3467],[-91.5979,14.3496,59.6652],[-91.6015,14.3547,76.8364],[-91.601,14.3572,78.7338],[-91.5983,14.3595,57.1776],[-91.5995,14.3611,83.741],[-91.5934,14.3767,79.257],[-91.5977,14.3872,91.0807],[-91.5901,14.3963,99.3568],[-91.5916,14.3977,100.0009],[-91.5911,14.4004,91.9975],[-91.5875,14.4035,96.5666],[-91.5852,14.4184,123.5215],[-91.5873,14.426,132.0344],[-91.5854,14.428,134.5317],[-91.582,14.4519,159.4229],[-91.584,14.4584,165.2919],[-91.5838,14.4777,198.7405],[-91.5818,14.4858,213.6372],[-91.5841,14.4882,218.8768],[-91.5854,14.5152,269.7838],[-91.591,14.5368,322.569],[-91.581,14.5573,390.6927],[-91.5801,14.5676,434.4911],[-91.573,14.5818,498.9909],[-91.5721,14.5971,577.5318],[-91.5706,14.6041,613.0089],[-91.566,14.6105,667.8101],[-91.563,14.6302,774.4124],[-91.5464,14.6556,986.7996],[-91.5414,14.6568,1017.4542],[-91.52,14.6714,1266.28],[-91.5174,14.6755,1356.8917],[-91.5225,14.6824,1207.8427],[-91.5235,14.681,1185.167],[-91.5305,14.6799,1123.0015],[-91.5338,14.6866,1126.9672],[-91.5334,14.6885,1131.551],[-91.5409,14.6778,1015.6095],[-91.5525,14.6698,915.8367],[-91.5715,14.6501,728.1484],[-91.5802,14.6516,719.5769],[-91.5871,14.6492,666.527],[-91.591,14.6458,654.5542],[-91.5916,14.6364,633.7714],[-91.5955,14.6324,609.8345],[-91.6086,14.626,558.6548],[-91.6101,14.6268,557.9308],[-91.6121,14.6336,577.3905],[-91.6091,14.6449,640.4276],[-91.6101,14.6489,674.2084],[-91.608,14.6534,698.6031],[-91.6256,14.6543,703.6076],[-91.6293,14.6421,632.5206],[-91.6376,14.6349,567.6293],[-91.639,14.6231,501.0287],[-91.6502,14.6117,418.2068],[-91.657,14.6083,416.519],[-91.6557,14.6168,449.8864],[-91.6597,14.6173,463.2095],[-91.6656,14.633,556.8575],[-91.6655,14.6496,653.5635],[-91.6693,14.6512,659.0649],[-91.6735,14.6469,646.0391],[-91.6772,14.6397,581.2042],[-91.6824,14.6405,516.4022],[-91.6809,14.646,566.1512],[-91.6811,14.6573,598.5314],[-91.6745,14.6664,735.9877],[-91.6727,14.6813,904.7448],[-91.6681,14.6881,889.082],[-91.6704,14.6931,997.6173],[-91.6678,14.6986,993.7111],[-91.6678,14.7057,1146.5771],[-91.6655,14.7129,1251.9226],[-91.6694,14.7157,1121.4351],[-91.6716,14.7153,1216.2101],[-91.6722,14.7107,1157.4092],[-91.682,14.7097,953.5929],[-91.7043,14.69,807.3997],[-91.7129,14.6686,635.6311],[-91.7161,14.6647,649.8777],[-91.7141,14.6563,652.6801],[-91.7339,14.668,701.2153],[-91.7325,14.6707,740.5045],[-91.7347,14.6727,694.3544],[-91.7421,14.6568,629.2106],[-91.7475,14.6479,530.4933],[-91.7505,14.6459,573.5441],[-91.755,14.6322,522.9265],[-91.7561,14.6114,436.1565],[-91.7541,14.6087,433.9544],[-91.7541,14.604799999999999,425.5276],[-91.7571,14.5901,350.5188],[-91.7807,14.5948,359.6196],[-91.7851,14.5882,329.6875],[-91.7878,14.5769,263.5551],[-91.7825,14.5652,198.5149],[-91.7854,14.553,166.4145],[-91.789,14.5403,135.4829],[-91.7928,14.534,103.7695],[-91.7958,14.5333,101.7334],[-91.7979,14.5249,111.0823],[-91.801,14.5206,101.2617],[-91.8008,14.514099999999999,87.6669],[-91.8026,14.5116,90.9631],[-91.8015,14.5059,87.3432],[-91.8055,14.5026,93.0474],[-91.8091,14.4961,78.741],[-91.8139,14.4973,82.0136],[-91.8164,14.4959,66.7403],[-91.8212,14.498,69.0877],[-91.8261,14.4943,66.68],[-91.833,14.4949,56.9968],[-91.8381,14.4991,71.4406],[-91.8513,14.5012,56.4784],[-91.8564,14.5056,57.3162],[-91.8718,14.5112,48.6379],[-91.874,14.5152,46.5139],[-91.8781,14.5153,51.666],[-91.8862,14.5088,46.162],[-91.8892,14.5117,49.3649],[-91.9118,14.5107,35.9407],[-91.9178,14.5176,34.8515],[-91.9289,14.5196,28.1564],[-91.9372,14.5246,34.9998],[-91.9433,14.5246,34.7931],[-91.9475,14.5213,28.1014],[-91.9687,14.5346,24.7018],[-91.9711,14.5339,20.5406],[-91.972,14.5368,26.7661],[-91.9755,14.5387,24.4893],[-91.9968,14.5381,28.2917],[-92.007,14.5458,24.3832],[-92.0253,14.5505,15.2369],[-92.036,14.5594,13.391],[-92.050299999999993,14.5653,12.4217],[-92.0587,14.5605,17.5739],[-92.0608,14.5573,9.3304],[-92.08,14.5481,8.7582],[-92.0817,14.5409,7.592],[-92.1052,14.5304,5.5234],[-92.1044,14.5267,5.4388],[-92.109,14.5228,5.5103],[-92.1088,14.5161,3.6016],[-92.1151,14.5096,2.3521],[-92.1146,14.5044,3.2972],[-92.1179,14.5033,6.8799],[-92.1197,14.5066,5.0853],[-92.1232,14.5046,2.1757],[-92.1246,14.508,6.6895],[-92.133,14.5102,12.0826],[-92.1344,14.508,4.6514],[-92.1393,14.507,10.9274],[-92.1425,14.5036,3.903],[-92.1437,14.5009,17.782],[-92.1428,14.4937,12.9431],[-92.1525,14.4903,16.7048],[-92.159,14.4911,18.8587],[-92.1643,14.4863,0.6843],[-92.1321,14.4654,4.8876],[-92.1049,14.4421,0.8119],[-92.0987,14.4388,0.7785],[-92.099,14.441,0.5],[-92.1038,14.4429,0.8119],[-92.1099,14.4507,8.3808],[-92.1079,14.451,1.4019],[-92.1021,14.4429,0.5],[-92.094,14.4421,4.4123],[-92.0935,14.4399,2.2939],[-92.0965,14.4401,2.4557],[-92.0965,14.439,2.4557],[-92.089,14.4346,3.7733],[-92.0843,14.4265,0.0],[-92.0485,14.4007,0.0],[-92.0449,14.4038,5.6068],[-92.0451,14.4013,2.0847],[-92.0351,14.3924,7.4664],[-92.0371,14.3926,0.0],[-92.0415,14.3971,2.3089],[-92.0432,14.3971,0.4839],[-92.0418,14.3954,2.978],[-92.0285,14.386,7.4282],[-92.0263,14.386,6.1096],[-92.0132,14.3754,4.6593],[-91.9996,14.3635,4.5973],[-91.9929,14.3554,0.0],[-91.9879,14.356,1.372],[-91.9849,14.3618,1.0],[-91.9857,14.3679,1.5],[-91.9826,14.3688,4.5698],[-91.9818,14.3707,4.5014],[-91.9749,14.3693,5.1803],[-91.9699,14.3713,5.4893],[-91.9674,14.3696,4.5428],[-91.9749,14.3668,6.4349],[-91.9821,14.3685,5.7849],[-91.9837,14.3663,4.5822],[-91.9832,14.3596,3.7384],[-91.9874,14.3554,0.0],[-91.9876,14.3515,0.9014],[-91.9765,14.3413,0.0],[-91.9729,14.3474,3.4561],[-91.9693,14.3488,5.9427],[-91.9685,14.351,8.4122],[-91.9626,14.3507,2.6641],[-91.9629,14.349,0.0],[-91.9668,14.3488,0.0],[-91.9715,14.3457,0.0],[-91.9724,14.3415,0.9193],[-91.9743,14.3401,0.7839],[-91.9601,14.3301,4.1515],[-91.9599,14.3274,0.9968],[-91.959,14.3301,1.5963],[-91.9551,14.3313,0.5],[-91.9521,14.3357,5.1536],[-91.9485,14.3363,1.5],[-91.9457,14.3388,4.3058],[-91.9463,14.3365,3.3944],[-91.9521,14.3337,1.0],[-91.9532,14.3296,3.7271],[-91.9574,14.3282,2.4492],[-91.9579,14.326,2.481],[-91.9546,14.3249,5.49],[-91.926,14.3007,0.0],[-91.9207,14.2993,1.0453],[-91.9187,14.2946,0.4827],[-91.901,14.2818,0.7364],[-91.8965,14.2812,2.3032],[-91.8965,14.279,3.4829],[-91.8846,14.2715,2.3882],[-91.8768,14.2638,2.7115],[-91.8704,14.2662,1.0],[-91.8724,14.2621,4.6248],[-91.8662,14.2587,3.759],[-91.8615,14.2535,0.6818],[-91.8587,14.2546,3.2486],[-91.8585,14.2582,1.0],[-91.8574,14.2526,1.0459],[-91.8538,14.2546,1.7961],[-91.8487,14.2546,1.9562],[-91.849,14.2529,2.0763],[-91.8524,14.2535,3.5468],[-91.8562,14.2499,3.3014],[-91.8512,14.2474,5.053],[-91.8288,14.2279,2.5455]]]]}
,"properties": {"GID_1": "GTM.15_1","GID_0": "GTM","country": "Guatemala","province": "Retalhuleu","VARNAME_1": "NA","NL_NAME_1": "NA","TYPE_1": "Departamento","ENGTYPE_1": "Department","CC_1": "NA","HASC_1": "GT.RE","ISO_1": "GT-11","name": "Retalhuleu.province","area_km2": 1928.379,"hist_schema_id": "Elevation0-9000","hist_area_km2": {"0": 365.197,"25": 498.326,"50": 263.122,"75": 162.36,"100": 107.985,"125": 77.484,"150": 52.164,"175": 44.996,"200": 39.491,"225": 33.557,"250": 27.317,"275": 24.114,"300": 20.87,"325": 19.679,"350": 17.236,"375": 15.41,"400": 14.035,"425": 13.09,"450": 12.105,"475": 11.264,"500": 10.299,"525": 9.848,"550": 10.073,"575": 8.986,"600": 7.713,"625": 7.118,"650": 6.729,"675": 6.749,"700": 5.231,"725": 4.164,"750": 2.544,"775": 2.605,"800": 2.379,"825": 2.502,"850": 1.969,"875": 2.01,"900": 1.99,"925": 1.784,"950": 1.805,"975": 1.559,"1000": 1.436,"1025": 1.395,"1050": 1.333,"1075": 1.046,"1100": 0.861,"1125": 0.759,"1150": 0.882,"1175": 0.8,"1200": 0.554,"1225": 0.554,"1250": 0.369,"1275": 0.185,"1300": 0.185,"1325": 0.062,"1350": 0.103}}}