{"type": "Feature","bbox": [-90.7256,14.6132,-90.6309,14.6684],"geometry": {"type": "MultiPolygon","coordinates": [[[[-90.6321,14.6588,2028.8512],[-90.6424,14.6636,2168.1526],[-90.666,14.6684,2188.8982],[-90.6749,14.6618,2194.5168],[-90.7043,14.6613,1878.7699],[-90.7256,14.6549,1868.9202],[-90.7195,14.6389,1985.6288],[-90.7085,14.6287,2167.4131],[-90.7086,14.6136,2458.1267],[-90.7018,14.6182,2306.4331],[-90.6948,14.6157,2206.0862],[-90.6858,14.6197,2082.1079],[-90.675299999999993,14.6132,2055.0447],[-90.6754,14.6213,2003.6162],[-90.6567,14.6189,2105.4229],[-90.6556,14.6245,2109.1279],[-90.6524,14.6264,2137.9709],[-90.6465,14.6224,2164.5771],[-90.6362,14.6314,2120.9612],[-90.6309,14.6539,2031.6191],[-90.6321,14.6588,2028.8512]]]]}
,"properties": {"GID_2": "GTM.16.14_1","GID_0": "GTM","country": "Guatemala","GID_1": "GTM.16_1","province": "Sacatepéquez","NL_NAME_1": "NA","county": "SantiagoSacatepéquez","VARNAME_2": "NA","NL_NAME_2": "NA","TYPE_2": "Municipio","ENGTYPE_2": "Municipality","CC_2": "NA","HASC_2": "NA","name": "Santiago_Sacatepéquez.county","area_km2": 42.36061,"hist_schema_id": "Elevation0-9000","hist_area_km2": {"1775": 0.02051,"1800": 0.12307,"1825": 0.28717,"1850": 0.8205,"1875": 1.33332,"1900": 1.84613,"1925": 2.2154,"1950": 2.35902,"1975": 2.72832,"2000": 2.89246,"2025": 2.89248,"2050": 2.85147,"2075": 3.11816,"2100": 2.74888,"2125": 2.44115,"2150": 3.30271,"2175": 5.64114,"2200": 2.74881,"2225": 1.12825,"2250": 0.30773,"2275": 0.16413,"2300": 0.18464,"2325": 0.10258,"2375": 0.02052,"2425": 0.02052,"2450": 0.02052,"2475": 0.02052,"2500": 0.02052}}}