{"type": "Feature","bbox": [-90.4081,14.6076,-90.2035,14.7709],"geometry": {"type": "MultiPolygon","coordinates": [[[[-90.3231,14.7449,907.5598],[-90.3396,14.7551,859.7277],[-90.3424,14.7554,877.3101],[-90.346,14.7673,775.2163],[-90.3537,14.7709,843.9253],[-90.3533,14.7643,853.6035],[-90.3553,14.7543,977.7946],[-90.3586,14.7529,994.1434],[-90.3613,14.7464,1064.7479],[-90.3658,14.744,1060.6185],[-90.3699,14.7354,1123.3917],[-90.3732,14.7339,1242.7251],[-90.3755,14.7383,1123.5115],[-90.3735,14.749,984.299],[-90.3763,14.7495,975.0281],[-90.3869,14.7419,1039.4216],[-90.39,14.7466,1138.791],[-90.4007,14.7505,1085.2289],[-90.4032,14.7551,1137.1158],[-90.4068,14.7478,1116.828],[-90.4081,14.7372,1213.3599],[-90.4012,14.7315,1131.6899],[-90.3987,14.7241,1095.3608],[-90.4011,14.7108,1155.3043],[-90.3955,14.7142,1150.1638],[-90.3896,14.7132,1145.8936],[-90.3841,14.7066,1113.9713],[-90.3838,14.6949,1151.2836],[-90.3861,14.6937,1135.3708],[-90.3873,14.6899,1140.4005],[-90.39,14.6889,1291.6975],[-90.389,14.6814,1125.3453],[-90.3939,14.6696,1263.1053],[-90.3903,14.6603,1304.8287],[-90.3937,14.6484,1315.629],[-90.3911,14.6413,1370.3563],[-90.3924,14.6358,1301.8833],[-90.394,14.635,1393.66],[-90.3982,14.6372,1338.1864],[-90.3997,14.6426,1305.8976],[-90.4025,14.6427,1379.4807],[-90.4013,14.6369,1362.6364],[-90.4029,14.6351,1336.9419],[-90.3998,14.6305,1416.127],[-90.4073,14.6134,1421.415],[-90.3904,14.6145,1454.9629],[-90.3596,14.6231,1813.0282],[-90.3583,14.6189,1824.1779],[-90.3412,14.61,2185.5496],[-90.3394,14.615,2317.4333],[-90.3183,14.6102,2178.9001],[-90.3185,14.6076,2195.6587],[-90.3098,14.6127,2106.4534],[-90.2769,14.6147,1923.7029],[-90.2677,14.6128,1745.3882],[-90.2627,14.6176,1858.439],[-90.2539,14.6186,1702.6859],[-90.2488,14.6216,1593.4836],[-90.2447,14.6213,1474.1646],[-90.2269,14.6343,1251.9189],[-90.222,14.6348,1173.6993],[-90.2181,14.6371,1328.9139],[-90.214,14.6484,1312.1174],[-90.2158,14.6621,1112.2362],[-90.2035,14.6758,1159.5952],[-90.2041,14.6821,1016.7236],[-90.221,14.6931,1272.0975],[-90.2384,14.7016,1534.0782],[-90.2606,14.7049,1575.7384],[-90.2879,14.713,1589.0869],[-90.2964,14.7233,1282.7719],[-90.3056,14.7236,1266.6753],[-90.3216,14.735,968.3282],[-90.3231,14.7449,907.5598]]]]}
,"properties": {"GID_2": "GTM.7.6_1","GID_0": "GTM","country": "Guatemala","GID_1": "GTM.7_1","province": "Guatemala","NL_NAME_1": "NA","county": "Palencia","VARNAME_2": "NA","NL_NAME_2": "NA","TYPE_2": "Municipio","ENGTYPE_2": "Municipality","CC_2": "NA","HASC_2": "NA","name": "Palencia.county","area_km2": 236.5077,"hist_schema_id": "Elevation0-9000","hist_area_km2": {"775": 0.1025,"800": 0.7176,"825": 0.6151,"850": 0.9842,"875": 1.2507,"900": 1.4763,"925": 2.4606,"950": 2.5016,"975": 3.0963,"1000": 3.8962,"1025": 3.9578,"1050": 4.9832,"1075": 6.5623,"1100": 7.5878,"1125": 7.5468,"1150": 6.501,"1175": 6.8293,"1200": 6.7269,"1225": 6.9321,"1250": 6.0094,"1275": 6.2967,"1300": 7.9992,"1325": 7.425,"1350": 6.4201,"1375": 5.7023,"1400": 5.5178,"1425": 6.0513,"1450": 4.7384,"1475": 4.4306,"1500": 4.6357,"1525": 4.2254,"1550": 4.5741,"1575": 5.1073,"1600": 4.9638,"1625": 4.7382,"1650": 4.1228,"1675": 3.9587,"1700": 3.528,"1725": 3.9178,"1750": 4.4716,"1775": 3.9382,"1800": 5.0254,"1825": 4.8819,"1850": 4.4102,"1875": 3.6923,"1900": 3.918,"1925": 3.3847,"1950": 3.1591,"1975": 2.954,"2000": 2.3181,"2025": 1.9079,"2050": 1.6002,"2075": 1.6822,"2100": 1.6412,"2125": 1.395,"2150": 1.0668,"2175": 0.9027,"2200": 1.2309,"2225": 1.0053,"2250": 0.5744,"2275": 0.6975,"2300": 0.4103,"2325": 0.2667,"2350": 0.4719,"2375": 0.3898,"2400": 0.0205}}}