{"type": "Feature","bbox": [-91.4389,14.2775,-91.2616,14.6435],"geometry": {"type": "MultiPolygon","coordinates": [[[[-91.3743,14.3718,78.6431],[-91.3782,14.3839,101.17],[-91.3761,14.3971,120.8108],[-91.367,14.4061,103.8473],[-91.3631,14.425,131.294],[-91.3525,14.4309,163.1296],[-91.3507,14.434,199.3302],[-91.3504,14.4387,237.9564],[-91.343,14.4493,243.271],[-91.3377,14.4676,263.8941],[-91.3351,14.4714,269.916],[-91.3,14.4966,453.2137],[-91.2947,14.5058,508.7796],[-91.2761,14.5127,629.8721],[-91.2631,14.5202,659.4896],[-91.2618,14.5232,652.1153],[-91.2616,14.5313,812.3001],[-91.266,14.5309,853.9084],[-91.2686,14.5326,765.5136],[-91.2715,14.5415,752.971],[-91.275,14.5436,788.3665],[-91.2822,14.5972,1874.6895],[-91.2854,14.6066,1553.8074],[-91.2998,14.6091,1656.062],[-91.303,14.6129,1827.2694],[-91.3129,14.6147,1944.5671],[-91.3117,14.6209,2280.7754],[-91.3057,14.6258,2572.96],[-91.3102,14.6313,2523.4915],[-91.321,14.6382,1679.5836],[-91.3285,14.6338,1524.3303],[-91.3306,14.6435,2208.1255],[-91.3558,14.6425,977.132],[-91.3614,14.638,999.2667],[-91.3666,14.6401,885.7188],[-91.3755,14.6347,803.0982],[-91.3905,14.6354,742.957],[-91.3949,14.6254,722.1824],[-91.3941,14.6162,689.0554],[-91.397,14.6109,669.1516],[-91.3967,14.6011,581.0015],[-91.402,14.5829,569.4524],[-91.3999,14.5737,525.0223],[-91.4013,14.5707,516.4841],[-91.3958,14.5655,488.2249],[-91.3973,14.5488,418.1997],[-91.3881,14.5389,392.6708],[-91.3862,14.5283,348.0791],[-91.3815,14.5254,334.4634],[-91.3786,14.5174,323.9487],[-91.3703,14.5347,399.6268],[-91.367,14.5385,412.756],[-91.3499,14.5395,493.9635],[-91.3492,14.5353,465.6733],[-91.3275,14.5316,417.9881],[-91.3312,14.5228,386.9382],[-91.3381,14.5156,353.0981],[-91.3407,14.5053,310.5223],[-91.3528,14.4832,247.2077],[-91.3617,14.4761,253.597],[-91.3696,14.4736,237.1461],[-91.3818,14.4656,239.398],[-91.3792,14.4538,172.8832],[-91.3819,14.4485,169.8206],[-91.3874,14.4447,170.1966],[-91.3888,14.4367,140.2081],[-91.4022,14.4268,187.6843],[-91.3998,14.4206,147.3745],[-91.4057,14.3946,98.5857],[-91.4037,14.3827,88.6388],[-91.4115,14.3669,76.3164],[-91.4138,14.3665,83.6267],[-91.4206,14.3564,78.6493],[-91.4205,14.3479,75.47],[-91.424,14.3373,60.863],[-91.4389,14.3181,56.4901],[-91.4317,14.3203,65.5131],[-91.4277,14.3195,77.2203],[-91.4314,14.2974,61.3878],[-91.4207,14.2775,55.3752],[-91.3945,14.2922,61.2238],[-91.4103,14.3211,67.8128],[-91.4093,14.3232,66.3278],[-91.4022,14.3259,70.4243],[-91.3946,14.3366,69.1924],[-91.3885,14.3362,71.7397],[-91.3846,14.3479,70.2001],[-91.3846,14.3553,76.4288],[-91.3832,14.3576,72.3586],[-91.3763,14.3596,79.5803],[-91.3758,14.3654,77.0414],[-91.3739,14.3677,80.1048],[-91.3743,14.3718,78.6431]]]]}
,"properties": {"GID_2": "GTM.20.1_1","GID_0": "GTM","country": "Guatemala","GID_1": "GTM.20_1","province": "Suchitepéquez","NL_NAME_1": "NA","county": "Chicacao","VARNAME_2": "NA","NL_NAME_2": "NA","TYPE_2": "Municipio","ENGTYPE_2": "Municipality","CC_2": "NA","HASC_2": "NA","name": "Chicacao.county","area_km2": 251.4213,"hist_schema_id": "Elevation0-9000","hist_area_km2": {"50": 8.7933,"75": 20.9115,"100": 14.0273,"125": 10.822,"150": 5.4825,"175": 3.5521,"200": 4.0653,"225": 2.7511,"250": 2.9358,"275": 5.1323,"300": 4.8448,"325": 3.8797,"350": 4.2489,"375": 3.7151,"400": 4.6181,"425": 5.521,"450": 6.0955,"475": 6.9163,"500": 7.2035,"525": 7.2649,"550": 7.4494,"575": 6.8951,"600": 6.2796,"625": 6.0128,"650": 6.0331,"675": 5.2738,"700": 5.4789,"725": 5.7865,"750": 4.8835,"775": 4.4526,"800": 3.9806,"825": 3.5702,"850": 2.9341,"875": 2.7084,"900": 2.7494,"925": 2.1954,"950": 2.3801,"975": 1.8671,"1000": 2.0312,"1025": 2.2159,"1050": 1.9491,"1075": 2.0928,"1100": 1.6824,"1125": 1.8671,"1150": 1.3541,"1175": 1.2721,"1200": 1.2105,"1225": 1.1079,"1250": 1.0258,"1275": 0.9848,"1300": 1.19,"1325": 0.6565,"1350": 1.0053,"1375": 0.9437,"1400": 0.8822,"1425": 0.7181,"1450": 0.677,"1475": 0.8206,"1500": 0.5539,"1525": 0.8617,"1550": 0.8412,"1575": 0.5129,"1600": 0.5539,"1625": 0.6565,"1650": 0.636,"1675": 0.3077,"1700": 0.6565,"1725": 0.595,"1750": 0.3282,"1775": 0.4308,"1800": 0.3898,"1825": 0.3077,"1850": 0.4308,"1875": 0.4103,"1900": 0.3488,"1925": 0.2462,"1950": 0.1641,"1975": 0.1436,"2000": 0.2872,"2025": 0.2462,"2050": 0.2257,"2075": 0.1846,"2100": 0.2462,"2125": 0.0821,"2150": 0.2257,"2175": 0.0821,"2200": 0.0821,"2225": 0.1846,"2250": 0.0821,"2275": 0.1026,"2300": 0.0615,"2325": 0.0821,"2350": 0.1231,"2375": 0.0205,"2400": 0.1026,"2425": 0.0205,"2450": 0.0205,"2475": 0.0615,"2500": 0.0205,"2525": 0.0615,"2550": 0.041}}}