{"type": "Feature","bbox": [-91.2648,14.2827,-91.0943,14.561],"geometry": {"type": "MultiPolygon","coordinates": [[[[-91.1187,14.5153,708.13],[-91.1241,14.5175,691.2962],[-91.1248,14.5231,729.2709],[-91.1283,14.5254,750.3679],[-91.1294,14.5345,828.533],[-91.1355,14.5454,991.7801],[-91.1436,14.5513,1096.4547],[-91.16,14.5582,1519.4214],[-91.1595,14.554,1480.1638],[-91.1764,14.5571,1973.9878],[-91.1789,14.561,2072.9202],[-91.1861,14.5312,1273.7646],[-91.1783,14.5016,756.6606],[-91.1817,14.4907,707.8921],[-91.1935,14.4723,614.5397],[-91.1885,14.4678,580.5068],[-91.1857,14.4624,746.8578],[-91.1816,14.4605,686.2733],[-91.1687,14.4585,535.438],[-91.1592,14.4603,528.3328],[-91.161,14.4561,507.9944],[-91.1597,14.4514,478.7048],[-91.1676,14.4376,341.4922],[-91.1645,14.4322,333.8431],[-91.1769,14.4231,289.6285],[-91.1984,14.4015,241.6329],[-91.2261,14.3673,175.6294],[-91.2431,14.3427,139.5557],[-91.2526,14.3341,125.0201],[-91.2568,14.3221,114.1185],[-91.2612,14.3222,109.3501],[-91.263,14.3189,105.5275],[-91.262,14.3124,102.7846],[-91.2648,14.3039,97.2497],[-91.1576,14.2851,116.9533],[-91.1536,14.2877,103.4698],[-91.1485,14.2827,117.3126],[-91.1463,14.2867,114.0437],[-91.1453,14.2945,124.095],[-91.1475,14.2983,149.6966],[-91.1455,14.3054,133.9366],[-91.1404,14.3108,172.1811],[-91.1425,14.3144,142.0369],[-91.1385,14.3146,151.2406],[-91.1379,14.3211,163.9867],[-91.1308,14.3213,169.3478],[-91.1275,14.3316,185.1374],[-91.1293,14.342,192.5206],[-91.1254,14.357,258.9691],[-91.1317,14.3622,231.0221],[-91.1319,14.3696,228.9707],[-91.1373,14.3746,267.7602],[-91.1213,14.3892,350.9797],[-91.1177,14.3982,412.7027],[-91.113,14.4043,381.01369999999997],[-91.1073,14.4099,436.7016],[-91.1007,14.4124,463.9526],[-91.0972,14.4179,473.1271],[-91.1002,14.4277,565.2757],[-91.096,14.4327,549.7168],[-91.0943,14.4435,534.0264],[-91.0958,14.4489,547.0874],[-91.1026,14.4489,546.1538],[-91.1068,14.4521,568.8685],[-91.1305,14.4572,422.1192],[-91.1259,14.4683,459.1281],[-91.1264,14.4733,480.5875],[-91.1232,14.4773,492.6015],[-91.123,14.4833,513.4612],[-91.1204,14.4899,541.4561],[-91.1244,14.4969,585.7014],[-91.1257,14.5106,628.0193],[-91.1187,14.5153,708.13]]]]}
,"properties": {"GID_2": "GTM.20.4_1","GID_0": "GTM","country": "Guatemala","GID_1": "GTM.20_1","province": "Suchitepéquez","NL_NAME_1": "NA","county": "Patulul","VARNAME_2": "NA","NL_NAME_2": "NA","TYPE_2": "Municipio","ENGTYPE_2": "Municipality","CC_2": "NA","HASC_2": "NA","name": "Patulul.county","area_km2": 251.73,"hist_schema_id": "Elevation0-9000","hist_area_km2": {"100": 8.3824,"125": 28.8028,"150": 22.1657,"175": 16.7207,"200": 14.6659,"225": 15.6513,"250": 11.2141,"275": 9.5911,"300": 7.5369,"325": 8.2759,"350": 7.7007,"375": 6.7353,"400": 5.5646,"425": 5.585,"450": 4.8457,"475": 4.4555,"500": 4.1063,"525": 5.2971,"550": 4.5784,"575": 4.373,"600": 3.2231,"625": 2.7919,"650": 3.7978,"675": 3.7361,"700": 2.8739,"725": 2.4633,"750": 2.3195,"775": 1.5189,"800": 1.5394,"825": 1.5394,"850": 1.6626,"875": 1.8884,"900": 1.8268,"925": 2.0526,"950": 1.6831,"975": 1.5189,"1000": 1.3341,"1025": 1.5599,"1050": 1.1904,"1075": 1.1699,"1100": 0.8415,"1125": 0.9441,"1150": 0.8004,"1175": 0.7594,"1200": 0.862,"1225": 0.8209,"1250": 0.7183,"1275": 0.6157,"1300": 0.8209,"1325": 0.8415,"1350": 0.5131,"1375": 0.7799,"1400": 0.4926,"1425": 0.5952,"1450": 0.5746,"1475": 0.3078,"1500": 0.3284,"1525": 0.2463,"1550": 0.2257,"1575": 0.2257,"1600": 0.2257,"1625": 0.1437,"1650": 0.1642,"1675": 0.1437,"1700": 0.1231,"1725": 0.1231,"1750": 0.0616,"1775": 0.1026,"1800": 0.0821,"1825": 0.1231,"1850": 0.041,"1875": 0.041,"1900": 0.0205,"1925": 0.041,"1975": 0.0205,"2025": 0.0205}}}