{"type":"Feature","properties":{"ISO3166-1-Alpha-3":"GTM","country":"Guatemala","fill":"#FF0","id":"1961","name":"Jalapa"},
"geometry":{"type": "Polygon","coordinates": [[[-89.83399,14.87651,654.0107],[-89.84963,14.87765,856.122],[-89.86252,14.87713,822.1981],[-89.86833,14.87594,1026.734],[-89.87397,14.87377,968.882],[-89.88751,14.86188,734.4921],[-89.92241,14.8193,1250.1084],[-89.95158,14.80395,1748.8162],[-89.98176,14.79315,1519.3478],[-90.01543,14.78933,1456.1407],[-90.03856,14.78261,871.2167],[-90.06972,14.72628,870.7798],[-90.07346,14.72236,1068.6707],[-90.07814,14.72008,1088.2319],[-90.08612,14.72262,1125.54],[-90.09837,14.72846,919.2665],[-90.11351,14.73026,1112.2679],[-90.14718,14.71926,1272.3232],[-90.17353,14.70944,1106.6292],[-90.17751,14.70696,1193.5568],[-90.1793,14.70406,1218.2902],[-90.18036,14.69755,1338.7996],[-90.18423,14.68686,1137.7618],[-90.20025,14.67792,1133.1467],[-90.2073,14.67497,1093.9825],[-90.20909,14.6743,1004.9193],[-90.21818,14.65197,1194.266],[-90.22283,14.64484,1179.1492],[-90.22477,14.64329,1196.7374],[-90.2333,14.63797,1264.0117],[-90.2658,14.61151,1695.459],[-90.27162,14.58779,1990.8398],[-90.27208,14.57208,2039.5137],[-90.27467,14.56392,2036.5039],[-90.27709,14.55937,2173.2046],[-90.28102,14.55632,2183.1221],[-90.28273,14.55017,2137.9163],[-90.28358,14.54521,2089.759],[-90.28521,14.51431,1797.6865],[-90.2727,14.50139,1798.4275],[-90.27069,14.4987,1830.0492],[-90.26681,14.49591,1823.3242],[-90.26464,14.49477,1749.6229],[-90.25076,14.49653,1931.896],[-90.23795,14.49891,1867.7751],[-90.12801,14.51906,2233.6755],[-90.12289,14.4955,2050.771],[-90.11398,14.48175,1755.5847],[-90.07829,14.45312,1822.3938],[-90.05189,14.43349,1579.0928],[-89.98856,14.43431,1605.1279],[-89.96476,14.46491,1450.6058],[-89.96065,14.4693,1478.7544],[-89.95779,14.4708,1455.2936],[-89.95399,14.47214,1418.0443],[-89.94709,14.47348,1295.2404],[-89.94259,14.47379,1183.9001],[-89.93856,14.47348,1215.7905],[-89.93562,14.47286,1218.2903],[-89.93288,14.47193,1277.4563],[-89.92983,14.47059,1383.1603],[-89.88526,14.43648,1166.7118],[-89.88001,14.4709,967.0251],[-89.87164,14.48294,959.0309],[-89.85128,14.49643,973.5037],[-89.83213,14.50873,1004.8879],[-89.81573,14.51948,1051.8489],[-89.79624,14.5247,1206.168],[-89.78909,14.5234,1104.4286],[-89.78529,14.5203,1028.8584],[-89.78206,14.51643,953.2315],[-89.77539,14.50986,985.418],[-89.76436,14.50139,862.4447],[-89.76234,14.50046,885.4873],[-89.69997,14.52986,858.4642],[-89.6784,14.54221,873.0826],[-89.6777,14.54542,874.0227],[-89.67785,14.55524,869.3964],[-89.6855,14.57761,741.3486],[-89.69617,14.57715,883.5562],[-89.69961,14.57761,886.6451],[-89.69604,14.59895,787.0149],[-89.66023,14.69569,752.5025],[-89.66413,14.70742,788.1554],[-89.66778,14.71574,842.2117],[-89.66894,14.72132,838.6627],[-89.66863,14.72727,895.8857],[-89.66804,14.73021,918.1251],[-89.66718,14.73305,1030.6492],[-89.66509,14.74515,1143.1339],[-89.66499,14.74835,1316.262],[-89.667,14.75987,1459.334],[-89.67083,14.77057,1506.3805],[-89.67605,14.77863,1706.2739],[-89.68896,14.78225,1439.5521],[-89.73635,14.77987,897.1613],[-89.74772,14.78292,893.0869],[-89.76364,14.7853,828.0539],[-89.79043,14.7853,826.3641],[-89.79366,14.78571,931.7373],[-89.79945,14.79217,950.2644],[-89.80769,14.80359,836.0662],[-89.82363,14.8332,681.6025],[-89.83291,14.84597,642.6796],[-89.83885,14.8562,607.3748],[-89.84172,14.85982,752.5922],[-89.83399,14.87651,654.0107]]]}}