{"type": "Feature","bbox": [-90.2778,14.4299,-89.6483,14.8719],"geometry": {"type": "MultiPolygon","coordinates": [[[[-90.1111,14.4711,1742.8865],[-90.0535,14.4361,1577.937],[-90.0469,14.4299,1571.7887],[-89.9849,14.4318,1500.3877],[-89.9825,14.4349,1516.7853],[-89.9809,14.4513,1404.1545],[-89.9751,14.4542,1434.6389],[-89.926,14.4631,1314.854],[-89.8942,14.441,1286.0118],[-89.8888,14.4387,1286.8479],[-89.8834,14.464,999.9572],[-89.8743,14.4709,965.6359],[-89.8652,14.4688,969.7435],[-89.8596,14.4698,970.4156],[-89.8497,14.4747,967.9962],[-89.8486,14.4886,963.6313],[-89.8463,14.4923,971.1301],[-89.8371,14.5006,968.652],[-89.8309,14.5137,931.2526],[-89.8195,14.5182,1019.8378],[-89.8178,14.5164,1034.851],[-89.8185,14.5152,1009.3467],[-89.812,14.5116,1006.4805],[-89.8029,14.4968,1008.8981],[-89.7966,14.4941,867.1956],[-89.7919,14.495,922.5848],[-89.7887,14.4936,901.7173],[-89.792,14.4889,807.5983],[-89.7902,14.487,865.183],[-89.7863,14.4863,876.0344],[-89.7731,14.4898,856.021],[-89.7569,14.4874,773.194],[-89.7547,14.4894,794.8697],[-89.7514,14.487,821.2552],[-89.751,14.4842,792.8691],[-89.6926,14.5075,852.0551],[-89.6693,14.5186,879.7045],[-89.6711,14.5259,875.0772],[-89.6793,14.5432,873.0826],[-89.6855,14.5446,840.5413],[-89.6872,14.5493,837.2048],[-89.6871,14.5609,834.3176],[-89.6617,14.6182,772.5821],[-89.6641,14.6298,778.9175],[-89.6592,14.638,783.3842],[-89.66,14.6436,788.4343],[-89.6509,14.6569,783.5779],[-89.6483,14.706,608.5172],[-89.6555,14.7044,618.3239],[-89.6612,14.705,626.1776],[-89.6595,14.7289,972.5048],[-89.6556,14.7428,1062.3263],[-89.6596,14.7476,1275.6038],[-89.6612,14.7549,1408.5938],[-89.6703,14.7572,1322.6967],[-89.6802,14.7571,1415.6987],[-89.6964,14.7396,978.0347],[-89.7055,14.7367,944.7316],[-89.7124,14.7309,909.9629],[-89.7322,14.7408,1178.2384],[-89.7757,14.7325,1124.1146],[-89.8211,14.8212,867.7728],[-89.8372,14.8199,629.3622],[-89.8861,14.843,1222.665],[-89.8824,14.8454,1181.2737],[-89.8682,14.8493,868.931],[-89.8608,14.8547,886.2023],[-89.8584,14.8602,989.3662],[-89.8576,14.8679,987.6179],[-89.8633,14.8676,1075.8719],[-89.874,14.8719,1104.6433],[-89.9114,14.849,1209.6943],[-89.9249,14.836,1242.9175],[-89.9364,14.8215,1149.9656],[-89.9555,14.8158,1459.155],[-89.9858,14.7713,1971.5072],[-90.049,14.7521,1086.3418],[-90.0723,14.7118,1256.1404],[-90.0893,14.7101,1195.3049],[-90.1091,14.7171,1066.9589],[-90.181,14.7052,1298.6921],[-90.1841,14.6795,1311.3754],[-90.1872,14.6762,1370.0259],[-90.1899,14.667,1391.131],[-90.1904,14.6523,1252.592],[-90.1922,14.6485,1247.9513],[-90.2035,14.6758,1159.5952],[-90.2158,14.6621,1112.2362],[-90.214,14.6484,1312.1174],[-90.2181,14.6371,1328.9139],[-90.222,14.6348,1173.6993],[-90.2269,14.6343,1251.9189],[-90.2677,14.6026,1584.993],[-90.2591,14.5622,2079.0674],[-90.2512,14.5489,1721.7319],[-90.2628,14.5479,2086.5405],[-90.2778,14.5175,1845.9375],[-90.2635,14.508,1976.9424],[-90.2591,14.5132,2123.3992],[-90.2572,14.5128,2112.0317],[-90.2567,14.5089,2063.1494],[-90.2531,14.5082,2124.9209],[-90.2574,14.4827,1871.2173],[-90.2441,14.4716,1935.0724],[-90.2345,14.4791,1979.2938],[-90.1436,14.5004,2005.5714],[-90.1141,14.4938,1846.9154],[-90.1111,14.4711,1742.8865]]]]}
,"properties": {"GID_1": "GTM.10_1","GID_0": "GTM","country": "Guatemala","province": "Jalapa","VARNAME_1": "NA","NL_NAME_1": "NA","TYPE_1": "Departamento","ENGTYPE_1": "Department","CC_1": "NA","HASC_1": "GT.JA","ISO_1": "GT-21","name": "Jalapa.province","area_km2": 1976.601,"hist_schema_id": "Elevation0-9000","hist_area_km2": {"475": 0.061,"500": 0.307,"525": 0.307,"550": 0.759,"575": 1.333,"600": 2.215,"625": 2.604,"650": 3.978,"675": 5.024,"700": 8.204,"725": 13.783,"750": 19.323,"775": 27.981,"800": 30.034,"825": 36.849,"850": 28.272,"875": 24.168,"900": 20.556,"925": 19.243,"950": 35.623,"975": 58.734,"1000": 42.248,"1025": 39.967,"1050": 41.667,"1075": 54.343,"1100": 64.044,"1125": 54.895,"1150": 48.681,"1175": 46.076,"1200": 43.081,"1225": 38.238,"1250": 36.557,"1275": 37.747,"1300": 36.721,"1325": 38.671,"1350": 53.502,"1375": 52.741,"1400": 44.167,"1425": 39.696,"1450": 36.496,"1475": 36.003,"1500": 34.362,"1525": 33.992,"1550": 32.311,"1575": 32.885,"1600": 35.468,"1625": 30.196,"1650": 27.305,"1675": 25.685,"1700": 25.563,"1725": 29.295,"1750": 31.838,"1775": 40.265,"1800": 33.047,"1825": 29.417,"1850": 30.403,"1875": 29.029,"1900": 25.174,"1925": 24.396,"1950": 20.416,"1975": 18.343,"2000": 14.877,"2025": 14.221,"2050": 10.938,"2075": 9.831,"2100": 9.071,"2125": 9.215,"2150": 7.86,"2175": 7.121,"2200": 6.773,"2225": 7.204,"2250": 6.875,"2275": 6.054,"2300": 7.06,"2325": 6.157,"2350": 5.767,"2375": 5.008,"2400": 4.679,"2425": 4.022,"2450": 3.797,"2475": 3.509,"2500": 2.996,"2525": 1.97,"2550": 2.258,"2575": 2.093,"2600": 1.601,"2625": 0.759,"2650": 0.472,"2675": 0.123}}}