{"type": "Feature","bbox": [-90.531,14.5948,-90.5167,14.6177],"geometry": {"type": "MultiPolygon","coordinates": [[[[-90.5167,14.6149,1501.7825],[-90.5252,14.6177,1517.2817],[-90.531,14.6045,1518.5179],[-90.5255,14.5975,1511.5725],[-90.5211,14.5948,1507.0527],[-90.5167,14.6149,1501.7825]]]]}
,"properties": {"GID_2": "GTM.7.38_1","GID_0": "GTM","country": "Guatemala","GID_1": "GTM.7_1","province": "Guatemala","NL_NAME_1": "NA","county": "ZONA9","VARNAME_2": "NA","NL_NAME_2": "NA","TYPE_2": "Municipio","ENGTYPE_2": "Municipality","CC_2": "NA","HASC_2": "NA","name": "Z_O_N_A9.county","area_km2": 2.297892,"hist_schema_id": "Elevation0-9000","hist_area_km2": {"1500": 1.620835,"1525": 0.677057}}}