{"type":"Feature","properties":{"GID_2":"GTM.9.5_1","GID_0":"GTM","country":"Guatemala","GID_1":"GTM.9_1","province":"Izabal","NL_NAME_1":"NA","county":"?","VARNAME_2":"NA","NL_NAME_2":"NA","TYPE_2":"Waterbody","ENGTYPE_2":"Waterbody","CC_2":"NA","HASC_2":"NA","name":"_.county"},
"geometry":{"type": "MultiPolygon","coordinates": [[[[-88.7551,15.8146,0.0],[-88.7627,15.8059,8.3396],[-88.7798,15.8032,22.0886],[-88.7806,15.799,0.0],[-88.7729,15.7897,5.114],[-88.776,15.7802,38.3404],[-88.7813,15.7847,56.5143],[-88.7869,15.7845,19.9723],[-88.800299999999993,15.782,0.0],[-88.8067,15.7764,2.6478],[-88.8102,15.7763,38.8905],[-88.8215,15.7841,35.1307],[-88.8243,15.7886,33.0112],[-88.8305,15.7897,0.0],[-88.8411,15.7863,0.0],[-88.8467,15.7873,3.8049],[-88.8472,15.7851,1.4721],[-88.8598,15.7813,0.0],[-88.8585,15.7776,0.0],[-88.8609,15.7756,0.0],[-88.8573,15.7725,0.0],[-88.8612,15.7701,0.0],[-88.8687,15.7598,0.0],[-88.8655,15.758,0.0],[-88.866,15.7554,0.0],[-88.8714,15.7472,0.0],[-88.8829,15.7399,0.0],[-88.8854,15.7413,0.0],[-88.8739,15.749,4.8732],[-88.8741,15.7533,13.7868],[-88.8925,15.7404,0.0],[-88.8982,15.7394,0.0],[-88.9012,15.7336,0.0],[-88.906,15.7298,0.0],[-88.9088,15.7325,12.106],[-88.9141,15.731,0.0],[-88.9174,15.7325,5.2598],[-88.9241,15.7316,0.0],[-88.9201,15.7229,0.0],[-88.9269,15.7205,0.8662],[-88.9302,15.7172,0.0],[-88.9346,15.7166,0.0],[-88.9363,15.7204,12.637],[-88.9401,15.7174,11.6914],[-88.9359,15.7165,0.0],[-88.9465,15.7096,0.0],[-88.941,15.6963,0.0],[-88.9379,15.6956,0.0],[-88.9485,15.6838,0.0],[-88.955,15.6819,0.0],[-88.9607,15.6766,0.0],[-88.9636,15.6793,4.3362],[-88.9659,15.6754,0.0],[-88.9697,15.6771,0.0],[-88.9822,15.6725,0.0],[-88.9824,15.6741,0.0],[-88.984,15.6736,0.0],[-88.9967,15.6652,0.0],[-88.9982,15.6593,0.0],[-88.9961,15.6578,0.0],[-88.9972,15.6507,2.8575],[-89.0008,15.641,0.0],[-88.9912,15.6366,0.0],[-89.0017,15.6272,0.0],[-89.0225,15.6257,0.0],[-89.0223,15.6231,0.0],[-89.031,15.6165,0.0],[-89.0352,15.6154,0.0],[-89.0415,15.6186,1.3198],[-89.0489,15.6122,0.0],[-89.0497,15.6108,0.0],[-89.0478,15.6089,0.0],[-89.0512,15.6061,0.0],[-89.0522,15.6029,0.0],[-89.0549,15.6016,0.0],[-89.0584,15.5958,0.0],[-89.0614,15.5954,0.0],[-89.0627,15.5878,0.0],[-89.0646,15.5889,0.0],[-89.0667,15.5868,0.0],[-89.0762,15.587,0.0],[-89.0795,15.5825,0.0],[-89.0983,15.5785,2.0804],[-89.1044,15.5818,0.0],[-89.1069,15.5803,0.0],[-89.1105,15.5812,0.0],[-89.1225,15.5784,0.0],[-89.1288,15.5701,0.0],[-89.1436,15.5653,0.0],[-89.1459,15.5664,0.0],[-89.1516,15.5618,0.0],[-89.1572,15.5619,0.0],[-89.1564,15.5663,3.5854],[-89.1689,15.5719,1.0693],[-89.1717,15.5778,6.6493],[-89.1854,15.578,0.0],[-89.192,15.5707,0.0],[-89.1984,15.5674,0.0],[-89.2045,15.5667,0.0],[-89.2241,15.5728,1.385],[-89.2298,15.5657,0.0],[-89.2411,15.5611,0.0],[-89.243,15.5581,0.0],[-89.2422,15.5528,0.0],[-89.2441,15.5442,0.0],[-89.2536,15.5305,0.0],[-89.2604,15.5256,0.0],[-89.2623,15.5201,0.0],[-89.2735,15.5166,0.0],[-89.2781,15.5193,0.0],[-89.2803,15.5166,0.0],[-89.2844,15.5159,0.0],[-89.2874,15.5179,0.8109],[-89.2938,15.5169,0.0],[-89.3029,15.5281,2.5936],[-89.3076,15.5306,3.8632],[-89.3182,15.525,0.0],[-89.3202,15.5255,0.0],[-89.3225,15.523,0.0],[-89.3363,15.5208,0.0],[-89.3471,15.5143,0.0],[-89.3522,15.5163,3.4768],[-89.357,15.5147,0.0],[-89.3583,15.512,0.0],[-89.3715,15.5071,0.0],[-89.3792,15.499,0.0],[-89.3892,15.4782,0.0],[-89.3915,15.4812,3.4315],[-89.3961,15.4795,0.0],[-89.4033,15.4686,1.5438],[-89.4101,15.4683,2.5807],[-89.4107,15.466,4.0698],[-89.4027,15.4666,4.7947],[-89.4086,15.458,4.3416],[-89.4072,15.457,5.053],[-89.3892,15.4737,0.0],[-89.3818,15.4632,0.0],[-89.3874,15.4597,1.4881],[-89.3913,15.4542,0.0],[-89.389,15.4531,3.4742],[-89.3781,15.46,6.1763],[-89.3738,15.4588,6.3207],[-89.3741,15.461,5.3117],[-89.3688,15.471,5.2247],[-89.3652,15.4721,3.49],[-89.3656,15.4612,0.0],[-89.3583,15.4638,4.0434],[-89.354,15.4716,0.0],[-89.3497,15.4692,0.0],[-89.3481,15.4627,0.0],[-89.3543,15.4618,0.0],[-89.3556,15.4594,0.0],[-89.3605,15.4569,0.0],[-89.3617,15.4527,0.0],[-89.3606,15.4512,0.0],[-89.3549,15.4522,0.0],[-89.3454,15.4604,0.0],[-89.3407,15.4599,0.0],[-89.3386,15.4466,5.0441],[-89.3247,15.4381,0.0],[-89.3221,15.4308,0.0],[-89.3225,15.4235,0.0],[-89.3282,15.4224,3.1973],[-89.3329,15.4171,3.4835],[-89.3281,15.4173,0.0],[-89.3223,15.4024,0.0],[-89.3234,15.4003,0.0],[-89.3301,15.4,0.9137],[-89.3332,15.3984,0.0],[-89.3379,15.3926,0.0],[-89.3338,15.3789,0.0],[-89.3268,15.3684,0.0],[-89.3027,15.3583,4.2652],[-89.2831,15.3713,0.0],[-89.2755,15.3714,3.8419],[-89.2697,15.3757,4.3944],[-89.267,15.3857,5.0572],[-89.2618,15.3921,15.4006],[-89.2614,15.4005,0.0],[-89.2528,15.4055,0.0],[-89.2461,15.407,6.32],[-89.2428,15.41,12.3224],[-89.2451,15.4145,2.4619],[-89.2504,15.4114,0.0],[-89.2632,15.4081,0.0],[-89.2673,15.4084,4.3375],[-89.2617,15.4156,0.0],[-89.2494,15.4182,0.0],[-89.2279,15.4129,15.3741],[-89.2167,15.4147,2.9755],[-89.2017,15.4084,1.1766],[-89.1823,15.4085,0.0],[-89.1759,15.4054,1.0436],[-89.1682,15.4078,0.0],[-89.1561,15.4052,0.0],[-89.121,15.4084,49.3577],[-89.1074,15.4186,0.0],[-89.0949,15.4173,0.0],[-89.0835,15.4234,4.6356],[-89.0771,15.4272,6.3914],[-89.0694,15.4405,0.0],[-89.0635,15.4406,1.4717],[-89.0577,15.4459,2.3798],[-89.0562,15.4496,0.5643],[-89.0481,15.4533,3.1893],[-89.0395,15.4606,9.5809],[-89.0345,15.462,50.1984],[-89.0292,15.4665,148.6727],[-89.0299,15.4709,4.8432],[-89.0197,15.477,8.5556],[-89.0189,15.4815,8.2561],[-89.0203,15.4838,5.0861],[-89.017,15.4884,0.0],[-89.0098,15.4899,1.3338],[-89.0014,15.4995,1.4188],[-88.9836,15.5086,6.055],[-88.9817,15.52,3.2311],[-88.9802,15.5517,1.3896],[-88.9868,15.5687,2.1458],[-88.9963,15.5706,1.7004],[-88.9966,15.5774,0.898],[-89.0022,15.5909,1.6796],[-88.9967,15.6002,4.7114],[-89.001,15.6068,7.257],[-89.0004,15.6079,4.5559],[-88.9896,15.6083,0.7835],[-88.9888,15.6071,0.7835],[-88.9851,15.6129,2.4856],[-88.9796,15.6133,3.3839],[-88.9785,15.6207,1.5781],[-88.9834,15.6349,2.36],[-88.9875,15.6379,5.0335],[-88.9927,15.6462,1.1341],[-88.9909,15.6491,1.9962],[-88.9942,15.6503,3.8337],[-88.9927,15.6566,4.7781],[-88.9917,15.6546,10.9205],[-88.9886,15.6586,4.3845],[-88.9899,15.6618,9.1426],[-88.9882,15.664,4.6589],[-88.9828,15.6634,0.7544],[-88.9797,15.6675,12.424],[-88.9716,15.6704,0.0],[-88.9655,15.6677,9.6228],[-88.9623,15.6709,2.8526],[-88.9548,15.6739,0.0],[-88.9483,15.6696,4.845],[-88.9467,15.6714,13.0654],[-88.9464,15.6763,11.5377],[-88.9436,15.6785,11.2618],[-88.9424,15.684,4.3781],[-88.9396,15.686,11.1036],[-88.9388,15.689,12.6659],[-88.9338,15.6933,8.6905],[-88.9297,15.6943,0.0],[-88.925,15.6921,5.2822],[-88.9215,15.6951,3.1732],[-88.9164,15.6954,2.5604],[-88.907,15.6913,0.0],[-88.9001,15.6861,5.6896],[-88.8969,15.6882,0.0],[-88.8942,15.6829,9.9114],[-88.8864,15.6851,5.8651],[-88.8783,15.6989,30.898],[-88.8792,15.703,1.6194],[-88.8772,15.7072,2.3797],[-88.865,15.7131,3.7327],[-88.8561,15.722,1.9963],[-88.8546,15.7276,4.1466],[-88.8506,15.7322,11.4899],[-88.8503,15.7374,9.6869],[-88.8417,15.7427,5.1447],[-88.8405,15.7469,8.1715],[-88.8458,15.7547,0.0],[-88.8446,15.756,0.0],[-88.8397,15.7524,3.0632],[-88.8368,15.7539,9.6413],[-88.8379,15.7578,4.5242],[-88.8351,15.7602,0.0],[-88.8303,15.76,7.7856],[-88.8337,15.7642,0.0],[-88.8292,15.7649,12.8205],[-88.8277,15.7678,0.0],[-88.8235,15.7659,11.9132],[-88.8216,15.7674,6.9135],[-88.8256,15.769,0.0],[-88.8253,15.7707,12.5149],[-88.8183,15.7759,0.0],[-88.812,15.7721,4.8883],[-88.8016,15.7725,13.8988],[-88.7928,15.7799,22.4587],[-88.7831,15.7826,0.0],[-88.78,15.7813,30.2518],[-88.7784,15.7754,1.1624],[-88.7765,15.7742,0.0],[-88.7724,15.7751,82.9552],[-88.7694,15.7908,196.2379],[-88.7772,15.7999,63.3621],[-88.7628,15.8036,99.7649],[-88.7476,15.8123,0.0],[-88.7532,15.8129,2.7824],[-88.7551,15.8146,0.0]]]]}}