{"type": "Feature","bbox": [-91.1634,14.7289,-91.1143,14.7674],"geometry": {"type": "MultiPolygon","coordinates": [[[[-91.1414,14.7289,1654.2352],[-91.1384,14.7399,1984.6857],[-91.1394,14.7439,1954.6638],[-91.137,14.7485,1957.1837],[-91.1206,14.7582,2194.3311],[-91.1143,14.7674,2206.9651],[-91.1254,14.7666,2010.079],[-91.1289,14.765,1947.592],[-91.1367,14.7545,1733.8127],[-91.1409,14.7529,1653.7876],[-91.1537,14.7524,1817.6646],[-91.1634,14.7446,1555.5],[-91.1574,14.7358,1566.3687],[-91.1467,14.7342,1682.5735],[-91.1425,14.7317,1675.5856],[-91.1414,14.7289,1654.2352]]]]}
,"properties": {"GID_2": "GTM.19.4_1","GID_0": "GTM","country": "Guatemala","GID_1": "GTM.19_1","province": "Sololá","NL_NAME_1": "NA","county": "Panajachel","VARNAME_2": "NA","NL_NAME_2": "NA","TYPE_2": "Municipio","ENGTYPE_2": "Municipality","CC_2": "NA","HASC_2": "NA","name": "Panajachel.county","area_km2": 6.97124,"hist_schema_id": "Elevation0-9000","hist_area_km2": {"1575": 1.168753,"1600": 0.656126,"1625": 0.451085,"1650": 0.20504,"1675": 0.225546,"1700": 0.184535,"1725": 0.205041,"1750": 0.225544,"1775": 0.143526,"1800": 0.205036,"1825": 0.143527,"1850": 0.143522,"1875": 0.205033,"1900": 0.389563,"1925": 0.471577,"1950": 0.47159,"1975": 0.307547,"2000": 0.328053,"2025": 0.184521,"2050": 0.08201,"2075": 0.205024,"2100": 0.143516,"2150": 0.041005,"2175": 0.164018,"2200": 0.020503}}}