{"type": "Feature","bbox": [-90.4874,14.6492,-90.3841,14.7142],"geometry": {"type": "MultiPolygon","coordinates": [[[[-90.4776,14.6822,1437.4285],[-90.4772,14.6805,1484.2368],[-90.487,14.6565,1464.2275],[-90.4874,14.6507,1454.3585],[-90.4767,14.6502,1495.3796],[-90.4727,14.6573,1553.4958],[-90.47,14.6581,1552.8501],[-90.4577,14.6537,1490.8251],[-90.4526,14.6494,1473.1655],[-90.4399,14.6492,1456.1165],[-90.4333,14.6515,1438.1318],[-90.4231,14.6633,1318.1099],[-90.4188,14.6758,1276.0095],[-90.4139,14.6835,1220.8384],[-90.4104,14.6863,1211.7361],[-90.4051,14.6877,1227.2151],[-90.3998,14.6944,1196.6465],[-90.3979,14.7021,1186.4402],[-90.3996,14.7062,1148.5303],[-90.3971,14.7065,1144.2566],[-90.3912,14.7028,1149.3716],[-90.387,14.7069,1100.1332],[-90.3841,14.7066,1113.9713],[-90.3896,14.7132,1145.8936],[-90.3955,14.7142,1150.1638],[-90.4011,14.7108,1155.3043],[-90.4232,14.711,1351.1597],[-90.432,14.7101,1440.8958],[-90.4404,14.707,1462.2993],[-90.4508,14.7078,1384.8252],[-90.4544,14.7002,1450.7471],[-90.4687,14.6932,1632.2867],[-90.477,14.6949,1480.0149],[-90.4798,14.6869,1354.2968],[-90.4776,14.6822,1437.4285]]]]}
,"properties": {"GID_2": "GTM.7.26_1","GID_0": "GTM","country": "Guatemala","GID_1": "GTM.7_1","province": "Guatemala","NL_NAME_1": "NA","county": "ZONA18","VARNAME_2": "NA","NL_NAME_2": "NA","TYPE_2": "Municipio","ENGTYPE_2": "Municipality","CC_2": "NA","HASC_2": "NA","name": "Z_O_N_A18.county","area_km2": 43.72714,"hist_schema_id": "Elevation0-9000","hist_area_km2": {"1100": 0.06152,"1125": 0.22558,"1150": 0.57421,"1175": 1.16895,"1200": 1.59966,"1225": 1.55867,"1250": 1.64074,"1275": 1.21003,"1300": 1.51768,"1325": 1.96887,"1350": 1.43564,"1375": 1.76379,"1400": 2.13301,"1425": 3.40467,"1450": 3.97894,"1475": 6.29685,"1500": 5.3328,"1525": 3.77395,"1550": 1.94853,"1575": 0.92297,"1600": 0.43071,"1625": 0.28713,"1650": 0.32815,"1675": 0.16407}}}