{"type":"Feature","properties":{"GID_2":"GTM.6.5_1","GID_0":"GTM","country":"Guatemala","GID_1":"GTM.6_1","province":"Escuintla","NL_NAME_1":"NA","county":"LaGomera","VARNAME_2":"NA","NL_NAME_2":"NA","TYPE_2":"Municipio","ENGTYPE_2":"Municipality","CC_2":"NA","HASC_2":"NA","name":"La_Gomera.county"},
"geometry":{"type": "MultiPolygon","coordinates": [[[[-91.0818,13.9171,1.3023],[-91.0843,13.9174,0.5957],[-91.0843,13.9163,0.9732],[-91.0796,13.916,1.8049],[-91.0818,13.9171,1.3023]]],
[[[-91.0901,13.9196,0.0],[-91.0932,13.9199,2.0805],[-91.0937,13.9185,1.153],[-91.0926,13.9182,0.4727],[-91.0901,13.9196,0.0]]],
[[[-90.9617,14.1702,94.3718],[-90.9711,14.177,99.6355],[-90.9853,14.1833,107.3628],[-91.035,14.1932,111.2324],[-91.0375,14.1726,86.9664],[-91.0534,14.1726,90.9197],[-91.055,14.1675,85.277],[-91.0577,14.166,82.5587],[-91.0816,14.1676,75.3894],[-91.0994,14.1613,64.7208],[-91.1068,14.1632,65.1904],[-91.1066,14.1664,67.2266],[-91.1307,14.1806,67.0275],[-91.1609,14.1865,55.3346],[-91.1666,14.1828,53.086],[-91.1738,14.1863,52.8451],[-91.176,14.1832,59.191],[-91.1727,14.1745,54.4761],[-91.1764,14.1649,48.0676],[-91.1911,14.1508,43.9344],[-91.1924,14.1443,44.5659],[-91.1961,14.1409,42.4297],[-91.196,14.1388,41.0],[-91.2018,14.1304,40.5207],[-91.2099,14.1332,37.5302],[-91.2145,14.131,37.3748],[-91.2138,14.1256,37.6429],[-91.215,14.1234,36.3134],[-91.2164,14.1245,35.375],[-91.2232,14.1195,34.4599],[-91.2216,14.1133,34.4455],[-91.2281,14.1123,34.3425],[-91.2296,14.1019,29.75],[-91.2313,14.0989,31.1089],[-91.2369,14.0953,31.6387],[-91.2428,14.0815,25.0],[-91.2448,14.0798,24.5],[-91.2475,14.0808,27.1334],[-91.2525,14.0741,23.9159],[-91.2561,14.0752,25.2713],[-91.2588,14.0739,28.8915],[-91.2571,14.0659,21.8766],[-91.2582,14.0631,21.2957],[-91.2642,14.0615,20.7031],[-91.2644,14.054,19.2363],[-91.2675,14.0533,21.9162],[-91.27,14.0401,16.9284],[-91.2756,14.038,17.7016],[-91.2762,14.0332,16.7968],[-91.274,14.0298,14.5436],[-91.2753,14.0268,14.0803],[-91.2795,14.0264,15.0463],[-91.2826,14.0223,14.2566],[-91.2859,14.0099,11.9689],[-91.2892,14.0091,10.8432],[-91.2938,14.001,10.4482],[-91.2992,13.9966,9.2248],[-91.3026,13.9802,7.3821],[-91.312,13.9717,7.1883],[-91.314,13.9657,4.3831],[-91.3135,13.9572,2.0504],[-91.3078,13.9562,2.4374],[-91.3076,13.955,1.7979],[-91.3099,13.9546,1.5535],[-91.3026,13.9499,0.7303],[-91.2993,13.9515,6.1796],[-91.289,13.9471,4.3454],[-91.2724,13.944,3.1245],[-91.2601,13.9399,0.0],[-91.2385,13.9363,0.4672],[-91.2421,13.9388,7.1196],[-91.2412,13.9396,4.5474],[-91.2304,13.9338,4.3368],[-91.1829,13.926,2.7524],[-91.1593,13.9251,4.1824],[-91.1507,13.9221,0.25],[-91.1329,13.9204,0.0],[-91.1265,13.9207,2.499],[-91.1257,13.9221,2.3746],[-91.1218,13.9207,1.5802],[-91.1204,13.9221,2.3408],[-91.1079,13.9213,3.5296],[-91.1068,13.919,2.2596],[-91.1038,13.9201,1.7431],[-91.0965,13.9187,1.1368],[-91.094,13.9207,5.3206],[-91.0907,13.9207,7.8865],[-91.0751,13.9157,4.2499],[-91.0551,13.9143,2.2948],[-91.0087,13.9143,3.0834],[-90.999,13.9955,14.1352],[-91.0044,14.0046,14.9218],[-91.0015,14.0068,14.66],[-91.0008,14.01,16.4274],[-91.0023,14.0182,18.838],[-90.9972,14.0256,27.9759],[-90.9976,14.0288,29.3162],[-91.0029,14.0325,32.0711],[-91.0036,14.035,32.5209],[-91.0024,14.0534,26.7865],[-90.9985,14.0597,28.2707],[-90.9999,14.0691,31.8097],[-90.9985,14.0736,32.1591],[-90.9938,14.0758,32.8092],[-90.9923,14.0801,34.6945],[-91.0077,14.0803,34.4756],[-91.0078,14.0893,38.0158],[-91.0034,14.0893,37.0672],[-91.0034,14.0947,38.5869],[-90.999,14.1,40.6041],[-90.9989,14.1067,46.0057],[-91.0217,14.109,45.1868],[-91.0146,14.1165,43.7083],[-91.0168,14.119,48.4822],[-91.0116,14.123,47.11],[-91.0121,14.1267,45.8058],[-91.0089,14.1314,47.9254],[-91.0096,14.136,55.806],[-91.005,14.1387,53.2325],[-91.0029,14.1465,65.2545],[-91.0051,14.1495,64.5728],[-91.0049,14.1523,66.2949],[-90.9981,14.1608,77.2516],[-90.9976,14.167,81.3978],[-90.9892,14.1684,86.9006],[-90.9899,14.1642,84.1618],[-90.981,14.1636,82.6442],[-90.9784,14.1613,80.6233],[-90.9821,14.1544,75.0692],[-90.9777,14.1481,73.4659],[-90.975,14.1504,74.8663],[-90.9753,14.1476,73.8466],[-90.9731,14.1466,73.0276],[-90.9699,14.1495,77.0508],[-90.9677,14.1451,71.996],[-90.9631,14.1467,71.8035],[-90.9647,14.1512,76.197],[-90.9614,14.1519,80.0744],[-90.9623,14.1606,85.2059],[-90.9601,14.1618,85.6224],[-90.9594,14.166,89.9772],[-90.9617,14.1702,94.3718]]]]}}