{"type":"Feature","properties":{"GID_2":"GTM.19.10_1","GID_0":"GTM","country":"Guatemala","GID_1":"GTM.19_1","province":"Sololá","NL_NAME_1":"NA","county":"SanMarcosLaLaguna","VARNAME_2":"NA","NL_NAME_2":"NA","TYPE_2":"Municipio","ENGTYPE_2":"Municipality","CC_2":"NA","HASC_2":"NA","name":"San_Marcos_La_Laguna.county"},
"geometry":{"type": "MultiPolygon","coordinates": [[[[-91.2433,14.7267,1561.8732],[-91.2501,14.7311,1953.188],[-91.2469,14.7396,1754.51],[-91.2412,14.748,2362.1831],[-91.2478,14.7507,2196.7993],[-91.2595,14.7501,2365.7432],[-91.2737,14.7434,2099.1582],[-91.2698,14.7343,2019.6709],[-91.27,14.7262,1824.4818],[-91.2672,14.723,1586.1833],[-91.2637,14.7258,1658.3936],[-91.2606,14.7212,1560.6526],[-91.2568,14.7251,1579.644],[-91.2518,14.7225,1570.6136],[-91.2514,14.7236,1594.0071],[-91.2457,14.7239,1629.203],[-91.2432,14.7252,1557.9438],[-91.2433,14.7267,1561.8732]]]]}}