{"type": "Feature","bbox": [-90.2387,13.7383,-90.021,14.0909],"geometry": {"type": "MultiPolygon","coordinates": [[[[-90.0337,13.8996,107.1654],[-90.0313,13.9034,222.2354],[-90.0341,13.918,107.0478],[-90.0278,13.9205,115.1464],[-90.0264,13.9246,260.6897],[-90.0267,13.9367,177.6046],[-90.0216,13.9363,248.2249],[-90.021,13.9378,251.7803],[-90.0392,13.9555,517.8447],[-90.0394,13.9725,521.6174],[-90.0473,13.9796,608.1484],[-90.0488,13.987,700.0439],[-90.0634,14.0039,907.6355],[-90.0585,14.0199,983.6505],[-90.0453,14.0144,848.3433],[-90.0466,14.0255,1047.5377],[-90.0524,14.0293,1240.9993],[-90.0539,14.0377,1169.7609],[-90.0617,14.0434,1292.9583],[-90.0621,14.0464,1315.5823],[-90.0574,14.0606,1233.7909],[-90.0663,14.0909,716.835],[-90.079,14.0601,1009.5403],[-90.0993,14.0676,692.3206],[-90.1189,14.0607,730.229],[-90.1155,14.0487,891.6969],[-90.1161,14.0383,978.4312],[-90.1206,14.0122,1182.1682],[-90.1229,14.011,1186.0979],[-90.1166,14.0033,1081.7319],[-90.1166,14.0,1176.4825],[-90.1214,13.9959,1280.5183],[-90.1467,13.9616,528.6218],[-90.1493,13.963,532.6523],[-90.1457,13.9708,503.9128],[-90.1474,13.9769,493.356],[-90.1523,13.9806,501.8959],[-90.1615,13.9815,398.8217],[-90.1643,13.9506,290.888],[-90.1658,13.9471,324.1256],[-90.1784,13.9312,156.7341],[-90.1859,13.9257,150.6198],[-90.1921,13.9238,150.8553],[-90.2016,13.9062,7.2228],[-90.2281,13.8744,13.8291],[-90.2288,13.8729,12.4025],[-90.2222,13.8588,8.1373],[-90.2194,13.8575,10.1205],[-90.2146,13.8515,12.2229],[-90.214,13.8302,4.0332],[-90.2262,13.8097,4.6863],[-90.2213,13.805,2.1697],[-90.2227,13.789,18.721],[-90.2191,13.7867,18.6778],[-90.2307,13.7914,22.2667],[-90.2293,13.7879,0.0],[-90.2321,13.7887,2.4339],[-90.2326,13.7907,15.5942],[-90.2387,13.7912,2.7309],[-90.2126,13.7793,0.0],[-90.2099,13.779,1.2847],[-90.2087,13.781,0.0],[-90.1954,13.7749,1.7703],[-90.1896,13.7743,4.8198],[-90.1907,13.7726,3.4564],[-90.1932,13.7726,2.7626],[-90.2015,13.7757,0.0],[-90.1376,13.7474,2.4517],[-90.1321,13.7479,2.4715],[-90.1293,13.7432,0.0],[-90.1249,13.7416,1.7512],[-90.1187,13.7435,8.5459],[-90.108,13.7383,5.9152],[-90.1041,13.7392,5.5525],[-90.0979,13.7474,4.4515],[-90.0962,13.7529,4.6969],[-90.0918,13.7534,7.5857],[-90.09,13.7571,5.0553],[-90.091,13.7596,5.7985],[-90.0966,13.7607,5.5678],[-90.1062,13.7773,7.5265],[-90.1137,13.7752,10.8184],[-90.1158,13.778,10.639],[-90.1143,13.797,12.8466],[-90.1062,13.8077,11.322],[-90.1068,13.8116,11.7199],[-90.1044,13.8134,12.4172],[-90.1096,13.835,16.4238],[-90.0953,13.8478,25.024],[-90.0887,13.8613,35.2416],[-90.0863,13.8619,37.9392],[-90.0825,13.867,53.0653],[-90.0794,13.876,51.0967],[-90.0666,13.8796,70.1686],[-90.0655,13.8825,77.2051],[-90.0631,13.8834,88.166],[-90.0641,13.886,106.3589],[-90.0624,13.8882,83.0641],[-90.0425,13.8913,154.3869],[-90.0351,13.8963,161.4697],[-90.0337,13.8996,107.1654]]]]}
,"properties": {"GID_2": "GTM.11.11_1","GID_0": "GTM","country": "Guatemala","GID_1": "GTM.11_1","province": "Jutiapa","NL_NAME_1": "NA","county": "Moyuta","VARNAME_2": "NA","NL_NAME_2": "NA","TYPE_2": "Municipio","ENGTYPE_2": "Municipality","CC_2": "NA","HASC_2": "NA","name": "Moyuta.county","area_km2": 418.443,"hist_schema_id": "Elevation0-9000","hist_area_km2": {"0": 145.7252,"25": 46.9348,"50": 15.7456,"75": 10.5995,"100": 10.2905,"125": 7.6354,"150": 6.6063,"175": 5.2685,"200": 5.1655,"225": 6.1121,"250": 5.7621,"275": 5.7415,"300": 5.4122,"325": 5.3092,"350": 6.9142,"375": 7.9431,"400": 7.0786,"425": 5.6175,"450": 6.6669,"475": 6.9343,"500": 5.2058,"525": 4.5884,"550": 4.0945,"575": 3.7447,"600": 3.292,"625": 2.9627,"650": 2.6746,"675": 2.9625,"700": 3.0447,"725": 2.4276,"750": 2.2218,"775": 2.0983,"800": 2.2012,"825": 2.5509,"850": 2.1806,"875": 1.9337,"900": 2.4685,"925": 2.5096,"950": 2.2216,"975": 1.8513,"1000": 2.0365,"1025": 2.0981,"1050": 1.8102,"1075": 1.9747,"1100": 2.3038,"1125": 2.4066,"1150": 2.1187,"1175": 2.4683,"1200": 2.3038,"1225": 2.7563,"1250": 2.9208,"1275": 3.5379,"1300": 2.7151,"1325": 2.098,"1350": 1.1519,"1375": 0.6582,"1400": 0.4525,"1425": 0.2263,"1450": 0.1646,"1475": 0.2057,"1500": 0.2057,"1525": 0.2263,"1550": 0.3086,"1575": 0.288,"1600": 0.0617,"1625": 0.1028,"1650": 0.144}}}