{"type":"Feature","properties":{"ISO3166-1-Alpha-3":"GTM","country":"Guatemala","fill":"#F00","id":"1944","name":"Petén"},
"geometry":{"type": "Polygon","coordinates": [[[-89.1605,17.81431,131.2241],[-89.3803,17.81452,184.2905],[-89.60016,17.81473,282.4479],[-89.82002,17.81499,289.139],[-90.03977,17.81514,216.3528],[-90.25965,17.81535,184.6198],[-90.47946,17.81561,87.9387],[-90.69924,17.81581,50.4615],[-90.91912,17.81602,70.5411],[-90.96222,17.81602,57.2764],[-90.98284,17.81054,67.8254],[-90.9909,17.80196,53.9609],[-90.99144,17.52694,82.8406],[-90.99199,17.25192,286.4422],[-91.43077,17.25497,218.545],[-91.43327,17.25454,225.1386],[-91.43826,17.25368,148.372],[-91.4425,17.23797,132.3141],[-91.41925,17.22774,259.7151],[-91.38834,17.22159,268.5687],[-91.37295,17.21358,232.9742],[-91.36488,17.18975,264.3773],[-91.34452,17.18634,299.9202],[-91.31775,17.19048,279.1312],[-91.29042,17.18908,129.9543],[-91.27951,17.18009,68.5],[-91.27083,17.16428,224.6794],[-91.26515,17.14624,243.5609],[-91.26313,17.13074,288.2521],[-91.25921,17.12433,293.8242],[-91.23879,17.11921,181.9079],[-91.22959,17.114,194.5026],[-91.22536,17.10702,159.2946],[-91.22024,17.08929,135.5919],[-91.21595,17.07922,105.8737],[-91.20675,17.06537,106.1588],[-91.1712,17.02801,236.4305],[-91.16123,17.02397,223.222],[-91.13715,17.02651,230.1972],[-91.12655,17.0246,234.9289],[-91.12123,17.01839,185.1955],[-91.11611,16.99927,252.2238],[-91.11224,16.99049,278.0029],[-91.07694,16.94951,288.1378],[-91.07131,16.93892,247.3082],[-91.06687,16.91819,108.8969],[-91.05493,16.90801,179.519],[-91.01669,16.89484,208.4666],[-91.0109,16.89029,189.4667],[-90.99834,16.87716,283.1044],[-90.99307,16.87437,115.1025],[-90.98325,16.87861,171.4002],[-90.98429,16.88776,124.4993],[-90.98796,16.8969,141.4873],[-90.98625,16.90109,175.9278],[-90.96884,16.90104,123.4943],[-90.95519,16.89876,102.9135],[-90.95276,16.89091,109.8581],[-90.96889,16.87437,97.6608],[-90.94816,16.86471,95.0],[-90.91907,16.83634,101.9279],[-90.90062,16.826,101.6592],[-90.83174,16.80544,173.6576],[-90.81996,16.80533,109.7914],[-90.8106,16.81293,111.4425],[-90.79696,16.80544,108.5055],[-90.79696,16.79867,105.0148],[-90.80037,16.78683,105.7818],[-90.78559,16.775,111.2054],[-90.74978,16.75769,156.5249],[-90.73531,16.74658,153.5237],[-90.66772,16.65258,104.871],[-90.65402,16.61661,117.1657],[-90.6672,16.5932,102.5],[-90.6672,16.587,114.7994],[-90.65883,16.58845,114.3027],[-90.65361,16.5901,114.9676],[-90.65025,16.59341,116.9274],[-90.64736,16.60007,128.4553],[-90.63377,16.59217,121.7993],[-90.63702,16.5779,116.8504],[-90.64353,16.56101,111.3062],[-90.63997,16.54483,120.7459],[-90.64818,16.52959,113.8772],[-90.6395,16.52587,113.3557],[-90.62415,16.52494,123.4496],[-90.61263,16.51811,104.0],[-90.61206,16.50762,112.6257],[-90.61899,16.50008,112.0399],[-90.62787,16.4929,112.4789],[-90.63309,16.48334,112.2185],[-90.62074,16.48675,112.9401],[-90.60467,16.48618,112.1822],[-90.59062,16.48339,111.9669],[-90.58472,16.48024,111.4655],[-90.57935,16.48277,116.8225],[-90.55341,16.49026,123.1522],[-90.54372,16.49021,114.8156],[-90.53907,16.46887,114.0282],[-90.53289,16.45993,109.503],[-90.50892,16.47109,113.2434],[-90.49775,16.46804,113.0241],[-90.48822,16.46158,111.6439],[-90.4823,16.45605,115.2831],[-90.47708,16.44499,113.0105],[-90.47843,16.43641,114.1519],[-90.47584,16.43073,120.9685],[-90.44437,16.4268,117.5354],[-90.43411,16.42241,115.4058],[-90.4267,16.41771,120.027],[-90.42081,16.41512,131.9917],[-90.40946,16.41667,118.3936],[-90.4006,16.42055,126.1567],[-90.39492,16.41921,117.3397],[-90.3929,16.40484,117.4325],[-90.39269,16.39171,123.0477],[-90.39138,16.38598,121.8988],[-90.37985,16.36727,117.8892],[-90.39512,16.3714,118.19],[-90.40874,16.37234,119.3645],[-90.41822,16.36717,133.7991],[-90.42081,16.35301,156.2796],[-90.41401,16.35301,117.571],[-90.41401,16.36045,116.6591],[-90.40719,16.36045,115.5],[-90.39879,16.34758,116.9814],[-90.40468,16.33151,118.6009],[-90.41946,16.31782,138.8672],[-90.43789,16.31208,136.4317],[-90.44489,16.30836,125.93],[-90.43473,16.30123,121.0412],[-90.42019,16.29601,121.1189],[-90.41401,16.29839,120.8818],[-90.41406,16.28784,120.8085],[-90.42024,16.28536,121.4877],[-90.42856,16.28764,121.3328],[-90.43448,16.29156,121.3004],[-90.43551,16.28877,119.5083],[-90.43551,16.28624,130.0531],[-90.43675,16.28485,121.3347],[-90.4413,16.28536,120.0579],[-90.43752,16.28004,120.969],[-90.43143,16.26893,122.6182],[-90.42768,16.26361,121.7515],[-90.44062,16.26531,122.4675],[-90.44373,16.26686,122.1272],[-90.44814,16.2711,124.6679],[-90.45943,16.25906,127.2088],[-90.45783,16.24914,125.5043],[-90.44799,16.24149,122.6665],[-90.43448,16.23632,130.0833],[-90.44623,16.23085,125.7963],[-90.4585,16.22175,125.5374],[-90.46558,16.20811,125.0014],[-90.46181,16.18914,140.8687],[-90.43272,16.17323,125.4299],[-90.42613,16.16315,122.0],[-90.44814,16.15442,125.4852],[-90.44814,16.14821,149.8273],[-90.4353,16.13628,127.2706],[-90.45949,16.1168,153.2964],[-90.45559,16.09974,125.5],[-90.44814,16.09974,129.3636],[-90.44453,16.10326,129.8461],[-90.44274,16.10419,130.8725],[-90.44021,16.10486,129.1884],[-90.43448,16.10718,128.3212],[-90.43742,16.09886,129.1169],[-90.44416,16.08465,131.9764],[-90.44784,16.07969,130.3085],[-90.42075,16.08238,154.8555],[-90.21681,16.05215,161.7552],[-90.04667,15.99946,132.2346],[-90.04011,15.99879,133.3831],[-90.03848,16.00001,135.2894],[-90.03832,16.00024,135.2894],[-90.03778,16.00148,125.2161],[-90.03716,16.00349,131.3037],[-90.03445,16.00608,132.5449],[-90.03011,16.00853,142.228],[-90.01918,16.01008,130.5447],[-90.01473,16.00895,127.0237],[-90.0121,16.00621,125.4114],[-90.0113,16.00287,126.6648],[-90.00853,15.99949,137.9884],[-90.00473,15.99877,131.0043],[-89.99926,16.00001,128.8871],[-89.99649,16.00003,127.4367],[-89.99494,15.99957,127.0025],[-89.99104,15.99525,136.1354],[-89.98866,15.99479,132.898],[-89.98579,15.9953,127.8777],[-89.983,15.99654,139.6428],[-89.97494,15.99804,148.6932],[-89.97308,15.99915,145.2258],[-89.97254,15.99977,145.2258],[-89.97246,16.00011,145.2258],[-89.97249,16.00117,145.5192],[-89.97272,16.00318,145.9095],[-89.97481,16.01096,141.9069],[-89.97455,16.01393,135.3607],[-89.97285,16.01435,148.2292],[-89.97078,16.0138,149.3749],[-89.96321,16.01081,134.6915],[-89.96112,16.00946,134.9674],[-89.95972,16.00763,140.0154],[-89.95965,16.00507,149.8505],[-89.96019,16.00287,148.6472],[-89.96089,16.00101,138.4543],[-89.9612,16.00042,138.4543],[-89.96135,15.99993,146.3097],[-89.96001,15.99747,136.9152],[-89.95709,15.99572,147.2904],[-89.9552,15.99417,143.4943],[-89.95494,15.992,132.8977],[-89.95745,15.98515,139.9768],[-89.94047,15.97257,145.3297],[-89.92908,15.97029,141.0189],[-89.92662,15.9713,141.7574],[-89.92218,15.97572,147.6969],[-89.90471,15.96422,149.8229],[-89.89531,15.96311,146.7734],[-89.8897,15.96396,138.9386],[-89.88727,15.96267,154.0424],[-89.88425,15.95861,157.3702],[-89.88084,15.95259,147.4322],[-89.86779,15.93551,141.9986],[-89.86518,15.9296,136.7194],[-89.8636,15.92461,141.7915],[-89.8589,15.91575,141.952],[-89.85534,15.91262,140.3172],[-89.85195,15.91146,142.4225],[-89.84924,15.91221,142.8041],[-89.8456,15.91259,143.107],[-89.84133,15.91231,140.9917],[-89.82586,15.91004,142.5364],[-89.79221,15.91182,148.1898],[-89.78687,15.91329,160.2189],[-89.78501,15.91433,154.2456],[-89.78384,15.91528,150.3173],[-89.7826,15.91668,147.8593],[-89.77844,15.92249,147.2861],[-89.77674,15.9242,147.6069],[-89.7748,15.92567,147.7935],[-89.77216,15.92652,148.0813],[-89.76917,15.9266,149.1422],[-89.76041,15.92585,152.9106],[-89.75762,15.92629,156.1041],[-89.75219,15.92931,160.9385],[-89.7485,15.93192,159.2151],[-89.74547,15.93164,172.1941],[-89.74255,15.93086,170.086],[-89.71899,15.92032,176.8584],[-89.7162,15.91877,187.4248],[-89.70038,15.9058,188.5474],[-89.67953,15.892,199.7189],[-89.6739,15.88931,196.2228],[-89.66925,15.88774,202.2654],[-89.65584,15.88696,234.9055],[-89.65039,15.88823,232.7093],[-89.64791,15.88924,255.1877],[-89.64566,15.89055,210.7827],[-89.63395,15.8997,224.8627],[-89.62695,15.90006,279.5567],[-89.56504,15.89218,348.4565],[-89.56125,15.89216,342.1062],[-89.5583,15.89278,341.9259],[-89.55567,15.89371,338.1446],[-89.55337,15.89497,324.2853],[-89.55132,15.8965,348.1973],[-89.54693,15.89794,360.9654],[-89.54083,15.89921,325.8959],[-89.52696,15.89986,310.9389],[-89.5206,15.89929,333.5734],[-89.51631,15.89769,368.1815],[-89.51551,15.89518,384.8777],[-89.51303,15.84312,165.7884],[-89.51244,15.84211,150.8895],[-89.51112,15.84229,150.8895],[-89.48466,15.85417,136.189],[-89.46335,15.85826,137.4603],[-89.4464,15.84937,103.3484],[-89.43844,15.84862,100.3555],[-89.4264,15.85397,92.4426],[-89.39635,15.86128,87.5881],[-89.38459,15.86789,88.679],[-89.38066,15.87164,82.2157],[-89.37896,15.875,86.3026],[-89.37777,15.87831,86.029],[-89.37593,15.88523,94.0913],[-89.36953,15.90161,130.541],[-89.358,15.91293,97.4826],[-89.26599,15.91474,86.428],[-89.24253,15.91151,11.5881],[-89.23742,15.90774,5.5582],[-89.23669,15.90709,5.6921],[-89.23602,15.90649,5.0599],[-89.23414,15.95494,7.6289],[-89.20852,16.18613,329.5909],[-89.19314,16.39263,785.9503],[-89.18435,16.49587,776.3206],[-89.16607,16.77701,416.4662],[-89.1492,17.03627,194.4047],[-89.15073,17.32103,158.3277],[-89.15622,17.59824,234.1128],[-89.1605,17.81431,131.2241]]]}}