{"type":"Feature","properties":{"GID_1":"GTM.12_1","GID_0":"GTM","country":"Guatemala","province":"Petén","VARNAME_1":"NA","NL_NAME_1":"NA","TYPE_1":"Departamento","ENGTYPE_1":"Department","CC_1":"NA","HASC_1":"GT.PE","ISO_1":"NA","name":"Petén.province"},
"geometry":{"type": "MultiPolygon","coordinates": [[[[-89.2162,16.005,72.4573],[-89.1822,16.5115,633.1824],[-89.1788,16.5116,575.5002],[-89.1674,16.6786,606.5527],[-89.171,16.6786,583.4801],[-89.1462,17.0498,106.1391],[-89.1469,17.8146,143.8647],[-89.7291,17.8159,278.1687],[-89.7291,17.8143,277.8852],[-90.1411,17.8165,193.3694],[-90.9876,17.8155,54.4967],[-90.9875,17.2514,261.5055],[-91.4397,17.251,60.6577],[-91.4288,17.2185,63.1018],[-91.4183,17.2088,70.2536],[-91.4034,17.2046,50.75],[-91.3874,17.2064,54.75],[-91.3764,17.2049,58.0],[-91.3653,17.1961,62.4606],[-91.3553,17.1909,61.0],[-91.3475,17.1772,66.5138],[-91.3506,17.1652,73.0186],[-91.3493,17.1597,69.9192],[-91.3397,17.1585,78.3648],[-91.3356,17.1612,118.4182],[-91.3312,17.1768,120.3162],[-91.3245,17.1827,78.0128],[-91.3178,17.1827,68.5],[-91.309,17.1794,85.4591],[-91.3024,17.1808,118.0487],[-91.2848,17.1781,96.4283],[-91.2791,17.1796,68.5],[-91.2662,17.1698,69.0],[-91.2632,17.1645,69.0],[-91.2641,17.1561,69.0],[-91.2714,17.1454,83.2479],[-91.2733,17.1388,69.0],[-91.2705,17.1153,94.8802],[-91.2675,17.1083,125.98],[-91.2563,17.101,77.953],[-91.2345,17.1006,91.1975],[-91.227,17.0951,97.7085],[-91.2225,17.0886,83.4137],[-91.2171,17.0754,77.4829],[-91.2172,17.0656,82.6109],[-91.2143,17.0625,83.4709],[-91.2137,17.0529,70.0],[-91.2095,17.052,73.0843],[-91.2008,17.0428,89.8964],[-91.1928,17.0379,81.4815],[-91.175299999999993,17.0157,123.3301],[-91.1549,17.0047,107.4772],[-91.149,17.0042,88.7365],[-91.1381,17.0068,99.4132],[-91.1277,17.006,92.5565],[-91.1232,17.0035,101.8099],[-91.1214,17.0007,91.0],[-91.123,17.0007,158.5766],[-91.1212,16.9925,142.9017],[-91.1237,16.9828,102.0942],[-91.1226,16.977,134.0135],[-91.1175,16.9728,118.6221],[-91.1104,16.9715,186.0778],[-91.1044,16.9677,197.3896],[-91.1001,16.963,146.1594],[-91.0982,16.9556,140.3395],[-91.0945,16.95,207.1799],[-91.081,16.9421,158.9688],[-91.0749,16.9348,192.2012],[-91.073,16.9301,101.6326],[-91.0664,16.9243,170.1773],[-91.0657,16.9209,100.2855],[-91.0725,16.9166,119.9842],[-91.0753,16.9116,191.7375],[-91.0725,16.9064,123.3832],[-91.0672,16.9012,167.2053],[-91.0606,16.8979,110.1572],[-91.050299999999993,16.8968,138.7417],[-91.0072,16.8838,199.0797],[-90.9944,16.8748,115.1025],[-90.9916,16.8632,144.4752],[-90.9885,16.8614,145.4565],[-90.9823,16.8658,95.0],[-90.9805,16.8727,95.0],[-90.9806,16.8771,98.5857],[-90.9863,16.8917,144.4389],[-90.9857,16.8968,133.6112],[-90.9799,16.9011,116.57],[-90.9675,16.9008,110.0698],[-90.9589,16.895,106.4243],[-90.9558,16.8833,114.7803],[-90.9579,16.8785,97.1973],[-90.9721,16.871,104.9225],[-90.9755,16.8659,95.0],[-90.975,16.861,147.9097],[-90.9693,16.8587,154.4844],[-90.9593,16.8631,102.3832],[-90.9515,16.8636,104.0293],[-90.9444,16.8619,113.8543],[-90.9343,16.857,98.9225],[-90.9329,16.8537,96.1797],[-90.9352,16.8409,102.4688],[-90.9268,16.831,101.7246],[-90.9254,16.8231,103.8189],[-90.9229,16.8199,111.4439],[-90.9173,16.8192,97.3037],[-90.8992,16.823,102.2371],[-90.8804,16.8226,106.4071],[-90.863,16.811,125.7808],[-90.8583,16.7978,115.7519],[-90.8554,16.7956,110.8054],[-90.836,16.7939,131.9327],[-90.8125,16.7969,115.1488],[-90.8045,16.7963,107.2554],[-90.8027,16.7916,98.0],[-90.8058,16.7818,106.1758],[-90.8041,16.7738,112.6364],[-90.762,16.7621,116.3261],[-90.7586,16.7594,148.0563],[-90.7581,16.7531,152.5029],[-90.7547,16.7492,111.1394],[-90.7227,16.7295,109.1478],[-90.7156,16.728,100.0],[-90.7119,16.7245,102.6941],[-90.7082,16.7171,100.5],[-90.7107,16.7094,105.6247],[-90.7097,16.7042,100.5],[-90.7006,16.7004,100.5],[-90.6894,16.6916,101.0],[-90.6839,16.6899,103.0621],[-90.6817,16.6877,104.8313],[-90.68,16.6833,104.1596],[-90.6793,16.6706,105.7501],[-90.677,16.6668,104.082],[-90.676,16.6603,101.5],[-90.6584,16.6407,101.875],[-90.6583,16.6357,102.0],[-90.6622,16.6308,107.0851],[-90.6625,16.6275,102.0],[-90.6608,16.6194,103.8871],[-90.6561,16.6098,102.5],[-90.6547,16.5959,102.5],[-90.6573,16.5915,102.5],[-90.6675,16.589,105.2902],[-90.6674,16.582,107.0825],[-90.66,16.5772,105.4699],[-90.6446,16.5791,111.2735],[-90.6403,16.5864,111.7925],[-90.6425,16.5945,108.2109],[-90.6413,16.5957,106.4697],[-90.6379,16.5943,103.0],[-90.6264,16.5776,110.0154],[-90.6282,16.5747,106.5679],[-90.6413,16.5681,103.5],[-90.6484,16.5581,103.5],[-90.6475,16.5511,107.7292],[-90.6493,16.5455,104.8606],[-90.6432,16.5343,103.5],[-90.6462,16.5187,103.5],[-90.642,16.514,106.8787],[-90.6356,16.5135,109.6702],[-90.6178,16.5219,104.0],[-90.6105,16.5156,104.0],[-90.6066,16.5039,104.0],[-90.6087,16.4956,104.5],[-90.6133,16.4919,115.1315],[-90.6236,16.4878,105.0],[-90.6302,16.4902,108.1069],[-90.6347,16.4885,105.0],[-90.6359,16.4831,105.0],[-90.6337,16.48,105.5],[-90.6283,16.4776,105.5],[-90.6204,16.4772,106.7893],[-90.6166,16.4798,110.2446],[-90.6134,16.4884,110.9959],[-90.6042,16.4873,107.6429],[-90.5947,16.4907,109.5779],[-90.5934,16.489,108.9764],[-90.5947,16.4753,108.221],[-90.5914,16.4711,108.9479],[-90.5867,16.4695,107.0],[-90.5695,16.4748,110.6146],[-90.565,16.4775,107.5],[-90.5448,16.4816,108.0],[-90.5441,16.4792,109.1308],[-90.549,16.4717,110.1531],[-90.5481,16.4682,114.8251],[-90.5278,16.4577,108.5],[-90.5251,16.4587,115.612],[-90.5253,16.464,108.5],[-90.5236,16.467,108.5],[-90.5142,16.4699,110.9433],[-90.5014,16.4663,108.5],[-90.4991,16.4565,109.4443],[-90.4967,16.4538,109.1584],[-90.4916,16.454,113.2713],[-90.4851,16.4611,109.0],[-90.4791,16.4594,110.2201],[-90.4807,16.4514,112.3978],[-90.4795,16.4429,109.25],[-90.4883,16.4287,116.2498],[-90.487799999999993,16.4256,111.25],[-90.4846,16.423,111.5],[-90.4718,16.425,113.7268],[-90.4588,16.421,118.0687],[-90.4439,16.4243,111.5],[-90.4208,16.4249,114.2576],[-90.4172,16.4224,112.0],[-90.4121,16.4065,116.5466],[-90.4077,16.404,114.7669],[-90.4022,16.407,115.7406],[-90.3979,16.4162,112.0],[-90.3898,16.4129,115.1389],[-90.3892,16.4084,114.5876],[-90.3907,16.4039,115.462],[-90.4017,16.3991,112.375],[-90.4033,16.3967,114.5485],[-90.4025,16.3932,112.5],[-90.3981,16.3861,115.3276],[-90.3865,16.3778,113.7428],[-90.3741,16.3741,113.0],[-90.3717,16.3683,114.1147],[-90.3723,16.3648,115.0087],[-90.3749,16.3606,113.0],[-90.3797,16.36,113.5],[-90.3889,16.3728,114.0],[-90.3941,16.375,114.0],[-90.3975,16.3748,114.0],[-90.407,16.3681,115.87],[-90.4122,16.3623,123.4879],[-90.4131,16.3532,117.571],[-90.4112,16.3474,116.1171],[-90.407,16.3459,118.7724],[-90.408,16.3573,115.5],[-90.4067,16.3601,119.861],[-90.4035,16.361,117.1837],[-90.4001,16.3495,118.3811],[-90.3845,16.3456,118.0471],[-90.3827,16.339,116.0],[-90.3879,16.335,116.375],[-90.3933,16.3392,119.6614],[-90.3998,16.3395,119.6306],[-90.404,16.3323,117.6444],[-90.412,16.329,117.0],[-90.4134,16.3253,117.4887],[-90.4101,16.3188,117.0],[-90.4103,16.3122,119.6767],[-90.4122,16.3086,117.0],[-90.4162,16.3056,119.3781],[-90.4346,16.3053,119.8582],[-90.4386,16.3031,121.1512],[-90.4399,16.3004,117.875],[-90.4391,16.2972,118.0],[-90.4338,16.2948,118.5874],[-90.4331,16.2922,118.0],[-90.4417,16.2867,118.0],[-90.441,16.2792,118.5],[-90.4391,16.2767,123.9796],[-90.4309,16.2734,118.5],[-90.4243,16.264,124.3077],[-90.4236,16.2603,121.0245],[-90.4264,16.2554,122.2265],[-90.4303,16.2542,120.6028],[-90.4388,16.2608,127.5519],[-90.4458,16.2622,122.3694],[-90.4503,16.2591,121.2832],[-90.4563,16.2481,119.5],[-90.4552,16.2434,120.1387],[-90.4506,16.2405,120.1979],[-90.4473,16.241,122.6665],[-90.4444,16.2456,122.8444],[-90.4412,16.2474,120.6311],[-90.4387,16.2397,120.0],[-90.4311,16.2365,122.9016],[-90.4294,16.2334,120.5],[-90.4313,16.2303,123.2163],[-90.4399,16.2322,123.6198],[-90.4526,16.2252,122.0822],[-90.456,16.2198,121.0],[-90.458,16.209,121.0],[-90.4541,16.1864,124.5132],[-90.4475,16.1824,122.2732],[-90.4372,16.1806,125.2463],[-90.4296,16.1756,129.43],[-90.4277,16.1738,130.6936],[-90.4262,16.1651,122.0],[-90.4264,16.1628,122.0],[-90.4372,16.1568,123.6613],[-90.4487,16.1546,125.4852],[-90.452,16.1496,132.1854],[-90.448,16.1432,126.4085],[-90.4383,16.1427,123.0],[-90.4302,16.1398,130.3353],[-90.4295,16.1369,123.5],[-90.4316,16.1286,128.7911],[-90.4308,16.1194,124.0],[-90.4364,16.1175,127.8572],[-90.45,16.1245,128.7317],[-90.4536,16.1248,126.7916],[-90.4589,16.1096,127.4008],[-90.4564,16.1002,125.5],[-90.4572,16.0944,128.3693],[-90.4522,16.092,129.3178],[-90.4464,16.0934,129.2467],[-90.4429,16.0989,129.7742],[-90.4338,16.1051,129.7805],[-90.4286,16.106,127.5647],[-90.4261,16.1041,128.4251],[-90.4267,16.0973,129.5771],[-90.4303,16.0963,127.0],[-90.4361,16.0877,129.9223],[-90.4418,16.0852,130.6457],[-90.4437,16.0825,130.5477],[-90.4432,16.0788,128.3005],[-90.4392,16.0741,131.3494],[-90.2229,16.0473,177.2918],[-90.0408,15.9902,141.0532],[-90.0356,15.9983,142.4489],[-90.0394,16.0086,127.5452],[-90.0351,16.0118,126.8105],[-90.027,16.0066,131.6264],[-90.0154,16.0084,125.9697],[-90.0083,15.9994,137.9884],[-90.0138,15.9945,127.3578],[-90.0091,15.9916,131.6803],[-90.0006,15.9974,133.1861],[-89.9908,16.0002,129.8804],[-89.9839,15.9988,130.1132],[-89.9776,15.9944,152.1572],[-89.974,15.9975,148.6932],[-89.9755,16.0034,143.2478],[-89.9746,16.0073,130.6147],[-89.9752,16.009,143.9994],[-89.9808,16.0095,140.8493],[-89.9771,16.0163,145.2941],[-89.9731,16.0171,143.9175],[-89.9723,16.0116,144.4024],[-89.9549,16.0061,142.049],[-89.9531,16.002,141.1821],[-89.9583,15.9933,143.8062],[-89.9576,15.9901,134.7168],[-89.9476,15.9942,138.9138],[-89.9471,15.9914,150.1237],[-89.9491,15.9885,148.2301],[-89.9523,15.9875,149.6717],[-89.953,15.9787,135.4428],[-89.9415,15.9775,151.3019],[-89.9395,15.9733,145.3297],[-89.9409,15.97,139.3749],[-89.9388,15.9687,140.7341],[-89.9314,15.9724,142.4378],[-89.9317,15.9687,137.0046],[-89.9299,15.9659,145.2552],[-89.9257,15.9726,144.5744],[-89.9202,15.972,145.8582],[-89.9159,15.9679,140.2597],[-89.9122,15.9702,153.6655],[-89.909,15.9696,164.4839],[-89.9081,15.9628,139.6453],[-89.9062,15.9608,141.5622],[-89.9029,15.9622,148.9825],[-89.8996,15.9613,147.2269],[-89.8994,15.9552,143.4429],[-89.8919,15.9578,152.8241],[-89.8928,15.9648,143.0681],[-89.8907,15.9669,139.2151],[-89.887,15.9659,150.3461],[-89.8815,15.9529,153.0444],[-89.8878,15.9488,152.8632],[-89.8789,15.9469,149.8001],[-89.8772,15.9427,164.2881],[-89.8798,15.9381,143.8142],[-89.87,15.9337,140.8282],[-89.8648,15.9342,137.5945],[-89.8612,15.9276,143.8147],[-89.8641,15.9189,143.2261],[-89.8585,15.9133,141.552],[-89.8566,15.9091,140.968],[-89.8514,15.9051,141.0921],[-89.8397,15.9107,141.2641],[-89.8357,15.9098,141.6278],[-89.834,15.9074,141.3706],[-89.8276,15.9089,142.5364],[-89.8239,15.9068,143.2043],[-89.8183,15.9115,142.4908],[-89.7891,15.9106,153.0863],[-89.7853,15.9191,147.0817],[-89.7805,15.9181,150.3839],[-89.7793,15.9227,147.2861],[-89.7739,15.9218,157.1791],[-89.7692,15.9249,148.7915],[-89.7625,15.9213,149.1602],[-89.752,15.9271,158.5443],[-89.7518,15.9322,159.2901],[-89.747,15.9343,169.8189],[-89.743,15.9427,163.1259],[-89.7382,15.9442,187.5393],[-89.7386,15.9563,169.1807],[-89.721,15.9677,167.4549],[-89.7109,15.9666,168.8582],[-89.7069,15.9643,169.5069],[-89.7048,15.9676,186.1062],[-89.6942,15.9571,181.8078],[-89.6688,15.94,196.916],[-89.6356,15.931,234.2345],[-89.602,15.9289,235.1017],[-89.5894,15.9341,253.9993],[-89.5605,15.9342,290.8539],[-89.5513,15.9356,291.7401],[-89.5452,15.9369,281.3825],[-89.5372,15.9418,346.6929],[-89.4973,15.9442,293.7911],[-89.4976,15.8509,141.7971],[-89.4895,15.855,136.8445],[-89.4886,15.8576,136.1869],[-89.4812,15.8576,135.5628],[-89.4818,15.8604,135.6204],[-89.4762,15.8644,136.5987],[-89.4625,15.8654,133.7548],[-89.4583,15.855,131.307],[-89.4513,15.8514,113.3036],[-89.4391,15.8545,94.3907],[-89.4382,15.8578,91.9242],[-89.4195,15.8636,89.2862],[-89.4135,15.8629,87.9073],[-89.4101,15.8608,87.4552],[-89.4099,15.8569,88.7676],[-89.4063,15.8522,86.2597],[-89.3984,15.8648,93.6469],[-89.395,15.8657,85.1115],[-89.3899,15.8605,83.9179],[-89.3854,15.8662,88.1207],[-89.3879,15.8709,82.88],[-89.3773,15.8727,84.4625],[-89.3778,15.8756,88.6591],[-89.3832,15.8768,88.1783],[-89.3857,15.8795,84.4631],[-89.3784,15.8822,86.8735],[-89.3759,15.887,87.7157],[-89.3724,15.9035,111.9059],[-89.3641,15.9145,110.1922],[-89.3353,15.9173,78.3146],[-89.329,15.9131,74.0341],[-89.322,15.9125,86.8516],[-89.3144,15.9166,57.1578],[-89.31,15.9147,81.9847],[-89.2945,15.9146,23.7685],[-89.287,15.9117,22.4295],[-89.2819,15.9133,18.8681],[-89.2699,15.913,22.0071],[-89.2627,15.917,25.6489],[-89.253,15.9137,73.3052],[-89.2441,15.9151,8.6738],[-89.2291,15.9057,77.6424],[-89.2273,15.8984,8.297],[-89.2226,15.9019,127.3137],[-89.2242,15.9286,15.1144],[-89.2162,16.005,72.4573]]],
[[[-90.4377,16.0953,127.7059],[-90.4381,16.0948,127.7059],[-90.4385,16.0942,127.7059],[-90.4369,16.096,127.9202],[-90.4377,16.0953,127.7059]]]]}}