{"type":"Feature","properties":{"featurecla":"River","scalerank":5,"rivernum":157,"dissolve":"157River","name":"Usumacinta1","name_alt":null,"note":null,"min_zoom":4.7,"strokeweig":0.2,"name_en":"Usumacinta","min_label":5.7},
"geometry":{"type": "LineString","coordinates": [[-90.401416015624989,16.42072174686912,126.1567],[-90.410253906249991,16.41681549686912,122.378],[-90.421630859375,16.415301824994117,131.9917],[-90.427490234375,16.41791412968162,120.027],[-90.434912109374991,16.422626043744117,114.2079],[-90.445166015624991,16.427020574994117,117.6124],[-90.476660156249991,16.430926824994117,113.7802],[-90.479248046875,16.43659088749412,114.1519],[-90.477880859374991,16.44525787968162,113.0105],[-90.483081054687489,16.45624420780662,115.2831],[-90.489013671875,16.46173737186912,117.6424],[-90.49853515625,16.46820709843162,117.3055],[-90.509692382812489,16.471307684369123,113.2434],[-90.53369140625,16.460077215619123,113.3955],[-90.539843749999989,16.46906159061912,112.8888],[-90.54453125,16.490350653119123,114.0572],[-90.55419921875,16.49042389530662,131.9281],[-90.580175781249991,16.48297760624412,116.8225],[-90.585498046874989,16.48041412968162,110.7528],[-90.591479492187489,16.48358795780662,110.9568],[-90.60546875,16.486346746869117,112.1822],[-90.62158203125,16.486932684369123,112.9401],[-90.633886718749991,16.483514715619123,112.2185],[-90.628710937499989,16.49310944218162,113.7418],[-90.619799804687489,16.50031159061912,112.0399],[-90.612841796874989,16.507831121869117,112.6257],[-90.613452148437489,16.518329168744117,104.0],[-90.625,16.525165106244117,123.4496],[-90.640307617187489,16.52606842655662,113.3557],[-90.648974609374989,16.529803778119117,114.5564],[-90.640722656249991,16.54498932499412,113.1481],[-90.644335937499989,16.561151434369123,111.3062],[-90.637792968749991,16.578143621869117,116.8504],[-90.634570312499989,16.59235260624412,110.6771],[-90.648193359375,16.600213934369123,128.4553],[-90.651049804687489,16.593622137494123,111.631],[-90.654394531249991,16.59027741093162,114.9676],[-90.65966796875,16.588641668744117,115.3859],[-90.668066406249991,16.58722565311912,103.6722],[-90.668066406249991,16.593377996869123,104.3244],[-90.654833984374989,16.616815496869123,117.1657],[-90.668554687499991,16.65277741093162,104.871],[-90.736132812499989,16.74677155155662,153.5237],[-90.750585937499991,16.75787994999412,156.5249],[-90.786376953125,16.77521393436912,111.2054],[-90.801123046874991,16.78705475468162,104.7085],[-90.797778320312489,16.79889557499412,106.2511],[-90.797778320312489,16.805682684369117,108.5055],[-90.811450195312489,16.813104559369123,110.462],[-90.820727539062489,16.80548737186912,112.3681],[-90.832568359374989,16.80560944218162,212.9114],[-90.901416015624989,16.826190496869117,101.6592],[-90.919848632812489,16.83649323124412,101.9279],[-90.948974609375,16.86493561405662,95.0],[-90.9697265625,16.87457916874412,97.6608],[-90.953540039062489,16.891131903119117,96.8351],[-90.955981445312489,16.898944403119117,102.489],[-90.969580078124991,16.901239324994123,123.4943],[-90.987060546875,16.901239324994123,175.9278],[-90.98876953125,16.897088934369123,173.8084],[-90.985107421875,16.887958074994117,124.4993],[-90.984057617187489,16.87872955936912,171.4002],[-90.993896484375,16.87457916874412,115.1025],[-90.999121093749991,16.877313543744123,314.9826],[-91.01171875,16.890497137494123,169.2365],[-91.017504882812489,16.89508698124412,218.4538],[-91.055712890624989,16.90814850468162,179.519],[-91.067675781249989,16.91840241093162,108.8969],[-91.072119140624991,16.93915436405662,247.3082],[-91.077734374999991,16.949725653119117,288.1378],[-91.113085937499989,16.99066803593162,278.0029],[-91.116943359375,16.999530340619117,252.2238],[-91.1220703125,17.01862213749412,129.3636],[-91.127368164062489,17.024774481244123,234.9289],[-91.137939453125,17.026727606244123,230.1972],[-91.161962890624991,17.02423737186912,223.222],[-91.172045898437489,17.028192449994123,222.3579],[-91.20751953125,17.065545965619123,105.4674],[-91.216723632812489,17.07941315311912,74.0266],[-91.221044921874991,17.089471746869123,109.9467],[-91.226171874999991,17.10724518436912,161.3092],[-91.230395507812489,17.11420319218162,194.5026],[-91.239599609374991,17.119403387494117,190.5243],[-91.260009765625,17.12445709843162,315.2126],[-91.263916015625,17.13092682499412,288.2521],[-91.265966796874991,17.14642975468162,243.5609],[-91.271655273437489,17.164422918744123,224.6794],[-91.280322265624989,17.180292059369123,68.5],[-91.291259765625,17.18927643436912,115.5043],[-91.318530273437489,17.190692449994117,279.1312],[-91.3453125,17.186542059369117,299.9202],[-91.36572265625,17.189960028119117,264.3773],[-91.373779296875,17.21381256718162,166.7322],[-91.38916015625,17.221795965619123,268.5687],[-91.420019531249991,17.22797272343162,259.7151],[-91.443359375,17.238153387494123,148.2686],[-91.435839843749989,17.258172918744123,63.1455]]}}