{"type":"Feature","properties":{"featurecla":"River","scalerank":5,"rivernum":193,"dissolve":"193River","name":"Chixoy","name_alt":"Rio Salinas","note":null,"min_zoom":4.7,"strokeweig":0.2,"name_en":"Chixoy","min_label":5.7},
"geometry":{"type": "LineString","coordinates": [[-90.435302734375,16.107440496869117,129.7403],[-90.440966796874989,16.104999090619117,130.8725],[-90.443530273437489,16.104364324994123,131.4896],[-90.4453125,16.103387762494123,129.8657],[-90.448974609375,16.09992096561912,129.3636],[-90.456396484374991,16.09992096561912,125.5],[-90.460302734374991,16.11701080936912,153.2964],[-90.436083984374989,16.13654205936912,127.2706],[-90.448974609375,16.14838287968162,149.8273],[-90.448974609375,16.154559637494117,125.4852],[-90.426928710937489,16.163348699994117,126.51],[-90.433520507812489,16.17340729374412,125.4299],[-90.462573242187489,16.189325262494123,140.8687],[-90.466357421874989,16.208270574994117,127.1364],[-90.459277343749989,16.221942449994117,125.5374],[-90.447021484375,16.231073309369123,125.7963],[-90.435302734375,16.23651764530662,123.5699],[-90.448779296874989,16.241717840619117,122.6665],[-90.45859375,16.24933502811912,125.5043],[-90.460253906249989,16.25922272343162,127.2088],[-90.448974609375,16.27130768436912,124.6679],[-90.444506835937489,16.26703522343162,122.1272],[-90.44140625,16.265497137494123,123.9549],[-90.428466796875,16.263788153119123,122.2724],[-90.432226562499991,16.26911041874412,122.6182],[-90.438281249999989,16.28021881718162,120.969],[-90.442138671875,16.285516668744123,118.0],[-90.4375,16.28497955936912,121.5208],[-90.436328124999989,16.28644440311912,130.0531],[-90.436328124999989,16.28900787968162,119.5083],[-90.435302734375,16.291766668744117,119.4905],[-90.429248046874989,16.28778717655662,121.3328],[-90.420996093749991,16.285516668744123,121.4005],[-90.414843749999989,16.28803131718162,120.1036],[-90.414794921875,16.298602606244117,120.9288],[-90.420947265624989,16.29621002811912,121.1531],[-90.435546875,16.301385809369123,121.0412],[-90.445654296874991,16.308612371869117,126.7753],[-90.438720703125,16.31220123905662,137.879],[-90.420263671874991,16.317987371869123,138.8672],[-90.405517578125,16.33173248905662,118.6009],[-90.399584960937489,16.347772528119123,116.9814],[-90.407958984375,16.36066315311912,115.5],[-90.414794921875,16.36066315311912,122.6722],[-90.414794921875,16.35321686405662,124.6191],[-90.421630859375,16.35321686405662,156.2796],[-90.419042968749991,16.36737702030662,131.2798],[-90.409521484374991,16.372577215619117,119.3645],[-90.395922851562489,16.37164948124412,118.2677],[-90.380664062499989,16.36749909061912,117.8892],[-90.392138671874989,16.38617584843162,120.527],[-90.393481445312489,16.391864324994117,123.0477],[-90.393725585937489,16.405047918744117,117.2458],[-90.395751953125,16.41937897343162,118.5082],[-90.401416015624989,16.42072174686912,126.1567]]}}