{"type":"Feature","properties":{"featurecla":"River","scalerank":12,"rivernum":22221,"dissolve":"22221River","name":"San Pedro","name_alt":null,"note":"ID is link back to CEC data","name_full":null,"min_zoom":7.0,"strokeweig":0.2,"uident":2041301,"min_label":8.0},
"geometry":{"type": "LineString","coordinates": [[-90.996327277728724,17.287298895306535,43.5097],[-90.971506314187067,17.274969793744035,44.1657],[-90.9427791006454,17.259344793744035,49.8118],[-90.925119595437067,17.257188218223206,49.1298],[-90.922922329812067,17.257432358848206,47.3942],[-90.9203181631454,17.257676499473206,54.1901],[-90.913889126687067,17.261582749473206,52.6891],[-90.903635220437067,17.271266994264863,45.6445],[-90.8993220693954,17.271673895306535,46.4856],[-90.895008918353724,17.271022853639863,47.4965],[-90.8883357412704,17.271022853639863,43.287],[-90.878529426166224,17.270778713014863,43.1235],[-90.873524543353724,17.267930405723206,43.1557],[-90.868763801166224,17.259955145306535,45.6889],[-90.8658748037704,17.257879949994035,46.0097],[-90.857289191791224,17.255560614056535,42.5],[-90.851673957416224,17.255479233848206,46.3908],[-90.845814582416224,17.256903387494035,43.7239],[-90.839344855853724,17.255967515098206,43.2939],[-90.8216853506454,17.247422593223206,43.9121],[-90.793283657937067,17.237819728639863,72.2671],[-90.780873176166224,17.238226629681535,55.8263],[-90.7652888662704,17.247381903119035,49.0635],[-90.727772590228724,17.275742905723206,90.4859],[-90.714344855853724,17.286078192181535,56.7566],[-90.712961392312067,17.287420965619035,61.2286],[-90.698597785541224,17.299139715619035,70.5013],[-90.6937556631454,17.301377671348206,47.0008],[-90.663685676166224,17.310736395306535,56.5795],[-90.642160611062067,17.318711655723206,61.3812],[-90.616322394916224,17.316595770306535,59.5619],[-90.587473111062067,17.301336981244035,69.7701],[-90.529652473041224,17.285101629681535,60.9614],[-90.495228644916224,17.255235093223206,49.4445]]}}