{"type":"Feature","properties":{"featurecla":"River","scalerank":10,"rivernum":22227,"dissolve":"22227River","name":"Hondo","name_alt":null,"note":"ID is link back to CEC data","name_full":"Rio Hondo","min_zoom":6.0,"strokeweig":0.15,"uident":2037401,"min_label":7.0},
"geometry":{"type": "LineString","coordinates": [[-89.2699275381454,17.823553778119035,91.432],[-89.2892146475204,17.797308660931535,123.1844],[-89.331898566791224,17.721502996869035,95.9439],[-89.375314907937067,17.670721746869035,105.6709],[-89.422352668353724,17.658067124473206,106.7642],[-89.484689907937067,17.631781317181535,111.7407],[-89.5130916006454,17.611599025514863,126.8374]]}}