{"type": "Feature","bbox": [-90.5252,14.6149,-90.5138,14.6265],"geometry": {"type": "MultiPolygon","coordinates": [[[[-90.5199,14.6265,1516.4834],[-90.5252,14.6177,1517.2817],[-90.5167,14.6149,1501.7825],[-90.5138,14.6234,1494.5208],[-90.517,14.6239,1496.3184],[-90.5164,14.6262,1502.8777],[-90.5199,14.6265,1516.4834]]]]}
,"properties": {"GID_2": "GTM.7.33_1","GID_0": "GTM","country": "Guatemala","GID_1": "GTM.7_1","province": "Guatemala","NL_NAME_1": "NA","county": "ZONA4","VARNAME_2": "NA","NL_NAME_2": "NA","TYPE_2": "Municipio","ENGTYPE_2": "Municipality","CC_2": "NA","HASC_2": "NA","name": "Z_O_N_A4.county","area_km2": 0.9026884,"hist_schema_id": "Elevation0-9000","hist_area_km2": {"1500": 0.6565024,"1525": 0.2461859}}}