{"type":"Feature","properties":{"GID_2":"GTM.1.11_1","GID_0":"GTM","country":"Guatemala","GID_1":"GTM.1_1","province":"AltaVerapaz","NL_NAME_1":"NA","county":"SantaMaríaCahabón","VARNAME_2":"NA","NL_NAME_2":"NA","TYPE_2":"Municipio","ENGTYPE_2":"Municipality","CC_2":"NA","HASC_2":"NA","name":"Santa_María_Cahabón.county"},
"geometry":{"type": "MultiPolygon","coordinates": [[[[-89.7121,15.7261,211.4597],[-89.7748,15.7254,481.1072],[-89.8345,15.7217,355.4165],[-89.8777,15.7237,387.3044],[-89.8871,15.7214,403.6007],[-89.9008,15.7223,365.1201],[-89.9165,15.7207,270.2914],[-89.9217,15.693,594.5516],[-89.9239,15.6659,813.1914],[-89.9133,15.6593,976.5734],[-89.9086,15.651,968.2014],[-89.9236,15.6371,1012.9263],[-89.9208,15.6246,1153.3197],[-89.9147,15.6244,1155.3887],[-89.9125,15.6202,1113.2139],[-89.9208,15.6081,1133.5905],[-89.9216,15.6041,1153.6648],[-89.9167,15.5946,807.29],[-89.9147,15.5824,459.3924],[-89.9249,15.566,255.9207],[-89.925299999999993,15.5601,331.6576],[-89.9226,15.5557,529.7426],[-89.9228,15.549,369.8247],[-89.9242,15.547,261.1702],[-89.9264,15.5485,287.4166],[-89.9337,15.5419,270.1976],[-89.9338,15.5397,269.0199],[-89.9278,15.5362,258.8225],[-89.9276,15.5255,254.6162],[-89.9315,15.5119,348.567],[-89.9298,15.505,291.7765],[-89.9375,15.5047,626.7825],[-89.9443,15.5098,632.2367],[-89.9492,15.5053,788.8018],[-89.9438,15.4939,725.5904],[-89.9388,15.4895,658.5002],[-89.9191,15.4811,596.1992],[-89.8918,15.4847,632.8264],[-89.8859,15.4884,635.9616],[-89.8772,15.4875,656.3868],[-89.8715,15.4897,507.8823],[-89.8693,15.5056,378.3835],[-89.8672,15.5093,418.4515],[-89.8558,15.5071,372.4987],[-89.8477,15.5093,381.0746],[-89.8438,15.5164,494.2101],[-89.837,15.5206,524.9304],[-89.8296,15.5205,477.9644],[-89.8249,15.5145,475.9647],[-89.8227,15.5153,441.6625],[-89.8199,15.5127,391.5289],[-89.8263,15.5025,430.9644],[-89.8264,15.498,522.9363],[-89.8254,15.493,739.4608],[-89.8192,15.4946,733.7761],[-89.8181,15.4911,824.419],[-89.8102,15.4939,823.3824],[-89.8046,15.4993,683.295],[-89.8096,15.5029,763.5472],[-89.8051,15.5122,694.8884],[-89.8015,15.5119,540.1102],[-89.7879,15.5199,329.7238],[-89.7875,15.5224,356.2536],[-89.7781,15.5237,260.9551],[-89.7663,15.5177,388.3628],[-89.7492,15.5157,624.9483],[-89.7379,15.5259,685.1633],[-89.7283,15.5259,533.9897],[-89.7082,15.5155,746.2594],[-89.6658,15.5252,487.4969],[-89.6578,15.5293,323.5461],[-89.6437,15.5464,190.2235],[-89.6615,15.5662,387.8179],[-89.5887,15.6586,565.4662],[-89.6162,15.6619,664.8168],[-89.6228,15.6727,591.4073],[-89.6622,15.6881,712.6719],[-89.6655,15.6864,769.2467],[-89.7017,15.6973,237.8006],[-89.7012,15.7043,182.6041],[-89.7096,15.7059,184.482],[-89.7168,15.7122,190.7503],[-89.7121,15.7261,211.4597]]]]}}