{"type":"Feature","properties":{"GID_2":"GTM.8.18_1","GID_0":"GTM","country":"Guatemala","GID_1":"GTM.8_1","province":"Huehuetenango","NL_NAME_1":"NA","county":"SanMiguelAcatán","VARNAME_2":"NA","NL_NAME_2":"NA","TYPE_2":"Municipio","ENGTYPE_2":"Municipality","CC_2":"NA","HASC_2":"NA","name":"San_Miguel_Acatán.county"},
"geometry":{"type": "MultiPolygon","coordinates": [[[[-91.5023,15.6753,2896.3682],[-91.5034,15.6863,2882.0693],[-91.4996,15.6965,2722.8167],[-91.5181,15.6942,2921.5488],[-91.5257,15.7021,2659.5759],[-91.5281,15.71,2471.3599],[-91.5277,15.7297,2704.9666],[-91.5335,15.7437,2802.772],[-91.5443,15.7634,2383.6357],[-91.5658,15.7854,2571.6997],[-91.585,15.789,2149.7202],[-91.588,15.7951,2074.2927],[-91.592,15.7938,2091.4409],[-91.5985,15.7991,2036.4849],[-91.6203,15.7994,1726.4519],[-91.6237,15.8136,1613.1534],[-91.6373,15.8235,1435.663],[-91.6481,15.8463,1513.0256],[-91.6594,15.8473,1353.1953],[-91.6795,15.8355,1147.6307],[-91.6875,15.8202,1315.7903],[-91.6703,15.8072,1409.1234],[-91.662,15.8042,1623.3857],[-91.6609,15.7923,1343.4309],[-91.6482,15.7794,1671.9727],[-91.636,15.7513,2196.1943],[-91.6219,15.7408,2168.1948],[-91.6131,15.7298,1402.2135],[-91.6069,15.7274,1716.2307],[-91.5932,15.6989,1763.2703],[-91.5722,15.6907,2039.6514],[-91.5643,15.6907,2065.9653],[-91.5527,15.6836,2419.3181],[-91.5453,15.6842,2284.9382],[-91.5355,15.6798,2422.2964],[-91.5273,15.6739,2558.4114],[-91.5023,15.6753,2896.3682]]]]}}