{"type": "Feature","bbox": [-90.7596,14.2566,-90.2035,14.9188],"geometry": {"type": "MultiPolygon","coordinates": [[[[-90.5663,14.2785,675.3972],[-90.5687,14.2719,643.7048],[-90.573,14.2683,617.1422],[-90.5729,14.2566,514.6169],[-90.5671,14.2592,453.9758],[-90.5633,14.2629,536.6266],[-90.5612,14.2682,625.6755],[-90.5559,14.27,664.7472],[-90.5532,14.2746,705.6444],[-90.5455,14.2773,706.3931],[-90.5425,14.2751,720.8659],[-90.537,14.2787,771.9354],[-90.5326,14.2784,787.1691],[-90.5275,14.2836,723.844],[-90.5227,14.2838,661.5087],[-90.5208,14.2864,728.387],[-90.5132,14.2868,651.8754],[-90.5096,14.298,872.6337],[-90.506,14.2985,768.7244],[-90.5048,14.302,861.8809],[-90.4958,14.3058,1109.236],[-90.4933,14.3091,1059.5316],[-90.4875,14.3089,812.1323],[-90.481,14.314,957.374],[-90.4763,14.3146,963.1747],[-90.4743,14.3187,975.5024],[-90.4561,14.3189,972.1268],[-90.4542,14.3212,935.0538],[-90.455,14.3304,1005.4363],[-90.4506,14.3344,1020.7104],[-90.4465,14.3324,971.7369],[-90.4379,14.3332,993.459],[-90.4388,14.338,965.8004],[-90.4334,14.3383,1027.8169],[-90.4323,14.3425,981.8141],[-90.4292,14.3447,1008.9634],[-90.4304,14.3486,1028.442],[-90.4285,14.3547,1052.0463],[-90.4329,14.3668,1060.1541],[-90.4356,14.3826,1109.9841],[-90.4351,14.3931,1121.3912],[-90.4395,14.4041,1200.1112],[-90.4388,14.4093,1264.7485],[-90.4371,14.4128,1352.8667],[-90.4155,14.4338,1520.9045],[-90.4141,14.4373,1377.5883],[-90.4154,14.4617,1642.1901],[-90.4134,14.4733,1748.5579],[-90.4111,14.4771,1736.0244],[-90.407,14.4811,1768.0121],[-90.4021,14.4793,1802.8557],[-90.3995,14.4821,1791.5703],[-90.3892,14.4847,1713.8003],[-90.3924,14.4908,1676.0226],[-90.3831,14.4954,1648.9556],[-90.3793,14.4946,1594.9332],[-90.377,14.4895,1511.0981],[-90.3745,14.4884,1507.668],[-90.3656,14.4939,1440.8464],[-90.3657,14.4966,1466.9813],[-90.3605,14.4964,1557.8892],[-90.3537,14.5029,1611.0684],[-90.337,14.4961,1501.6566],[-90.3359,14.4856,1492.2327],[-90.3326,14.4809,1594.0787],[-90.3308,14.4678,1286.4771],[-90.3276,14.4682,1289.9982],[-90.3244,14.4754,1411.3812],[-90.3221,14.476,1376.5499],[-90.3191,14.4807,1452.2709],[-90.3147,14.482,1460.7205],[-90.314,14.4964,1847.0579],[-90.3028,14.5119,1918.0225],[-90.2978,14.5133,1923.17],[-90.2954,14.5186,1915.2461],[-90.2892,14.5212,1876.4811],[-90.2778,14.5175,1845.9375],[-90.2628,14.5479,2086.5405],[-90.2512,14.5489,1721.7319],[-90.2591,14.5622,2079.0674],[-90.2677,14.6026,1584.993],[-90.2269,14.6343,1251.9189],[-90.222,14.6348,1173.6993],[-90.2181,14.6371,1328.9139],[-90.214,14.6484,1312.1174],[-90.2158,14.6621,1112.2362],[-90.2035,14.6758,1159.5952],[-90.2041,14.6821,1016.7236],[-90.2267,14.696,1473.3857],[-90.2384,14.7016,1534.0782],[-90.2606,14.7049,1575.7384],[-90.2879,14.713,1589.0869],[-90.2964,14.7233,1282.7719],[-90.3056,14.7236,1266.6753],[-90.3216,14.735,968.3282],[-90.3231,14.7449,907.5598],[-90.3278,14.7542,844.9606],[-90.3349,14.7596,807.0711],[-90.3344,14.7662,904.1216],[-90.3388,14.7765,749.5313],[-90.3388,14.7787,721.0967],[-90.3368,14.7795,781.9424],[-90.3373,14.7839,789.5015],[-90.3339,14.7877,730.0326],[-90.3341,14.7912,765.4581],[-90.3316,14.7952,820.99],[-90.3326,14.7977,908.7512],[-90.3386,14.8029,792.9966],[-90.3386,14.8057,666.4754],[-90.3353,14.8139,749.4109],[-90.3236,14.8207,693.9515],[-90.3238,14.8299,976.5823],[-90.3272,14.8293,967.4711],[-90.3281,14.8322,869.2812],[-90.3314,14.8333,795.5396],[-90.339,14.8417,740.9026],[-90.3469,14.8442,678.9861],[-90.3476,14.846,687.4515],[-90.3551,14.8468,694.314],[-90.3596,14.8448,656.4291],[-90.3705,14.8472,647.2688],[-90.3779,14.8444,591.7253],[-90.3899,14.8437,576.0333],[-90.3945,14.8496,635.3808],[-90.401,14.8504,516.2699],[-90.4009,14.8618,581.4673],[-90.4034,14.8683,427.5645],[-90.394,14.8776,461.362],[-90.3939,14.8817,495.0894],[-90.3987,14.8863,583.4995],[-90.4022,14.8946,541.585],[-90.4002,14.8997,560.5454],[-90.4083,14.9063,549.3916],[-90.4076,14.9133,485.982],[-90.4199,14.9148,564.2293],[-90.4218,14.9188,512.5187],[-90.427,14.918,627.3561],[-90.4277,14.9125,522.2822],[-90.4296,14.9125,570.9269],[-90.4329,14.9088,507.074],[-90.436,14.8991,504.3353],[-90.4358,14.8895,501.696],[-90.4436,14.886,593.3739],[-90.4588,14.8842,595.4457],[-90.4685,14.8851,609.3257],[-90.4703,14.8822,588.4362],[-90.4749,14.8829,569.2952],[-90.4785,14.887,617.2585],[-90.4825,14.8869,557.4822],[-90.4815,14.8893,681.3099],[-90.4908,14.8916,545.7099],[-90.4936,14.899,805.9516],[-90.5168,14.8903,633.8135],[-90.5237,14.8896,684.3509],[-90.527,14.8855,583.1165],[-90.5367,14.8892,701.4164],[-90.5624,14.8748,657.4149],[-90.5628,14.8773,796.6599],[-90.5679,14.8771,699.5781],[-90.5758,14.873,698.0616],[-90.5833,14.8747,648.7479],[-90.5874,14.8781,700.8188],[-90.5913,14.8733,644.4935],[-90.6103,14.8815,782.8546],[-90.6156,14.8776,669.3757],[-90.6231,14.8781,682.8208],[-90.6264,14.873,755.8739],[-90.6325,14.8724,761.2475],[-90.6374,14.8667,693.8165],[-90.6437,14.8659,727.6395],[-90.6469,14.8621,724.8156],[-90.653,14.8639,770.4199],[-90.6628,14.8579,755.8574],[-90.6605,14.8545,819.6389],[-90.6636,14.8489,896.431],[-90.668,14.8465,849.4091],[-90.6759,14.8458,800.1171],[-90.6803,14.8403,839.8954],[-90.6929,14.8332,961.3669],[-90.6923,14.8271,943.2753],[-90.6954,14.8161,976.8407],[-90.6852,14.8053,1035.3054],[-90.6874,14.8007,1057.9073],[-90.6923,14.7975,1075.9866],[-90.6943,14.7933,1142.2274],[-90.701,14.7925,1182.8579],[-90.7093,14.7778,1118.969],[-90.7171,14.7769,1135.4111],[-90.7353,14.7609,1218.9043],[-90.7388,14.7594,1238.7618],[-90.7596,14.736,1345.859],[-90.7593,14.7316,1455.9072],[-90.7562,14.7256,1569.3895],[-90.7392,14.7114,1684.921],[-90.7388,14.7077,1706.7004],[-90.7325,14.6994,1716.4562],[-90.7269,14.7005,1739.7473],[-90.7216,14.6963,1758.6768],[-90.7115,14.6963,1797.1564],[-90.7047,14.6945,1779.8008],[-90.6992,14.7015,1941.6104],[-90.6942,14.7005,1950.8149],[-90.6894,14.7081,1948.0305],[-90.6723,14.7057,1922.9385],[-90.6672,14.6827,2069.0005],[-90.6675,14.6705,2196.0222],[-90.666,14.6684,2188.8982],[-90.6424,14.6636,2168.1526],[-90.6321,14.6588,2028.8512],[-90.6309,14.6539,2031.6191],[-90.6362,14.6314,2120.9612],[-90.6342,14.6282,2130.7476],[-90.6291,14.6283,2089.291],[-90.6277,14.6247,2039.3521],[-90.6304,14.6217,2202.4712],[-90.6296,14.6036,1970.5769],[-90.6286,14.6021,1970.5769],[-90.62,14.6016,1830.4543],[-90.6117,14.5984,1652.0682],[-90.6029,14.5903,1533.4583],[-90.6051,14.5854,1562.1399],[-90.6099,14.5872,1643.2131],[-90.6172,14.5862,1702.6567],[-90.6225,14.5882,1914.3229],[-90.6221,14.5795,1753.8357],[-90.6319,14.563,1752.2991],[-90.632,14.5601,1706.4922],[-90.644,14.5548,1696.7527],[-90.6492,14.5547,1749.723],[-90.6577,14.5334,2152.7053],[-90.6586,14.5284,2085.0786],[-90.6566,14.5218,1728.5254],[-90.6638,14.5062,1852.4668],[-90.6639,14.4987,2103.4194],[-90.6664,14.492,1714.8958],[-90.6596,14.4833,1450.0662],[-90.6354,14.4606,1184.9257],[-90.6351,14.4491,1180.2],[-90.6322,14.4431,1193.4304],[-90.6262,14.4377,1206.1246],[-90.5878,14.427,1764.5693],[-90.5905,14.406,1843.2931],[-90.5879,14.3956,2317.4302],[-90.6105,14.3554,1327.5549],[-90.5905,14.3067,1179.8767],[-90.5775,14.2988,937.334],[-90.5757,14.2904,766.7546],[-90.569,14.2863,670.6635],[-90.5663,14.2785,675.3972]]]]}
,"properties": {"GID_1": "GTM.7_1","GID_0": "GTM","country": "Guatemala","province": "Guatemala","VARNAME_1": "NA","NL_NAME_1": "NA","TYPE_1": "Departamento","ENGTYPE_1": "Department","CC_1": "NA","HASC_1": "GT.GU","ISO_1": "GT-01","name": "Guatemala.province","area_km2": 2220.452,"hist_schema_id": "Elevation0-9000","hist_area_km2": {"400": 0.02,"425": 0.246,"450": 0.738,"475": 1.291,"500": 2.336,"525": 4.057,"550": 5.205,"575": 5.431,"600": 7.276,"625": 9.981,"650": 10.965,"675": 12.442,"700": 13.571,"725": 13.469,"750": 14.698,"775": 15.579,"800": 17.035,"825": 17.916,"850": 19.414,"875": 23.002,"900": 20.708,"925": 21.265,"950": 23.918,"975": 26.384,"1000": 27.204,"1025": 29.856,"1050": 31.414,"1075": 29.996,"1100": 31.802,"1125": 32.187,"1150": 32.21,"1175": 37.665,"1200": 75.891,"1225": 47.414,"1250": 46.183,"1275": 47.617,"1300": 51.351,"1325": 53.627,"1350": 51.944,"1375": 56.844,"1400": 60.066,"1425": 66.982,"1450": 69.321,"1475": 80.747,"1500": 88.913,"1525": 76.277,"1550": 62.488,"1575": 68.455,"1600": 53.237,"1625": 46.265,"1650": 43.538,"1675": 41.304,"1700": 38.208,"1725": 44.406,"1750": 41.716,"1775": 35.598,"1800": 32.868,"1825": 30.078,"1850": 31.083,"1875": 29.401,"1900": 30.879,"1925": 20.229,"1950": 15.038,"1975": 12.761,"2000": 10.197,"2025": 9.356,"2050": 8.761,"2075": 9.397,"2100": 10.793,"2125": 11.778,"2150": 10.69,"2175": 10.505,"2200": 9.603,"2225": 8.146,"2250": 6.218,"2275": 5.356,"2300": 5.479,"2325": 4.063,"2350": 3.509,"2375": 2.401,"2400": 1.683,"2425": 1.149,"2450": 0.39,"2475": 0.369,"2500": 0.267,"2525": 0.246,"2550": 0.082}}}