{"type":"Feature","properties":{"GID_2":"GTM.8.31_1","GID_0":"GTM","country":"Guatemala","GID_1":"GTM.8_1","province":"Huehuetenango","NL_NAME_1":"NA","county":"TodosSantosCuchumatán","VARNAME_2":"NA","NL_NAME_2":"NA","TYPE_2":"Municipio","ENGTYPE_2":"Municipality","CC_2":"NA","HASC_2":"NA","name":"Todos_Santos_Cuchumatán.county"},
"geometry":{"type": "MultiPolygon","coordinates": [[[[-91.4623,15.5955,2548.2373],[-91.4586,15.6194,2578.8677],[-91.4614,15.6229,2646.0464],[-91.5101,15.6403,2886.7949],[-91.5259,15.639099999999999,3036.145],[-91.5637,15.6458,2509.5852],[-91.5795,15.6454,2719.3394],[-91.5993,15.6499,3014.2087],[-91.614,15.6407,2547.3853],[-91.6271,15.6454,2371.7307],[-91.6446,15.6402,2020.6506],[-91.6462,15.6319,1737.1863],[-91.6566,15.6249,2157.7385],[-91.6416,15.5947,2560.9976],[-91.6375,15.5784,2655.4753],[-91.6316,15.566,2524.947],[-91.6301,15.5526,2627.9351],[-91.6215,15.5318,2512.7822],[-91.6057,15.5326,2966.9707],[-91.5975,15.5148,2597.9751],[-91.5773,15.5205,3631.0947],[-91.5632,15.4983,2947.3958],[-91.5489,15.5046,3691.0122],[-91.5371,15.4954,3704.8547],[-91.5301,15.4966,3722.5483],[-91.5182,15.4905,3614.3828],[-91.5038,15.4946,3552.3494],[-91.4884,15.4952,3577.001],[-91.488,15.5116,3514.646],[-91.4849,15.5291,3267.115],[-91.4866,15.5328,3296.9277],[-91.4766,15.5518,3155.2334],[-91.4681,15.552,2668.4858],[-91.4626,15.557,2600.7178],[-91.457,15.5714,2916.3647],[-91.4685,15.5818,2965.0464],[-91.4623,15.5955,2548.2373]]]]}}