{"type":"Feature","properties":{"GID_2":"GTM.17.10_1","GID_0":"GTM","country":"Guatemala","GID_1":"GTM.17_1","province":"SanMarcos","NL_NAME_1":"NA","county":"LaReforma","VARNAME_2":"NA","NL_NAME_2":"NA","TYPE_2":"Municipio","ENGTYPE_2":"Municipality","CC_2":"NA","HASC_2":"NA","name":"La_Reforma.county"},
"geometry":{"type": "MultiPolygon","coordinates": [[[[-91.7869,14.8682,2182.6755],[-91.7866,14.8787,2358.6899],[-91.799,14.8932,2777.9995],[-91.8118,14.875,2867.4521],[-91.8243,14.8693,2473.0229],[-91.8283,14.8657,2277.5503],[-91.8334,14.8566,2013.3022],[-91.829,14.8431,1507.7372],[-91.8299,14.8379,1420.2189],[-91.8414,14.8162,1028.3433],[-91.8423,14.8064,953.0272],[-91.8452,14.7982,929.6542],[-91.8517,14.7929,798.6572],[-91.8667,14.7859,596.1448],[-91.8716,14.7884,592.9745],[-91.8817,14.7823,525.827],[-91.8778,14.7729,580.112],[-91.8805,14.7709,559.3931],[-91.8833,14.7634,551.3141],[-91.8938,14.7506,436.7636],[-91.9174,14.7326,236.0252],[-91.8837,14.7273,423.1622],[-91.8766,14.7323,398.0338],[-91.8675,14.7428,414.3544],[-91.8626,14.7448,466.9564],[-91.859,14.7492,544.7954],[-91.8419,14.7594,672.6949],[-91.8267,14.7661,656.4058],[-91.8204,14.7724,748.0233],[-91.8119,14.7856,783.7432],[-91.8057,14.808,1077.4235],[-91.8015,14.8174,1284.9713],[-91.8043,14.8218,1343.5787],[-91.7999,14.8427,1659.1571],[-91.7962,14.8476,1789.3303],[-91.7869,14.8682,2182.6755]]]]}}