{"type": "Feature","bbox": [-91.6692,14.5876,-91.5174,14.6885],"geometry": {"type": "MultiPolygon","coordinates": [[[[-91.657,14.6083,416.519],[-91.6692,14.5892,323.8819],[-91.6545,14.5876,357.9842],[-91.6507,14.5885,372.7874],[-91.6267,14.6008,440.1931],[-91.6096,14.6147,547.8721],[-91.5818,14.6234,673.3505],[-91.573,14.6249,710.3225],[-91.5646,14.6225,721.1575],[-91.561,14.634,807.6275],[-91.5464,14.6556,986.7996],[-91.5414,14.6568,1017.4542],[-91.5336,14.6632,1091.1442],[-91.5229,14.6687,1224.6733],[-91.5174,14.6755,1356.8917],[-91.5225,14.6824,1207.8427],[-91.5235,14.681,1185.167],[-91.5305,14.6799,1123.0015],[-91.5338,14.6866,1126.9672],[-91.5334,14.6885,1131.551],[-91.5409,14.6778,1015.6095],[-91.5525,14.6698,915.8367],[-91.5715,14.6501,728.1484],[-91.5802,14.6516,719.5769],[-91.5871,14.6492,666.527],[-91.591,14.6458,654.5542],[-91.5916,14.6364,633.7714],[-91.5955,14.6324,609.8345],[-91.6086,14.626,558.6548],[-91.6101,14.6268,557.9308],[-91.6121,14.6336,577.3905],[-91.6091,14.6449,640.4276],[-91.6101,14.6489,674.2084],[-91.608,14.6534,698.6031],[-91.6256,14.6543,703.6076],[-91.6293,14.6421,632.5206],[-91.6376,14.6349,567.6293],[-91.639,14.6231,501.0287],[-91.6502,14.6117,418.2068],[-91.657,14.6083,416.519]]]]}
,"properties": {"GID_2": "GTM.15.6_1","GID_0": "GTM","country": "Guatemala","GID_1": "GTM.15_1","province": "Retalhuleu","NL_NAME_1": "NA","county": "SanFelipe","VARNAME_2": "NA","NL_NAME_2": "NA","TYPE_2": "Municipio","ENGTYPE_2": "Municipality","CC_2": "NA","HASC_2": "NA","name": "San_Felipe.county","area_km2": 44.8446,"hist_schema_id": "Elevation0-9000","hist_area_km2": {"325": 0.24622,"350": 0.9028,"375": 1.14901,"400": 2.2159,"425": 2.2774,"450": 2.15425,"475": 1.99008,"500": 1.43611,"525": 1.78485,"550": 2.15409,"575": 2.13356,"600": 1.90786,"625": 2.13349,"650": 1.72318,"675": 1.96933,"700": 2.0924,"725": 1.74371,"750": 1.51804,"775": 1.3334,"800": 1.21029,"825": 1.04617,"850": 0.69745,"875": 0.67692,"900": 0.71793,"925": 0.86151,"950": 0.65638,"975": 0.65637,"1000": 0.63585,"1025": 0.71789,"1050": 0.77942,"1075": 0.53329,"1100": 0.34869,"1125": 0.36919,"1150": 0.47175,"1175": 0.45124,"1200": 0.24613,"1225": 0.1846,"1250": 0.22562,"1275": 0.14357,"1300": 0.18459,"1325": 0.06153,"1350": 0.10255}}}