{"type": "Feature","bbox": [-92.14,14.5339,-91.8033,14.7285],"geometry": {"type": "MultiPolygon","coordinates": [[[[-91.8442,14.7145,503.2234],[-91.8467,14.7146,489.7378],[-91.8488,14.7183,489.2345],[-91.8535,14.7189,387.2518],[-91.8629,14.7175,383.2365],[-91.8772,14.7181,325.3486],[-91.8808,14.716,354.7631],[-91.8978,14.7182,256.7345],[-91.9015,14.7157,309.331],[-91.9067,14.7206,274.4795],[-91.9113,14.7203,362.3173],[-91.9126,14.7229,325.2973],[-91.9162,14.7225,332.0818],[-91.9183,14.7252,307.4772],[-91.925299999999993,14.7244,320.3069],[-91.9305,14.7285,215.5698],[-91.9345,14.726,213.6954],[-91.9362,14.7269,189.6558],[-91.9396,14.7237,276.947],[-91.9449,14.7257,181.3047],[-91.9509,14.7193,195.378],[-91.9553,14.717,160.0998],[-91.9559,14.7127,193.4158],[-91.961,14.7112,212.2793],[-91.968,14.7125,159.0751],[-91.9815,14.7105,151.6401],[-92.0098,14.7135,107.2341],[-92.0227,14.7176,85.0922],[-92.0275,14.7172,84.5212],[-92.0324,14.7133,73.7195],[-92.0384,14.7128,70.8465],[-92.042,14.7083,72.7801],[-92.0525,14.7067,57.2325],[-92.0602,14.6945,47.6616],[-92.065,14.6908,53.0859],[-92.0713,14.6827,46.9526],[-92.0835,14.6846,33.6115],[-92.0886,14.6793,30.2107],[-92.0929,14.6647,30.7302],[-92.0969,14.6583,26.215699999999998],[-92.1035,14.6594,24.4215],[-92.1066,14.6575,19.8314],[-92.1084,14.6515,19.9261],[-92.1163,14.6408,16.6658],[-92.1391,14.6253,18.7865],[-92.14,14.6168,16.7516],[-92.0868,14.5917,8.3635],[-92.0849,14.5977,5.1974],[-92.0542,14.5875,8.4346],[-92.0556,14.5711,10.1669],[-92.050299999999993,14.5653,12.4217],[-92.036,14.5594,13.391],[-92.0253,14.5505,15.2369],[-92.007,14.5458,24.3832],[-91.9968,14.5381,28.2917],[-91.9755,14.5387,24.4893],[-91.972,14.5368,26.7661],[-91.9711,14.5339,20.5406],[-91.9687,14.5346,24.7018],[-91.9353,14.5575,37.0187],[-91.9263,14.5565,40.7157],[-91.915,14.5585,49.947],[-91.9017,14.5545,57.3137],[-91.8949,14.5555,72.1374],[-91.8845,14.5596,92.988],[-91.8783,14.5661,104.5159],[-91.8881,14.5708,114.7476],[-91.9085,14.577,86.1397],[-91.9151,14.5807,88.7917],[-91.9102,14.583,85.0075],[-91.908,14.5934,121.2827],[-91.9208,14.6005,117.8536],[-91.9166,14.6038,125.3711],[-91.913,14.6035,128.7826],[-91.8848,14.6298,245.8309],[-91.8851,14.6356,242.8661],[-91.8936,14.6479,237.2888],[-91.8948,14.6567,292.0621],[-91.893,14.6587,308.2685],[-91.8831,14.6545,277.3422],[-91.8787,14.6564,291.96],[-91.8728,14.6654,353.7387],[-91.8621,14.6694,396.9697],[-91.8607,14.6723,430.0978],[-91.8551,14.6741,444.3739],[-91.8546,14.6758,460.905],[-91.8355,14.6802,566.527],[-91.828,14.676,589.4116],[-91.8212,14.6746,599.1899],[-91.8033,14.6871,712.7753],[-91.8105,14.6942,693.7444],[-91.8142,14.6952,687.9102],[-91.8093,14.7004,671.8934],[-91.8085,14.706,665.383],[-91.8222,14.7104,593.301],[-91.833,14.7101,551.7744],[-91.8442,14.7145,503.2234]]]]}
,"properties": {"GID_2": "GTM.13.5_1","GID_0": "GTM","country": "Guatemala","GID_1": "GTM.13_1","province": "Quezaltenango","NL_NAME_1": "NA","county": "Coatepeque","VARNAME_2": "NA","NL_NAME_2": "NA","TYPE_2": "Municipio","ENGTYPE_2": "Municipality","CC_2": "NA","HASC_2": "NA","name": "Coatepeque.county","area_km2": 423.0775,"hist_schema_id": "Elevation0-9000","hist_area_km2": {"0": 52.2363,"25": 98.7278,"50": 42.5486,"75": 34.3826,"100": 28.5142,"125": 17.8871,"150": 18.7687,"175": 16.1429,"200": 12.5533,"225": 10.8709,"250": 10.0911,"275": 8.8398,"300": 7.9371,"325": 9.2086,"350": 8.5727,"375": 8.0394,"400": 7.4036,"425": 5.0041,"450": 2.9327,"475": 3.7735,"500": 3.3018,"525": 2.6046,"550": 2.6251,"575": 2.5021,"600": 2.0509,"625": 1.8253,"650": 1.7228,"675": 1.5792,"700": 0.3897,"725": 0.041}}}