{"type": "Feature","bbox": [-91.3129,14.6066,-91.236,14.6983],"geometry": {"type": "MultiPolygon","coordinates": [[[[-91.2776,14.6955,1565.1497],[-91.2808,14.6865,1796.8542],[-91.2817,14.6765,1960.8187],[-91.2881,14.6575,2154.572],[-91.296,14.6444,2159.2273],[-91.3102,14.6313,2523.4915],[-91.3057,14.6258,2572.96],[-91.3117,14.6209,2280.7754],[-91.3129,14.6147,1944.5671],[-91.303,14.6129,1827.2694],[-91.2998,14.6091,1656.062],[-91.2854,14.6066,1553.8074],[-91.2635,14.6235,1596.7775],[-91.2572,14.6252,1559.77],[-91.2575,14.6276,1581.2191],[-91.2445,14.6394,1559.5332],[-91.2453,14.6413,1619.3336],[-91.2417,14.6412,1592.7686],[-91.2396,14.649,1580.7498],[-91.236,14.6519,1595.5651],[-91.236,14.6549,1576.0549],[-91.2398,14.6571,1561.002],[-91.2375,14.663,1566.2332],[-91.2421,14.6667,1655.6575],[-91.2415,14.6732,1579.705],[-91.2451,14.6776,1555.5],[-91.2554,14.6812,1555.5],[-91.264,14.6881,1564.3867],[-91.2647,14.6904,1558.4017],[-91.2684,14.6913,1575.8455],[-91.2709,14.6965,1563.3901],[-91.2703,14.6983,1555.5],[-91.276,14.6939,1557.1578],[-91.2776,14.6955,1565.1497]]]]}
,"properties": {"GID_2": "GTM.19.12_1","GID_0": "GTM","country": "Guatemala","GID_1": "GTM.19_1","province": "Sololá","NL_NAME_1": "NA","county": "SanPedroLaLaguna","VARNAME_2": "NA","NL_NAME_2": "NA","TYPE_2": "Municipio","ENGTYPE_2": "Municipality","CC_2": "NA","HASC_2": "NA","name": "San_Pedro_La_Laguna.county","area_km2": 43.11854,"hist_schema_id": "Elevation0-9000","hist_area_km2": {"1375": 0.02052,"1425": 0.02052,"1450": 0.02052,"1500": 0.02052,"1525": 0.06155,"1550": 0.43073,"1575": 1.23063,"1600": 1.29221,"1625": 1.00513,"1650": 0.96409,"1675": 1.43587,"1700": 1.10769,"1725": 0.9641,"1750": 1.29233,"1775": 1.18978,"1800": 0.80001,"1825": 1.10773,"1850": 1.14874,"1875": 1.23081,"1900": 1.12825,"1925": 0.96414,"1950": 1.0257,"1975": 1.2308,"2000": 1.14878,"2025": 1.00517,"2050": 1.00517,"2075": 1.10773,"2100": 1.23083,"2125": 1.35391,"2150": 1.45645,"2175": 1.1077,"2200": 1.04616,"2225": 1.16924,"2250": 1.04617,"2275": 0.77951,"2300": 0.82052,"2325": 0.82053,"2350": 0.71797,"2375": 0.71795,"2400": 0.67694,"2425": 0.67693,"2450": 0.67694,"2475": 0.38975,"2500": 0.43078,"2525": 0.36924,"2550": 0.28718,"2575": 0.26667,"2600": 0.43078,"2625": 0.28718,"2650": 0.36924,"2675": 0.20513,"2700": 0.28719,"2725": 0.24616,"2750": 0.20513,"2775": 0.18461,"2800": 0.12308,"2825": 0.1641,"2850": 0.06154,"2875": 0.06154,"2900": 0.10256,"2925": 0.08205,"2950": 0.1641,"2975": 0.06154,"3000": 0.06154,"3025": 0.02051}}}