{"type": "Feature","bbox": [-90.4763,14.3579,-90.3793,14.5553],"geometry": {"type": "MultiPolygon","coordinates": [[[[-90.4175,14.5553,1755.9873],[-90.4393,14.5437,1904.2061],[-90.4359,14.5323,1886.0977],[-90.451,14.5329,1912.033],[-90.4545,14.5372,1908.382],[-90.4632,14.5306,1910.7639],[-90.4685,14.5234,1899.23],[-90.4683,14.5192,1881.0709],[-90.4725,14.5152,1866.123],[-90.4736,14.5035,1825.3159],[-90.4762,14.4998,1817.0962],[-90.4763,14.4792,1729.8608],[-90.4747,14.4742,1699.9922],[-90.4719,14.4724,1690.4854],[-90.4665,14.4724,1616.7534],[-90.4642,14.4526,1520.6589],[-90.471,14.4431,1488.4929],[-90.473,14.4373,1462.2378],[-90.4737,14.4254,1388.9565],[-90.4692,14.4175,1361.7661],[-90.4551,14.4101,1251.6207],[-90.4525,14.406,1215.0304],[-90.4479,14.3828,1086.645],[-90.4438,14.379,1118.9645],[-90.4411,14.3689,1102.8292],[-90.4368,14.363,1072.9158],[-90.4296,14.3579,1052.1145],[-90.4329,14.3668,1060.1541],[-90.4356,14.3826,1109.9841],[-90.4351,14.3931,1121.3912],[-90.4395,14.4041,1200.1112],[-90.4388,14.4093,1264.7485],[-90.4371,14.4128,1352.8667],[-90.4155,14.4338,1520.9045],[-90.4141,14.4373,1377.5883],[-90.4154,14.4617,1642.1901],[-90.4134,14.4733,1748.5579],[-90.4111,14.4771,1736.0244],[-90.407,14.4811,1768.0121],[-90.4021,14.4793,1802.8557],[-90.3995,14.4821,1791.5703],[-90.3892,14.4847,1713.8003],[-90.3924,14.4908,1676.0226],[-90.3831,14.4954,1648.9556],[-90.3793,14.4946,1594.9332],[-90.3835,14.5023,1812.2777],[-90.3811,14.5073,1760.4285],[-90.3806,14.5237,1750.1353],[-90.3907,14.5338,1717.578],[-90.4048,14.5359,1718.2261],[-90.4161,14.5481,1753.4385],[-90.4175,14.5553,1755.9873]]]]}
,"properties": {"GID_2": "GTM.7.4_1","GID_0": "GTM","country": "Guatemala","GID_1": "GTM.7_1","province": "Guatemala","NL_NAME_1": "NA","county": "Fraijanes","VARNAME_2": "NA","NL_NAME_2": "NA","TYPE_2": "Municipio","ENGTYPE_2": "Municipality","CC_2": "NA","HASC_2": "NA","name": "Fraijanes.county","area_km2": 110.30143,"hist_schema_id": "Elevation0-9000","hist_area_km2": {"1050": 0.36971,"1075": 1.10907,"1100": 1.47871,"1125": 1.51973,"1150": 0.84199,"1175": 0.49286,"1200": 0.41071,"1225": 0.43124,"1250": 0.28749,"1275": 0.45177,"1300": 0.90352,"1325": 1.04725,"1350": 1.08831,"1375": 1.43737,"1400": 1.80695,"1425": 1.58105,"1450": 1.93008,"1475": 1.95057,"1500": 2.2791,"1525": 3.18245,"1550": 2.95654,"1575": 4.06519,"1600": 3.96244,"1625": 4.41404,"1650": 4.04433,"1675": 5.25528,"1700": 7.55413,"1725": 11.63861,"1750": 10.32474,"1775": 7.65648,"1800": 5.66528,"1825": 4.2078,"1850": 4.47451,"1875": 3.44809,"1900": 3.83792,"1925": 1.31356,"1950": 0.49259,"1975": 0.30786,"2000": 0.06157,"2025": 0.02052}}}