{"type":"Feature","properties":{"GID_2":"GTM.13.12_1","GID_0":"GTM","country":"Guatemala","GID_1":"GTM.13_1","province":"Quezaltenango","NL_NAME_1":"NA","county":"LaEsperanza","VARNAME_2":"NA","NL_NAME_2":"NA","TYPE_2":"Municipio","ENGTYPE_2":"Municipality","CC_2":"NA","HASC_2":"NA","name":"La_Esperanza.county"},
"geometry":{"type": "MultiPolygon","coordinates": [[[[-91.5794,14.8916,2539.6187],[-91.591,14.8869,2484.5015],[-91.5985,14.8811,2428.5327],[-91.588,14.8624,2483.3315],[-91.5844,14.8611,2484.2004],[-91.5802,14.8563,2515.1541],[-91.5771,14.8471,2629.8452],[-91.5699,14.8503,2541.5457],[-91.5674,14.8578,2498.8838],[-91.5626,14.8614,2479.949],[-91.5588,14.8605,2480.0303],[-91.5568,14.8645,2462.7415],[-91.5587,14.8662,2463.0715],[-91.5489,14.8698,2426.1021],[-91.5511,14.8769,2446.5554],[-91.554,14.879,2447.626],[-91.5621,14.8791,2455.8418],[-91.567,14.8814,2395.8552],[-91.5713,14.891,2638.8628],[-91.5794,14.8916,2539.6187]]]]}}