{"type": "Feature","bbox": [-90.6988,14.5252,-90.6492,14.5602],"geometry": {"type": "MultiPolygon","coordinates": [[[[-90.6549,14.5389,1950.4281],[-90.6492,14.5547,1749.723],[-90.6536,14.5588,1825.0862],[-90.6713,14.5572,1978.8849],[-90.6921,14.5602,1885.199],[-90.6947,14.557,1885.9443],[-90.6931,14.554,1924.4443],[-90.6958,14.5531,1926.4246],[-90.6987,14.5544,1884.7743],[-90.6988,14.5474,1894.2449],[-90.6926,14.5409,2065.3684],[-90.687,14.54,2116.7983],[-90.6826,14.5258,2362.4001],[-90.6717,14.5252,2189.0347],[-90.6586,14.5284,2085.0786],[-90.6549,14.5389,1950.4281]]]]}
,"properties": {"GID_2": "GTM.16.5_1","GID_0": "GTM","country": "Guatemala","GID_1": "GTM.16_1","province": "Sacatepéquez","NL_NAME_1": "NA","county": "MagdalenaMilpasAltas","VARNAME_2": "NA","NL_NAME_2": "NA","TYPE_2": "Municipio","ENGTYPE_2": "Municipality","CC_2": "NA","HASC_2": "NA","name": "Magdalena_Milpas_Altas.county","area_km2": 14.30436,"hist_schema_id": "Elevation0-9000","hist_area_km2": {"1725": 0.06157,"1750": 0.02052,"1775": 0.06157,"1800": 0.10261,"1825": 0.12313,"1850": 0.28731,"1875": 0.24627,"1900": 0.53357,"1925": 0.77983,"1950": 0.71827,"1975": 1.35445,"2000": 1.35446,"2025": 1.51866,"2050": 1.10823,"2075": 0.7183,"2100": 0.61569,"2125": 0.49256,"2150": 0.6157,"2175": 0.6157,"2200": 0.63623,"2225": 0.36943,"2250": 0.431,"2275": 0.36943,"2300": 0.18472,"2325": 0.26681,"2350": 0.22577,"2375": 0.16419,"2400": 0.14367,"2425": 0.10262,"2450": 0.04105,"2475": 0.04105}}}