{"type":"Feature","properties":{"GID_2":"GTM.17.13_1","GID_0":"GTM","country":"Guatemala","GID_1":"GTM.17_1","province":"SanMarcos","NL_NAME_1":"NA","county":"Ocos","VARNAME_2":"NA","NL_NAME_2":"NA","TYPE_2":"Municipio","ENGTYPE_2":"Municipality","CC_2":"NA","HASC_2":"NA","name":"Ocos.county"},
"geometry":{"type": "MultiPolygon","coordinates": [[[[-92.14,14.6168,16.7516],[-92.154,14.5953,15.6608],[-92.1698,14.601,16.0774],[-92.176,14.6007,14.2862],[-92.1758,14.6099,12.5235],[-92.1771,14.6087,15.0993],[-92.178,14.6005,11.1861],[-92.1818,14.5911,12.5346],[-92.1833,14.5777,7.335],[-92.1982,14.5643,6.6995],[-92.2043,14.5643,6.5149],[-92.2084,14.559,5.662],[-92.2155,14.5566,5.9627],[-92.2168,14.5448,3.3623],[-92.2224,14.531,6.2157],[-92.1921,14.5049,0.3443],[-92.189,14.504,0.0],[-92.1893,14.5063,0.0],[-92.1835,14.5088,2.1835],[-92.1862,14.5032,0.7064],[-92.1826,14.4987,0.0],[-92.1804,14.4982,2.1207],[-92.1799,14.5018,9.2027],[-92.1746,14.5021,15.7865],[-92.1735,14.4993,12.8716],[-92.1779,14.501,0.5],[-92.1743,14.4979,2.8045],[-92.1751,14.4949,1.1941],[-92.1643,14.4863,0.6843],[-92.159,14.4911,18.8587],[-92.1525,14.4903,16.7048],[-92.1428,14.4937,12.9431],[-92.1437,14.5009,17.782],[-92.1425,14.5036,3.903],[-92.1393,14.507,10.9274],[-92.1344,14.508,4.6514],[-92.133,14.5102,12.0826],[-92.1246,14.508,6.6895],[-92.1232,14.5046,2.1757],[-92.1197,14.5066,5.0853],[-92.1179,14.5033,6.8799],[-92.1146,14.5044,3.2972],[-92.1151,14.5096,2.3521],[-92.1088,14.5161,3.6016],[-92.109,14.5228,5.5103],[-92.1044,14.5267,5.4388],[-92.1052,14.5304,5.5234],[-92.0817,14.5409,7.592],[-92.08,14.5481,8.7582],[-92.0608,14.5573,9.3304],[-92.0587,14.5605,17.5739],[-92.050299999999993,14.5653,12.4217],[-92.0556,14.5711,10.1669],[-92.0542,14.5875,8.4346],[-92.0849,14.5977,5.1974],[-92.0868,14.5917,8.3635],[-92.14,14.6168,16.7516]]]]}}