{"type": "Feature","bbox": [-89.3754,14.6405,-89.2231,14.7522],"geometry": {"type": "MultiPolygon","coordinates": [[[[-89.2231,14.7522,602.9624],[-89.2329,14.7512,605.6213],[-89.2393,14.7472,704.3563],[-89.2622,14.7452,747.762],[-89.2753,14.7347,923.8867],[-89.2894,14.733,883.298],[-89.2924,14.7354,901.611],[-89.2967,14.7304,1012.5434],[-89.3014,14.7295,1058.468],[-89.3154,14.7315,1172.5992],[-89.3246,14.7395,1353.0254],[-89.328,14.7506,1388.1887],[-89.3508,14.7367,1062.3037],[-89.3611,14.7232,1102.9814],[-89.3595,14.709,1271.4205],[-89.3717,14.7024,1491.9491],[-89.3706,14.6959,1505.9402],[-89.3753,14.6921,1627.9913],[-89.3754,14.6826,1475.6001],[-89.3724,14.6788,1384.3962],[-89.3667,14.6737,1385.5864],[-89.362799999999993,14.6732,1376.5073],[-89.3604,14.6696,1309.6653],[-89.3525,14.6677,1309.024],[-89.3508,14.6658,1332.8738],[-89.3526,14.6607,1228.6836],[-89.3657,14.6522,1623.6661],[-89.364,14.6471,1435.8956],[-89.3326,14.6545,1182.8655],[-89.3206,14.6483,1103.3757],[-89.3078,14.6486,1005.7933],[-89.3013,14.6405,972.8908],[-89.2921,14.6488,969.985],[-89.2907,14.6529,962.0245],[-89.2873,14.6533,979.4454],[-89.2709,14.6663,1057.9561],[-89.2789,14.6733,1017.2832],[-89.2789,14.6772,1049.788],[-89.2765,14.6814,1121.0817],[-89.2793,14.6872,1165.8271],[-89.2727,14.6926,966.2532],[-89.2474,14.707,825.317],[-89.2456,14.7113,735.1383],[-89.2369,14.7202,727.1627],[-89.2367,14.7224,676.5859],[-89.2507,14.7278,804.4922],[-89.2253,14.7464,633.6366],[-89.2231,14.7522,602.9624]]]]}
,"properties": {"GID_2": "GTM.4.7_1","GID_0": "GTM","country": "Guatemala","GID_1": "GTM.4_1","province": "Chiquimula","NL_NAME_1": "NA","county": "Olopa","VARNAME_2": "NA","NL_NAME_2": "NA","TYPE_2": "Municipio","ENGTYPE_2": "Municipality","CC_2": "NA","HASC_2": "NA","name": "Olopa.county","area_km2": 109.20686,"hist_schema_id": "Elevation0-9000","hist_area_km2": {"600": 0.10252,"625": 0.67662,"650": 0.71765,"675": 0.71767,"700": 0.96375,"725": 1.55842,"750": 1.88651,"775": 1.49693,"800": 1.51742,"825": 1.68149,"850": 1.31238,"875": 1.04583,"900": 0.88179,"925": 1.04583,"950": 1.9484,"975": 5.2712,"1000": 3.79433,"1025": 3.5686,"1050": 4.08127,"1075": 4.63499,"1100": 4.8195499999999996,"1125": 5.02469,"1150": 5.66038,"1175": 5.88592,"1200": 5.7014,"1225": 5.22968,"1250": 5.72192,"1275": 5.16817,"1300": 4.96306,"1325": 4.40935,"1350": 3.63001,"1375": 3.79405,"1400": 3.09674,"1425": 1.68167,"1450": 1.43558,"1475": 0.96388,"1500": 0.79983,"1525": 0.92286,"1550": 0.59473,"1575": 0.30761,"1600": 0.20508,"1625": 0.06152,"1650": 0.18457,"1675": 0.04102}}}