{"type": "Feature","bbox": [-90.0634,13.9378,-89.9248,14.0941],"geometry": {"type": "MultiPolygon","coordinates": [[[[-89.9255,14.0059,291.4202],[-89.9248,14.007,291.4202],[-89.9374,14.0114,504.1086],[-89.9384,14.014099999999999,528.7178],[-89.9567,14.0137,739.3817],[-89.9604,14.0187,738.4822],[-89.9587,14.0259,578.1995],[-89.9641,14.0305,602.7108],[-89.9652,14.0335,612.3882],[-89.9643,14.0368,550.438],[-89.9677,14.0375,583.545],[-89.9695,14.048,547.7264],[-89.9686,14.0552,539.7026],[-89.9623,14.062,543.841],[-89.9624,14.0685,494.7267],[-89.9837,14.0786,712.8212],[-89.9883,14.073,826.2261],[-89.9937,14.0727,813.3142],[-89.9945,14.0783,706.5622],[-89.9919,14.0801,744.176],[-89.9932,14.0804,706.7184],[-89.9991,14.0941,552.7765],[-90.0205,14.0893,834.7922],[-90.0243,14.0861,855.0695],[-90.0295,14.088,884.0433],[-90.0336,14.0852,975.0891],[-90.0489,14.0827,1042.3339],[-90.0478,14.0735,1177.2719],[-90.0528,14.0596,1295.8813],[-90.0575,14.0605,1233.7909],[-90.0621,14.0464,1315.5823],[-90.0617,14.0434,1292.9583],[-90.0539,14.0377,1169.7609],[-90.0524,14.0293,1240.9993],[-90.0466,14.0255,1047.5377],[-90.0453,14.0144,848.3433],[-90.0585,14.0199,983.6505],[-90.0634,14.0039,907.6355],[-90.0488,13.987,700.0439],[-90.0473,13.9796,608.1484],[-90.0394,13.9725,521.6174],[-90.0392,13.9555,517.8447],[-90.021,13.9378,251.7803],[-90.0108,13.9423,199.2236],[-90.0098,13.9441,153.9743],[-90.0051,13.9447,260.5829],[-90.0041,13.9483,232.5945],[-89.998,13.9534,224.7761],[-89.9884,13.9569,198.8668],[-89.9865,13.9592,224.3598],[-89.9849,13.9581,252.6956],[-89.9757,13.9611,264.6086],[-89.9713,13.9663,329.9942],[-89.9599,13.9709,319.6578],[-89.9555,13.9759,374.5096],[-89.9578,13.9809,393.5616],[-89.9571,13.9821,424.8832],[-89.9551,13.9809,353.4201],[-89.9478,13.9822,263.2177],[-89.9381,13.9879,256.3217],[-89.934,13.9957,334.2941],[-89.9292,13.9966,344.8073],[-89.9255,14.0059,291.4202]]]]}
,"properties": {"GID_2": "GTM.11.5_1","GID_0": "GTM","country": "Guatemala","GID_1": "GTM.11_1","province": "Jutiapa","NL_NAME_1": "NA","county": "Conguaco","VARNAME_2": "NA","NL_NAME_2": "NA","TYPE_2": "Municipio","ENGTYPE_2": "Municipality","CC_2": "NA","HASC_2": "NA","name": "Conguaco.county","area_km2": 149.5708,"hist_schema_id": "Elevation0-9000","hist_area_km2": {"150": 0.4115,"175": 0.679,"200": 0.6996,"225": 0.8642,"250": 1.358,"275": 1.4197,"300": 1.8929,"325": 1.2139,"350": 1.3373,"375": 1.4608,"400": 1.7489,"425": 4.0533,"450": 3.1891,"475": 3.6622,"500": 4.6085,"525": 6.172,"550": 5.5343,"575": 4.7728,"600": 5.5749,"625": 6.9326,"650": 6.4182,"675": 5.5747,"700": 7.8785,"725": 6.418,"750": 5.2865,"775": 4.7311,"800": 4.6488,"825": 4.4019,"850": 4.7308,"875": 3.6407,"900": 2.3653,"925": 2.1391,"950": 2.1185,"975": 2.0568,"1000": 2.3035,"1025": 2.2418,"1050": 2.1596,"1075": 1.8922,"1100": 1.9128,"1125": 2.3035,"1150": 1.8717,"1175": 1.4192,"1200": 2.0156,"1225": 1.7688,"1250": 1.9951,"1275": 2.1802,"1300": 2.6121,"1325": 2.0774,"1350": 0.5553,"1375": 0.1851,"1400": 0.0823}}}