{"type": "Feature","bbox": [-90.5211,14.5729,-90.4876,14.616],"geometry": {"type": "MultiPolygon","coordinates": [[[[-90.4942,14.5729,1571.6586],[-90.4932,14.576,1525.3929],[-90.4879,14.5764,1596.3336],[-90.4876,14.5795,1570.2266],[-90.4903,14.5787,1557.8342],[-90.4955,14.5814,1537.0864],[-90.5024,14.5913,1510.0229],[-90.5064,14.6036,1503.7362],[-90.5065,14.6131,1496.3315],[-90.516,14.616,1502.6871],[-90.5211,14.5948,1507.0527],[-90.516,14.5899,1508.9496],[-90.5061,14.5845,1509.2384],[-90.4942,14.5729,1571.6586]]]]}
,"properties": {"GID_2": "GTM.7.18_1","GID_0": "GTM","country": "Guatemala","GID_1": "GTM.7_1","province": "Guatemala","NL_NAME_1": "NA","county": "ZONA10","VARNAME_2": "NA","NL_NAME_2": "NA","TYPE_2": "Municipio","ENGTYPE_2": "Municipality","CC_2": "NA","HASC_2": "NA","name": "Z_O_N_A10.county","area_km2": 5.724517,"hist_schema_id": "Elevation0-9000","hist_area_km2": {"1425": 0.02052,"1450": 0.02052,"1475": 0.10259,"1500": 4.144557,"1525": 1.025939,"1550": 0.328313,"1575": 0.082079}}}