{"type": "Feature","bbox": [-90.5575,14.5389,-90.5343,14.5608],"geometry": {"type": "MultiPolygon","coordinates": [[[[-90.5378,14.5389,1318.6761],[-90.5343,14.5496,1360.8861],[-90.5368,14.5515,1361.417],[-90.5391,14.5569,1399.9707],[-90.538,14.5576,1407.8058],[-90.5405,14.5604,1444.3063],[-90.5453,14.5604,1435.4384],[-90.5462,14.556,1422.5487],[-90.5499,14.5608,1432.6404],[-90.552,14.5558,1421.2366],[-90.5558,14.5555,1409.0083],[-90.5549,14.5484,1399.4409],[-90.5575,14.5434,1354.943],[-90.5378,14.5389,1318.6761]]]]}
,"properties": {"GID_2": "GTM.7.29_1","GID_0": "GTM","country": "Guatemala","GID_1": "GTM.7_1","province": "Guatemala","NL_NAME_1": "NA","county": "ZONA22","VARNAME_2": "NA","NL_NAME_2": "NA","TYPE_2": "Municipio","ENGTYPE_2": "Municipality","CC_2": "NA","HASC_2": "NA","name": "Z_O_N_A22.county","area_km2": 4.001844,"hist_schema_id": "Elevation0-9000","hist_area_km2": {"1300": 0.102614,"1325": 0.410457,"1350": 0.492543,"1375": 0.615674,"1400": 0.697753,"1425": 1.518631,"1450": 0.164173}}}