{"type":"Feature","properties":{"GID_2":"GTM.7.10_1","GID_0":"GTM","country":"Guatemala","GID_1":"GTM.7_1","province":"Guatemala","NL_NAME_1":"NA","county":"SanJuanSacatepéquez","VARNAME_2":"NA","NL_NAME_2":"NA","TYPE_2":"Municipio","ENGTYPE_2":"Municipality","CC_2":"NA","HASC_2":"NA","name":"San_Juan_Sacatepéquez.county"},
"geometry":{"type": "MultiPolygon","coordinates": [[[[-90.6156,14.8776,669.3757],[-90.6231,14.8781,682.8208],[-90.6264,14.873,755.8739],[-90.6325,14.8724,761.2475],[-90.6374,14.8667,693.8165],[-90.6437,14.8659,727.6395],[-90.6469,14.8621,724.8156],[-90.653,14.8639,770.4199],[-90.6628,14.8579,755.8574],[-90.6605,14.8545,819.6389],[-90.6636,14.8489,896.431],[-90.668,14.8465,849.4091],[-90.6759,14.8458,800.1171],[-90.6803,14.8403,839.8954],[-90.6929,14.8332,961.3669],[-90.6923,14.8271,943.2753],[-90.6954,14.8161,976.8407],[-90.6852,14.8053,1035.3054],[-90.6874,14.8007,1057.9073],[-90.6923,14.7975,1075.9866],[-90.6943,14.7933,1142.2274],[-90.701,14.7925,1182.8579],[-90.7093,14.7778,1118.969],[-90.7171,14.7769,1135.4111],[-90.7353,14.7609,1218.9043],[-90.7388,14.7594,1238.7618],[-90.7596,14.736,1345.859],[-90.7593,14.7316,1455.9072],[-90.7562,14.7256,1569.3895],[-90.7392,14.7114,1684.921],[-90.7388,14.7077,1706.7004],[-90.7325,14.6994,1716.4562],[-90.7269,14.7005,1739.7473],[-90.7216,14.6963,1758.6768],[-90.7115,14.6963,1797.1564],[-90.7047,14.6945,1779.8008],[-90.6992,14.7015,1941.6104],[-90.6942,14.7005,1950.8149],[-90.6894,14.7081,1948.0305],[-90.6723,14.7057,1922.9385],[-90.6672,14.6827,2069.0005],[-90.6564,14.692,2059.574],[-90.6482,14.6942,2063.4736],[-90.6456,14.6973,2021.6697],[-90.6454,14.7017,1985.7615],[-90.6358,14.7046,1872.9109],[-90.6323,14.6958,2020.5317],[-90.6279,14.6986,1968.0787],[-90.6269,14.6972,1968.0787],[-90.6195,14.6994,1992.4528],[-90.6148,14.7055,1911.0803],[-90.6098,14.698,1854.9777],[-90.6104,14.695,1864.7081],[-90.6082,14.6943,1835.3799],[-90.6022,14.6868,1710.4452],[-90.5983,14.6863,1673.524],[-90.5924,14.6891,1631.6008],[-90.5855,14.6869,1618.3008],[-90.5699,14.6954,1516.0334],[-90.5599,14.6975,1507.9336],[-90.5518,14.7015,1418.6949],[-90.5362,14.7222,1421.0573],[-90.5225,14.7253,1382.2057],[-90.5218,14.7274,1366.8025],[-90.5317,14.725,1402.949],[-90.5367,14.7272,1393.5996],[-90.5588,14.7224,1470.2144],[-90.5632,14.7225,1499.4213],[-90.568,14.7249,1544.1613],[-90.5736,14.7232,1576.7092],[-90.5943,14.7264,1763.9933],[-90.5953,14.7309,1756.254],[-90.6011,14.7326,1711.9312],[-90.6002,14.746,1651.387],[-90.6059,14.7414,1628.7231],[-90.6106,14.7415,1686.0236],[-90.6153,14.7523,1579.4232],[-90.6124,14.7536,1579.3464],[-90.6029,14.7692,1575.093],[-90.5985,14.7723,1579.4666],[-90.6055,14.78,1590.468],[-90.6091,14.7801,1571.5468],[-90.5912,14.8005,1460.3569],[-90.5848,14.7962,1427.6278],[-90.5739,14.798,1339.767],[-90.5688,14.7964,1300.2162],[-90.5679,14.7986,1283.3928],[-90.5685,14.8077,1191.1689],[-90.5666,14.8135,1097.6637],[-90.5716,14.8261,1014.7581],[-90.5707,14.828,1019.453],[-90.5656,14.8301,1007.592],[-90.565,14.8322,1037.7345],[-90.5732,14.8438,901.0715],[-90.5765,14.84,910.7271],[-90.5779,14.8412,864.423],[-90.5785,14.8448,815.887],[-90.5797,14.8435,831.4977],[-90.5807,14.845,779.3602],[-90.5804,14.8499,882.2446],[-90.5723,14.8602,823.6976],[-90.5633,14.8658,855.9808],[-90.5597,14.8766,703.9811],[-90.5624,14.8748,657.4149],[-90.5628,14.8773,796.6599],[-90.5679,14.8771,699.5781],[-90.5758,14.873,698.0616],[-90.5833,14.8747,648.7479],[-90.5874,14.8781,700.8188],[-90.5913,14.8733,644.4935],[-90.6103,14.8815,782.8546],[-90.6156,14.8776,669.3757]]]]}}