{"type": "Feature","bbox": [-89.6615,15.1589,-89.0983,15.7852],"geometry": {"type": "MultiPolygon","coordinates": [[[[-89.5887,15.6586,565.4662],[-89.6615,15.5662,387.8179],[-89.6042,15.5026,269.6172],[-89.6148,15.479,667.9951],[-89.6207,15.4765,671.2108],[-89.6239,15.4707,786.8317],[-89.6244,15.4649,746.7547],[-89.6315,15.4638,666.0125],[-89.6384,15.4535,475.7795],[-89.6437,15.4524,473.2382],[-89.6401,15.4464,369.4344],[-89.6446,15.4375,365.984],[-89.6417,15.4261,143.6017],[-89.6385,15.4225,57.1277],[-89.6366,15.4124,31.8981],[-89.6309,15.4032,10.5798],[-89.6348,15.3856,10.5875],[-89.6284,15.385,10.4892],[-89.6335,15.3793,11.2598],[-89.6272,15.3762,9.4996],[-89.631,15.3719,11.2158],[-89.6282,15.3687,13.7714],[-89.6297,15.366,10.774],[-89.6356,15.3709,11.2421],[-89.6366,15.3673,11.8226],[-89.6235,15.2744,693.8684],[-89.6279,15.2714,728.161],[-89.6287,15.2665,634.0729],[-89.6207,15.2541,603.5236],[-89.6268,15.2353,689.3124],[-89.6266,15.23,754.2134],[-89.6336,15.2153,1106.9993],[-89.626,15.203,1341.3423],[-89.6229,15.1899,1519.7922],[-89.6262,15.1798,1965.8229],[-89.6243,15.1753,1928.2128],[-89.6119,15.1619,2514.574],[-89.611,15.1589,2447.1523],[-89.5655,15.1763,2079.8459],[-89.562,15.1823,2134.2051],[-89.5587,15.1827,1993.3823],[-89.55,15.1755,1895.6031],[-89.5361,15.1735,1824.6672],[-89.5155,15.1768,1860.7883],[-89.5025,15.1844,1881.7196],[-89.4652,15.1962,1816.5408],[-89.4176,15.2163,1830.4553],[-89.408,15.2222,1319.3618],[-89.3965,15.2394,1301.2753],[-89.3936,15.2359,1322.8071],[-89.3912,15.2378,1212.5054],[-89.3901,15.244,1269.715],[-89.3808,15.2625,986.4315],[-89.3757,15.2687,938.652],[-89.3645,15.2725,942.7521],[-89.3564,15.2772,1069.8495],[-89.3399,15.2751,1296.3038],[-89.3311,15.2785,1070.3207],[-89.321,15.2721,1087.2489],[-89.3109,15.2737,1109.2449],[-89.3062,15.2728,1159.2632],[-89.3038,15.2739,1064.371],[-89.2983,15.2866,897.8541],[-89.2945,15.2918,944.8735],[-89.2722,15.2936,812.2362],[-89.2623,15.2918,667.6015],[-89.2543,15.2991,767.0629],[-89.2481,15.2976,773.0639],[-89.25,15.2883,810.6207],[-89.2484,15.2842,735.0401],[-89.2444,15.2836,661.9464],[-89.2325,15.2963,324.1799],[-89.2281,15.2965,354.0994],[-89.2221,15.2921,281.9246],[-89.2099,15.3089,174.185],[-89.205,15.3215,209.2034],[-89.2083,15.3253,137.8514],[-89.2099,15.3408,104.3512],[-89.2011,15.3731,40.6415],[-89.2023,15.3872,18.6755],[-89.2116,15.3883,18.608],[-89.2149,15.3949,9.3444],[-89.214,15.4079,4.5098],[-89.2167,15.4147,2.9755],[-89.2279,15.4129,15.3741],[-89.2494,15.4182,0.0],[-89.2617,15.4156,0.0],[-89.2673,15.4084,4.3375],[-89.2632,15.4081,0.0],[-89.2504,15.4114,0.0],[-89.2451,15.4145,2.4619],[-89.2428,15.41,12.3224],[-89.2461,15.407,6.32],[-89.2528,15.4055,0.0],[-89.2614,15.4005,0.0],[-89.2618,15.3921,15.4006],[-89.267,15.3857,5.0572],[-89.2697,15.3757,4.3944],[-89.2755,15.3714,3.8419],[-89.2831,15.3713,0.0],[-89.3027,15.3583,4.2652],[-89.3268,15.3684,0.0],[-89.3338,15.3789,0.0],[-89.3379,15.3926,0.0],[-89.3332,15.3984,0.0],[-89.3301,15.4,0.9137],[-89.3234,15.4003,0.0],[-89.3223,15.4024,0.0],[-89.3281,15.4173,0.0],[-89.3329,15.4171,3.4835],[-89.3282,15.4224,3.1973],[-89.3225,15.4235,0.0],[-89.3221,15.4308,0.0],[-89.3247,15.4381,0.0],[-89.3386,15.4466,5.0441],[-89.3407,15.4599,0.0],[-89.3454,15.4604,0.0],[-89.3549,15.4522,0.0],[-89.3606,15.4512,0.0],[-89.3617,15.4527,0.0],[-89.3605,15.4569,0.0],[-89.3556,15.4594,0.0],[-89.3543,15.4618,0.0],[-89.3481,15.4627,0.0],[-89.3497,15.4692,0.0],[-89.354,15.4716,0.0],[-89.3583,15.4638,4.0434],[-89.3656,15.4612,0.0],[-89.3652,15.4721,3.49],[-89.3688,15.471,5.2247],[-89.3741,15.461,5.3117],[-89.3738,15.4588,6.3207],[-89.3781,15.46,6.1763],[-89.389,15.4531,3.4742],[-89.3913,15.4542,0.0],[-89.3874,15.4597,1.4881],[-89.3818,15.4632,0.0],[-89.3892,15.4737,0.0],[-89.4072,15.457,5.053],[-89.4086,15.458,4.3416],[-89.4027,15.4666,4.7947],[-89.4107,15.466,4.0698],[-89.4101,15.4683,2.5807],[-89.4033,15.4686,1.5438],[-89.3961,15.4795,0.0],[-89.3915,15.4812,3.4315],[-89.3892,15.4782,0.0],[-89.3792,15.499,0.0],[-89.3715,15.5071,0.0],[-89.3583,15.512,0.0],[-89.357,15.5147,0.0],[-89.3522,15.5163,3.4768],[-89.3471,15.5143,0.0],[-89.3363,15.5208,0.0],[-89.3225,15.523,0.0],[-89.3202,15.5255,0.0],[-89.3182,15.525,0.0],[-89.3076,15.5306,3.8632],[-89.3029,15.5281,2.5936],[-89.2938,15.5169,0.0],[-89.2874,15.5179,0.8109],[-89.2844,15.5159,0.0],[-89.2803,15.5166,0.0],[-89.2781,15.5193,0.0],[-89.2735,15.5166,0.0],[-89.2623,15.5201,0.0],[-89.2604,15.5256,0.0],[-89.2536,15.5305,0.0],[-89.2441,15.5442,0.0],[-89.2422,15.5528,0.0],[-89.243,15.5581,0.0],[-89.2411,15.5611,0.0],[-89.2298,15.5657,0.0],[-89.2241,15.5728,1.385],[-89.2045,15.5667,0.0],[-89.1984,15.5674,0.0],[-89.192,15.5707,0.0],[-89.1854,15.578,0.0],[-89.1717,15.5778,6.6493],[-89.1689,15.5719,1.0693],[-89.1564,15.5663,3.5854],[-89.1572,15.5619,0.0],[-89.1516,15.5618,0.0],[-89.1459,15.5664,0.0],[-89.1436,15.5653,0.0],[-89.1288,15.5701,0.0],[-89.1225,15.5784,0.0],[-89.1105,15.5812,0.0],[-89.1069,15.5803,0.0],[-89.1044,15.5818,0.0],[-89.0983,15.5785,2.0804],[-89.1003,15.5844,2.5503999999999998],[-89.1314,15.6348,80.1825],[-89.1315,15.6377,94.3471],[-89.1462,15.6513,211.6073],[-89.1472,15.6558,173.5273],[-89.1532,15.6582,326.8932],[-89.1523,15.6621,307.5887],[-89.3272,15.6636,783.207],[-89.3657,15.6663,483.331],[-89.3921,15.6652,878.7775],[-89.4289,15.6676,376.8372],[-89.4438,15.6655,597.2015],[-89.4495,15.6599,728.5352],[-89.4493,15.6648,727.308],[-89.4757,15.6977,426.0961],[-89.4827,15.7089,397.5595],[-89.4873,15.7201,338.1139],[-89.4873,15.7365,242.5414],[-89.4784,15.7776,148.5301],[-89.4778,15.7844,129.9917],[-89.4813,15.7852,170.0515],[-89.4823,15.7822,136.6275],[-89.4868,15.7794,131.6371],[-89.4919,15.7824,212.2603],[-89.495,15.7817,154.9067],[-89.5037,15.7709,142.9205],[-89.5126,15.7686,142.6091],[-89.5139,15.7709,156.5393],[-89.5166,15.7689,162.1153],[-89.5175,15.7705,171.3175],[-89.5211,15.7701,158.5154],[-89.5217,15.7714,165.6685],[-89.525,15.7674,149.6431],[-89.5292,15.7699,169.4462],[-89.5317,15.7626,154.5592],[-89.5394,15.7571,173.3554],[-89.5412,15.7534,188.2772],[-89.536,15.739,154.4411],[-89.5405,15.7367,155.1572],[-89.5407,15.7311,217.3428],[-89.5438,15.7281,237.0271],[-89.5438,15.7231,198.1764],[-89.5475,15.7206,188.5557],[-89.544,15.7146,232.5255],[-89.5467,15.7107,196.6194],[-89.5508,15.7084,199.8507],[-89.5887,15.6586,565.4662]]]]}
,"properties": {"GID_2": "GTM.9.1_1","GID_0": "GTM","country": "Guatemala","GID_1": "GTM.9_1","province": "Izabal","NL_NAME_1": "NA","county": "ElEstor","VARNAME_2": "NA","NL_NAME_2": "NA","TYPE_2": "Municipio","ENGTYPE_2": "Municipality","CC_2": "NA","HASC_2": "NA","name": "El_Estor.county","area_km2": 2114.547,"hist_schema_id": "Elevation0-9000","hist_area_km2": {"0": 511.999,"25": 138.818,"50": 40.322,"75": 33.676,"100": 30.814,"125": 29.444,"150": 34.505,"175": 34.546,"200": 37.035,"225": 37.465,"250": 36.811,"275": 35.915,"300": 37.282,"325": 37.202,"350": 36.57,"375": 36.754,"400": 36.999,"425": 36.997,"450": 36.508,"475": 34.974,"500": 35.975,"525": 37.813,"550": 39.426,"575": 40.549,"600": 44.245,"625": 44.082,"650": 45.369,"675": 41.999,"700": 39.058,"725": 36.466,"750": 34.955,"775": 31.502,"800": 31.156,"825": 27.949,"850": 26.826,"875": 25.6,"900": 21.904,"925": 17.105,"950": 14.204,"975": 12.489,"1000": 11.039,"1025": 9.017,"1050": 8.016,"1075": 7.424,"1100": 6.402,"1125": 5.829,"1150": 5.666,"1175": 5.176,"1200": 5.319,"1225": 5.135,"1250": 5.606,"1275": 5.442,"1300": 5.033,"1325": 4.889,"1350": 5.319,"1375": 5.401,"1400": 5.34,"1425": 4.91,"1450": 4.562,"1475": 4.194,"1500": 4.01,"1525": 3.723,"1550": 3.294,"1575": 3.233,"1600": 3.028,"1625": 2.578,"1650": 2.189,"1675": 2.639,"1700": 2.476,"1725": 1.944,"1750": 1.555,"1775": 1.555,"1800": 1.514,"1825": 1.289,"1850": 1.105,"1875": 1.289,"1900": 1.084,"1925": 1.248,"1950": 1.085,"1975": 0.839,"2000": 1.125,"2025": 0.941,"2050": 0.778,"2075": 0.532,"2100": 0.696,"2125": 0.552,"2150": 0.573,"2175": 0.45,"2200": 0.573,"2225": 0.491,"2250": 0.532,"2275": 0.45,"2300": 0.266,"2325": 0.368,"2350": 0.246,"2375": 0.143,"2400": 0.184,"2425": 0.246,"2450": 0.184,"2475": 0.368,"2500": 0.143}}}