{"type": "Feature","bbox": [-90.9876,16.9438,-89.9072,17.8165],"geometry": {"type": "MultiPolygon","coordinates": [[[[-89.9167,16.9467,105.0],[-89.9072,17.8153,268.6492],[-90.1411,17.8165,193.3694],[-90.9876,17.8155,54.4967],[-90.9875,17.2792,43.2819],[-90.982,17.2783,42.3717],[-90.9802,17.2705,43.7569],[-90.9755,17.2651,45.057],[-90.971,17.2634,43.1761],[-90.9711,17.2654,43.1908],[-90.9686,17.2672,45.7971],[-90.9659,17.2626,45.2261],[-90.9559,17.2636,44.5239],[-90.9543,17.261,42.9035],[-90.9465,17.2598,44.9543],[-90.9449,17.2567,42.5],[-90.9393,17.2565,44.4382],[-90.9331,17.2524,43.2769],[-90.9165,17.2479,43.1996],[-90.9111,17.2533,45.7691],[-90.9033,17.2527,52.459],[-90.9007,17.2544,58.091],[-90.8987,17.26,42.5],[-90.8952,17.2598,42.5],[-90.8937,17.2667,43.5193],[-90.886,17.2625,44.3144],[-90.8825,17.2649,42.5],[-90.8782,17.2648,42.5],[-90.8759,17.27,42.5],[-90.873,17.2708,43.2634],[-90.8705,17.2675,46.1789],[-90.8671,17.2686,42.5],[-90.866,17.2607,42.5],[-90.8584,17.2546,42.5],[-90.8605,17.2525,44.6792],[-90.8453,17.2516,43.0],[-90.8407,17.2542,43.0],[-90.8339,17.2534,43.0],[-90.8248,17.247,43.0],[-90.8251,17.2439,43.5032],[-90.8218,17.2422,43.0],[-90.8185,17.2443,45.1701],[-90.8154,17.2379,43.1715],[-90.812,17.2346,44.8979],[-90.8039,17.2417,43.6164],[-90.8009,17.2417,43.0],[-90.7986,17.2346,43.0],[-90.7921,17.2346,53.0852],[-90.7782,17.2276,43.0],[-90.7739,17.2343,45.8238],[-90.7674,17.231,46.4882],[-90.758,17.2368,50.92],[-90.7596,17.2406,46.4201],[-90.7551,17.2396,43.0],[-90.7527,17.2408,43.0],[-90.7551,17.2454,45.7389],[-90.7523,17.25,47.6659],[-90.7556,17.2536,43.9752],[-90.7484,17.2596,53.0109],[-90.7402,17.2631,46.297],[-90.7199,17.2647,50.2189],[-90.7125,17.2676,51.021],[-90.7062,17.2801,48.6956],[-90.6951,17.2917,43.5],[-90.6873,17.2972,43.5],[-90.6399,17.3099,43.5],[-90.6357,17.306,45.3468],[-90.6316,17.3085,44.3875],[-90.6075,17.3064,47.0707],[-90.6027,17.3046,50.58],[-90.5995,17.2967,49.941],[-90.5776,17.2884,43.7211],[-90.5528,17.2857,51.6051],[-90.5247,17.2744,45.2127],[-90.518,17.2655,46.0723],[-90.5137,17.2654,44.3174],[-90.5126,17.2611,44.4947],[-90.5098,17.2611,49.6161],[-90.509,17.2577,45.2731],[-90.5046,17.254,50.6084],[-90.4834,17.2409,45.6917],[-90.4784,17.2331,47.5141],[-90.4686,17.2273,49.947],[-90.4666,17.2233,47.082],[-90.4585,17.218,56.8322],[-90.4555,17.2038,66.4202],[-90.4576,17.1992,47.6138],[-90.4548,17.1979,71.9474],[-90.4538,17.1942,70.9634],[-90.4567,17.1872,60.8268],[-90.459,17.185,72.446],[-90.4664,17.1867,44.7213],[-90.4671,17.1852,48.8325],[-90.4712,17.1857,45.4227],[-90.4736,17.1832,49.6894],[-90.4722,17.1761,46.5799],[-90.4534,17.1749,46.3956],[-90.4531,17.1666,48.8222],[-90.45,17.1703,50.789],[-90.4496,17.176,46.5393],[-90.4434,17.1875,46.3139],[-90.4415,17.1858,47.8961],[-90.4396,17.1875,47.8411],[-90.4409,17.1907,48.5855],[-90.44,17.1919,47.6018],[-90.4377,17.1901,48.5578],[-90.4356,17.1953,53.5696],[-90.4149,17.1922,46.6236],[-90.4034,17.1963,45.2383],[-90.3953,17.1965,50.0653],[-90.3889,17.1989,47.7442],[-90.376,17.2115,45.3785],[-90.3666,17.2109,46.3548],[-90.3457,17.2254,44.4561],[-90.334,17.2265,49.681],[-90.3294,17.2297,46.515],[-90.0748,16.9586,160.5681],[-89.97,16.9454,105.0],[-89.9167,16.9438,105.0],[-89.9167,16.9467,105.0]]]]}
,"properties": {"GID_2": "GTM.12.6_1","GID_0": "GTM","country": "Guatemala","GID_1": "GTM.12_1","province": "Petén","NL_NAME_1": "NA","county": "SanAndrés","VARNAME_2": "NA","NL_NAME_2": "NA","TYPE_2": "Municipio","ENGTYPE_2": "Municipality","CC_2": "NA","HASC_2": "NA","name": "San_Andrés.county","area_km2": 8195.191,"hist_schema_id": "Elevation0-9000","hist_area_km2": {"50": 1995.705,"75": 1729.398,"100": 784.481,"125": 611.73,"150": 575.421,"175": 583.544,"200": 572.714,"225": 489.725,"250": 396.597,"275": 286.246,"300": 127.612,"325": 41.391,"350": 0.566}}}