{"type":"Feature","properties":{"GID_2":"GTM.16.10_1","GID_0":"GTM","country":"Guatemala","GID_1":"GTM.16_1","province":"Sacatepéquez","NL_NAME_1":"NA","county":"SanMiguelDueñas","VARNAME_2":"NA","NL_NAME_2":"NA","TYPE_2":"Municipio","ENGTYPE_2":"Municipality","CC_2":"NA","HASC_2":"NA","name":"San_Miguel_Dueñas.county"},
"geometry":{"type": "MultiPolygon","coordinates": [[[[-90.8742,14.5032,3856.3652],[-90.853,14.5081,2663.2681],[-90.8438,14.5068,2218.647],[-90.8293,14.5015,1783.8495],[-90.8242,14.4982,1602.361],[-90.8113,14.4982,1447.7672],[-90.8033,14.5104,1456.9404],[-90.7994,14.5118,1487.7112],[-90.7957,14.5111,1508.3994],[-90.7937,14.5138,1493.4384],[-90.7854,14.5168,1498.2229],[-90.7806,14.5287,1546.2816],[-90.7815,14.5332,1624.5881],[-90.7831,14.5373,1626.8761],[-90.7895,14.5439,1457.3909],[-90.8135,14.5436,1633.6572],[-90.8171,14.5411,1659.1414],[-90.823,14.5567,1973.0737],[-90.8359,14.5604,2085.46],[-90.8498,14.5592,2378.158],[-90.8616,14.5333,2443.9189],[-90.8684,14.5314,2641.7893],[-90.8742,14.5032,3856.3652]]]]}}