{"type":"Feature","properties":{"GID_2":"GTM.7.28_1","GID_0":"GTM","country":"Guatemala","GID_1":"GTM.7_1","province":"Guatemala","NL_NAME_1":"NA","county":"ZONA2","VARNAME_2":"NA","NL_NAME_2":"NA","TYPE_2":"Municipio","ENGTYPE_2":"Municipality","CC_2":"NA","HASC_2":"NA","name":"Z_O_N_A2.county"},
"geometry":{"type": "MultiPolygon","coordinates": [[[[-90.5188,14.6807,1368.8186],[-90.5186,14.6682,1370.3474],[-90.5217,14.6519,1484.8647],[-90.5133,14.6489,1496.7699],[-90.5084,14.6489,1486.5634],[-90.5057,14.6501,1480.5253],[-90.5026,14.6562,1463.141],[-90.5012,14.6717,1461.3965],[-90.495,14.6752,1436.7916],[-90.4924,14.679,1382.0183],[-90.4947,14.6793,1429.8798],[-90.4931,14.682,1428.3081],[-90.4968,14.6845,1377.0062],[-90.4958,14.6858,1339.2656],[-90.4979,14.6897,1301.3733],[-90.51,14.6888,1295.9583],[-90.5188,14.6807,1368.8186]]]]}}