{"type": "Feature","bbox": [-91.4871,14.2513,-91.3819,14.4749],"geometry": {"type": "MultiPolygon","coordinates": [[[[-91.4389,14.3181,56.4901],[-91.424,14.3373,60.863],[-91.4205,14.3479,75.47],[-91.4206,14.3564,78.6493],[-91.4138,14.3665,83.6267],[-91.4115,14.3669,76.3164],[-91.4037,14.3827,88.6388],[-91.4057,14.3946,98.5857],[-91.3998,14.4206,147.3745],[-91.4022,14.4268,187.6843],[-91.3888,14.4367,140.2081],[-91.3874,14.4447,170.1966],[-91.3819,14.4485,169.8206],[-91.3865,14.4525,184.5163],[-91.3912,14.453,217.8456],[-91.3955,14.453,223.9877],[-91.4024,14.4449,196.2026],[-91.414,14.4494,173.4062],[-91.4154,14.4536,216.1852],[-91.4134,14.4648,206.2713],[-91.4158,14.4687,208.436],[-91.4255,14.4749,220.9031],[-91.4301,14.465,198.3438],[-91.4251,14.4538,195.4746],[-91.4316,14.4415,180.8028],[-91.4339,14.4304,159.6485],[-91.4337,14.4235,139.6611],[-91.4423,14.4167,140.6831],[-91.4433,14.4107,135.3601],[-91.4472,14.4059,132.7325],[-91.4496,14.3986,130.5349],[-91.4492,14.3929,129.0813],[-91.4557,14.3747,103.5002],[-91.4539,14.3694,93.8705],[-91.4552,14.366,86.9123],[-91.4606,14.3604,93.813],[-91.4599,14.3549,85.4867],[-91.4666,14.3423,84.8178],[-91.4669,14.3359,81.8131],[-91.4707,14.3242,74.8272],[-91.4729,14.3221,73.4683],[-91.4735,14.3166,69.3767],[-91.4782,14.3126,68.5784],[-91.481,14.3059,63.5056],[-91.4802,14.3031,61.6629],[-91.4871,14.2913,58.0293],[-91.4831,14.2816,55.0971],[-91.4784,14.279,53.9274],[-91.477,14.2711,50.2733],[-91.4751,14.27,48.1964],[-91.4718,14.2611,48.2932],[-91.4723,14.2574,46.2944],[-91.47,14.2553,44.998],[-91.4501,14.2513,42.0593],[-91.4548,14.2658,40.0053],[-91.4607,14.2652,46.166],[-91.461,14.2685,40.6857],[-91.4571,14.2757,45.3839],[-91.4551,14.2898,38.8887],[-91.4612,14.29,46.0297],[-91.4651,14.2955,46.4235],[-91.4607,14.3026,46.9217],[-91.4631,14.3045,46.5067],[-91.4614,14.3077,49.1413],[-91.4522,14.3084,49.916],[-91.45,14.3123,45.2084],[-91.44,14.3197,51.7355],[-91.4389,14.3181,56.4901]]]]}
,"properties": {"GID_2": "GTM.20.12_1","GID_0": "GTM","country": "Guatemala","GID_1": "GTM.20_1","province": "Suchitepéquez","NL_NAME_1": "NA","county": "SanJoséElIdolo","VARNAME_2": "NA","NL_NAME_2": "NA","TYPE_2": "Municipio","ENGTYPE_2": "Municipality","CC_2": "NA","HASC_2": "NA","name": "San_José_El_Idolo.county","area_km2": 86.75672,"hist_schema_id": "Elevation0-9000","hist_area_km2": {"25": 0.18493,"50": 19.02534,"75": 17.66571,"100": 15.17807,"125": 11.72619,"150": 10.92421,"175": 6.69359,"200": 4.59901,"225": 0.73913,"250": 0.02053}}}