{"type":"Feature","properties":{"GID_2":"GTM.18.13_1","GID_0":"GTM","country":"Guatemala","GID_1":"GTM.18_1","province":"SantaRosa","NL_NAME_1":"NA","county":"SantaRosadeLima","VARNAME_2":"NA","NL_NAME_2":"NA","TYPE_2":"Municipio","ENGTYPE_2":"Municipality","CC_2":"NA","HASC_2":"NA","name":"Santa_Rosade_Lima.county"},
"geometry":{"type": "MultiPolygon","coordinates": [[[[-90.4147,14.4468,1464.5565],[-90.4101,14.4448,1427.3481],[-90.4014,14.4353,1418.41],[-90.3942,14.4346,1301.2783],[-90.3915,14.4288,1237.2362],[-90.3884,14.4262,1276.8497],[-90.3695,14.423,1162.334],[-90.3578,14.4168,1146.7693],[-90.3503,14.4074,1103.0212],[-90.3436,14.3913,1041.1989],[-90.3386,14.39,1031.2732],[-90.3271,14.3755,964.3857],[-90.3044,14.3702,923.2468],[-90.3042,14.372,922.6668],[-90.3016,14.3713,923.5559],[-90.2991,14.3748,954.3486],[-90.2955,14.3744,924.7051],[-90.2932,14.3826,935.6277],[-90.2843,14.3956,954.9449],[-90.2865,14.4217,999.1194],[-90.2886,14.4263,1017.3378],[-90.2936,14.4256,983.2614],[-90.2985,14.4305,1041.1799],[-90.302,14.4379,1044.3549],[-90.3031,14.4457,1091.6228],[-90.3016,14.4496,1126.3746],[-90.2978,14.4526,1119.9512],[-90.2883,14.4519,1189.2732],[-90.2747,14.4458,1078.2476],[-90.2711,14.4568,1185.1989],[-90.2729,14.4702,1379.1438],[-90.2714,14.4751,1404.4507],[-90.2682,14.4786,1459.7434],[-90.2574,14.4827,1871.2173],[-90.2531,14.5082,2124.9209],[-90.2567,14.5089,2063.1494],[-90.2572,14.5128,2112.0317],[-90.2591,14.5132,2123.3992],[-90.2635,14.508,1976.9424],[-90.2778,14.5175,1845.9375],[-90.2892,14.5212,1876.4811],[-90.2954,14.5186,1915.2461],[-90.2978,14.5133,1923.17],[-90.3028,14.5119,1918.0225],[-90.314,14.4964,1847.0579],[-90.3147,14.482,1460.7205],[-90.3191,14.4807,1452.2709],[-90.3221,14.476,1376.5499],[-90.3244,14.4754,1411.3812],[-90.3276,14.4682,1289.9982],[-90.3308,14.4678,1286.4771],[-90.3326,14.4809,1594.0787],[-90.3359,14.4856,1492.2327],[-90.337,14.4961,1501.6566],[-90.3537,14.5029,1611.0684],[-90.3605,14.4964,1557.8892],[-90.3657,14.4966,1466.9813],[-90.3656,14.4939,1440.8464],[-90.3745,14.4884,1507.668],[-90.377,14.4895,1511.0981],[-90.3793,14.4946,1594.9332],[-90.3831,14.4954,1648.9556],[-90.3924,14.4908,1676.0226],[-90.3892,14.4847,1713.8003],[-90.3995,14.4821,1791.5703],[-90.4021,14.4793,1802.8557],[-90.407,14.4811,1768.0121],[-90.4111,14.4771,1736.0244],[-90.4134,14.4733,1748.5579],[-90.4154,14.4617,1642.1901],[-90.4147,14.4468,1464.5565]]]]}}