{"type": "Feature","bbox": [-91.5303,14.5562,-91.4433,14.6026],"geometry": {"type": "MultiPolygon","coordinates": [[[[-91.5066,14.6015,719.2163],[-91.5097,14.6004,705.5339],[-91.5136,14.5944,669.9248],[-91.5199,14.5782,570.0452],[-91.5303,14.5668,501.2445],[-91.5037,14.5663,505.3162],[-91.475,14.5586,503.7993],[-91.4721,14.5562,494.3056],[-91.4433,14.561,516.7444],[-91.4437,14.5706,570.1517],[-91.4663,14.5962,721.9921],[-91.4647,14.5999,748.8101],[-91.4815,14.6026,764.1238],[-91.4834,14.5949,704.0027],[-91.5066,14.6015,719.2163]]]]}
,"properties": {"GID_2": "GTM.20.7_1","GID_0": "GTM","country": "Guatemala","GID_1": "GTM.20_1","province": "Suchitepéquez","NL_NAME_1": "NA","county": "Samayac","VARNAME_2": "NA","NL_NAME_2": "NA","TYPE_2": "Municipio","ENGTYPE_2": "Municipality","CC_2": "NA","HASC_2": "NA","name": "Samayac.county","area_km2": 29.99963,"hist_schema_id": "Elevation0-9000","hist_area_km2": {"475": 0.02052,"500": 1.45701,"525": 4.37093,"550": 4.55552,"575": 4.18607,"600": 3.4678,"625": 3.07787,"650": 2.70848,"675": 2.29806,"700": 2.19543,"725": 1.19003,"750": 0.4719}}}