{"type":"Feature","properties":{"GID_2":"GTM.15.3_1","GID_0":"GTM","country":"Guatemala","GID_1":"GTM.15_1","province":"Retalhuleu","NL_NAME_1":"NA","county":"NuevoSanCarlos","VARNAME_2":"NA","NL_NAME_2":"NA","TYPE_2":"Municipio","ENGTYPE_2":"Municipality","CC_2":"NA","HASC_2":"NA","name":"Nuevo_San_Carlos.county"},
"geometry":{"type": "MultiPolygon","coordinates": [[[[-91.7163,14.658,670.9108],[-91.7259,14.6386,607.2493],[-91.7311,14.6231,521.5587],[-91.7255,14.5993,380.5811],[-91.7163,14.5788,286.5355],[-91.7285,14.5605,247.5549],[-91.7241,14.5447,209.5739],[-91.7199,14.5403,192.4857],[-91.689,14.5636,246.3259],[-91.6771,14.5835,296.2051],[-91.6692,14.5892,323.8819],[-91.657,14.6083,416.519],[-91.6557,14.6168,449.8864],[-91.6597,14.6173,463.2095],[-91.6656,14.633,556.8575],[-91.6655,14.6496,653.5635],[-91.6693,14.6512,659.0649],[-91.6735,14.6469,646.0391],[-91.6772,14.6397,581.2042],[-91.6824,14.6405,516.4022],[-91.6809,14.646,566.1512],[-91.6811,14.6573,598.5314],[-91.6745,14.6664,735.9877],[-91.6727,14.6813,904.7448],[-91.6681,14.6881,889.082],[-91.6704,14.6931,997.6173],[-91.6678,14.6986,993.7111],[-91.6678,14.7057,1146.5771],[-91.6655,14.7129,1251.9226],[-91.6694,14.7157,1121.4351],[-91.6716,14.7153,1216.2101],[-91.6722,14.7107,1157.4092],[-91.682,14.7097,953.5929],[-91.7043,14.69,807.3997],[-91.7129,14.6686,635.6311],[-91.7161,14.6647,649.8777],[-91.7141,14.6563,652.6801],[-91.7163,14.658,670.9108]]]]}}