{"type":"Feature","properties":{"GID_2":"GTM.19.19_1","GID_0":"GTM","country":"Guatemala","GID_1":"GTM.19_1","province":"Sololá","NL_NAME_1":"NA","county":"SantiagoAtitlán","VARNAME_2":"NA","NL_NAME_2":"NA","TYPE_2":"Municipio","ENGTYPE_2":"Municipality","CC_2":"NA","HASC_2":"NA","name":"Santiago_Atitlán.county"},
"geometry":{"type": "MultiPolygon","coordinates": [[[[-91.2572,14.6252,1559.77],[-91.2635,14.6235,1596.7775],[-91.2854,14.6066,1553.8074],[-91.2822,14.5972,1874.6895],[-91.275,14.5436,788.3665],[-91.2715,14.5415,752.971],[-91.2697,14.5347,782.3293],[-91.266,14.5309,853.9084],[-91.2557,14.5334,809.8573],[-91.2553,14.5261,699.1035],[-91.2538,14.5256,699.1035],[-91.2526,14.5272,707.897],[-91.253,14.535,792.4869],[-91.251,14.5379,812.2793],[-91.2236,14.5563,1239.6514],[-91.2186,14.5558,1415.593],[-91.2086,14.5602,1682.1193],[-91.1958,14.5628,2060.5813],[-91.1789,14.561,2072.9202],[-91.1764,14.5571,1973.9878],[-91.1722,14.5572,1906.0552],[-91.1688,14.577,2298.7896],[-91.1752,14.5867,2692.1047],[-91.1808,14.5908,2912.9951],[-91.1829,14.5966,2704.5283],[-91.1818,14.6028,2501.1875],[-91.1732,14.6289,2227.855],[-91.1669,14.6409,1880.2747],[-91.1522,14.6564,1556.469],[-91.1543,14.6589,1564.3539],[-91.1537,14.662,1563.004],[-91.1524,14.6619,1555.5],[-91.1551,14.663,1557.7203],[-91.1507,14.6641,1555.5],[-91.153,14.667,1556.6442],[-91.1543,14.6666,1556.6442],[-91.1543,14.6643,1560.8041],[-91.1589,14.6623,1555.5],[-91.1587,14.6649,1555.5],[-91.1609,14.6655,1557.1005],[-91.1601,14.668,1555.5],[-91.1631,14.6666,1560.7649],[-91.1637,14.6693,1559.2567],[-91.165,14.6693,1559.2567],[-91.1653,14.6768,1557.1726],[-91.1667,14.6773,1555.5],[-91.1664,14.6731,1562.0369],[-91.1668,14.6751,1561.2712],[-91.1698,14.6745,1555.5],[-91.1708,14.6764,1555.5],[-91.1755,14.6729,1565.7971],[-91.1823,14.6749,1555.5],[-91.1826,14.6734,1563.9655],[-91.1849,14.6749,1556.9133],[-91.1888,14.672,1565.7026],[-91.1926,14.6743,1555.5],[-91.1936,14.6727,1561.9041],[-91.1969,14.673,1555.5],[-91.1988,14.6711,1555.5],[-91.1973,14.6658,1572.644],[-91.1988,14.6638,1562.166],[-91.2058,14.6673,1555.5],[-91.2057,14.6632,1590.1282],[-91.2209,14.665,1558.0061],[-91.2186,14.6629,1567.0032],[-91.2211,14.6572,1556.2012],[-91.2258,14.657,1561.0859],[-91.2258,14.6523,1557.7332],[-91.231,14.6497,1572.5835],[-91.2273,14.6472,1580.8177],[-91.2279,14.6432,1568.3555],[-91.2326,14.6425,1556.2933],[-91.2354,14.639,1555.5],[-91.232,14.6355,1572.7205],[-91.2333,14.629,1555.5],[-91.238,14.6266,1562.4895],[-91.2407,14.6209,1566.8734],[-91.2452,14.6179,1562.3104],[-91.2516,14.6103,1560.1047],[-91.2543,14.6114,1564.6567],[-91.2555,14.6156,1573.5273],[-91.2543,14.6167,1573.5273],[-91.2572,14.6252,1559.77]]]]}}