{"type": "Feature","bbox": [-91.0851,14.6773,-90.925,14.9387],"geometry": {"type": "MultiPolygon","coordinates": [[[[-90.9322,14.7769,2432.3516],[-90.9383,14.7813,2387.6101],[-90.9501,14.7778,2309.3782],[-90.9643,14.7781,2293.179],[-90.9687,14.7756,2294.5125],[-90.9804,14.7801,2291.1934],[-90.9815,14.7845,2305.2688],[-90.9841,14.7851,2326.1079],[-90.988,14.7922,2538.9995],[-90.9814,14.7995,2560.6963],[-90.9809,14.805,2592.7527],[-90.977,14.8066,2568.416],[-90.9767,14.8109,2583.8979],[-90.9688,14.8222,2606.7607],[-90.9657,14.8342,2543.9426],[-90.956,14.8434,2177.0986],[-90.9526,14.8606,1941.5405],[-90.9569,14.8682,1863.8142],[-90.9567,14.8802,1674.5626],[-90.9548,14.8861,1589.9962],[-90.9474,14.8956,1522.8845],[-90.9444,14.9079,1399.2385],[-90.936,14.9175,1357.9744],[-90.9376,14.9256,1456.3381],[-90.9586,14.9269,1402.0693],[-90.9658,14.9308,1415.2623],[-90.9695,14.9357,1690.868],[-90.9756,14.9377,1482.1232],[-90.9848,14.936,1432.6526],[-90.9968,14.9387,1466.8131],[-90.9997,14.9346,1538.9558],[-91.0067,14.9362,1583.7432],[-91.0112,14.9337,1578.5957],[-91.0115,14.9257,1660.5881],[-91.0162,14.923,1729.4579],[-91.0154,14.9207,1658.8293],[-91.0176,14.913,1648.5393],[-91.0228,14.9109,1772.1647],[-91.0224,14.8868,1922.697],[-91.0202,14.8867,1857.6648],[-91.0194,14.8848,1867.5325],[-91.0226,14.8769,2038.2263],[-91.0279,14.8753,2076.7485],[-91.0278,14.8721,2140.104],[-91.032,14.8704,2137.7461],[-91.033,14.8639,2213.4705],[-91.0379,14.8615,2198.9546],[-91.0433,14.8471,2277.3911],[-91.0405,14.8435,2320.2495],[-91.0419,14.8394,2321.8018],[-91.0343,14.8354,2440.7087],[-91.0336,14.8314,2475.8921],[-91.0248,14.8264,2510.293],[-91.0246,14.8243,2471.1584],[-91.0533,14.8041,2822.0522],[-91.0592,14.8079,2805.356],[-91.0619,14.8049,2792.7764],[-91.0717,14.8019,2671.9973],[-91.0752,14.796,2607.2927],[-91.0774,14.7918,2446.8271],[-91.0694,14.7911,2370.3555],[-91.0685,14.789,2369.0825],[-91.0723,14.7809,2290.0251],[-91.0767,14.7604,2107.8823],[-91.0731,14.7488,2067.1443],[-91.0773,14.7376,2058.2527],[-91.0727,14.7305,2007.092],[-91.0761,14.7267,2062.1113],[-91.0786,14.7319,1923.1503],[-91.0851,14.7307,2008.5333],[-91.0843,14.7176,1930.1528],[-91.0799,14.718,1859.1842],[-91.077,14.71,1853.4314],[-91.0781,14.7049,1884.3765],[-91.0754,14.6994,1859.1155],[-91.0699,14.7011,1890.6747],[-91.0674,14.6999,1910.3701],[-91.0635,14.7005,1991.8298],[-91.0611,14.7064,1896.2474],[-91.056,14.7087,1935.3947],[-91.0428,14.71,1931.353],[-91.0378,14.7189,2024.8862],[-91.0261,14.7191,2019.3727],[-91.0242,14.7235,2026.2856],[-91.0211,14.7205,2055.8269],[-91.0094,14.7238,2119.4624],[-91.0045,14.723,2180.5273],[-90.9893,14.7254,2238.2676],[-90.9874,14.7149,2200.1948],[-90.9913,14.7092,2243.8301],[-90.9906,14.7025,2242.1543],[-90.9859,14.7002,2223.9194],[-90.9841,14.6955,2152.8799],[-90.988,14.6884,2223.3657],[-90.9817,14.6848,2181.2808],[-90.9699,14.6848,2220.2141],[-90.9661,14.6777,2213.9075],[-90.9589,14.6773,2162.2886],[-90.9527,14.6836,2150.252],[-90.9533,14.7052,2217.4341],[-90.9562,14.7107,2221.8872],[-90.9557,14.7133,2254.4026],[-90.9455,14.7195,2109.749],[-90.9392,14.7151,2080.5459],[-90.9358,14.7222,2117.0503],[-90.9368,14.7362,2152.2288],[-90.9346,14.738,2166.9622],[-90.9332,14.7431,2198.3479],[-90.9311,14.7434,2163.2437],[-90.9257,14.7496,2136.1667],[-90.925,14.7524,2123.7168],[-90.9304,14.7583,2210.821],[-90.9339,14.773,2376.748],[-90.9322,14.7769,2432.3516]]]]}
,"properties": {"GID_2": "GTM.3.14_1","GID_0": "GTM","country": "Guatemala","GID_1": "GTM.3_1","province": "Chimaltenango","NL_NAME_1": "NA","county": "TecpánGuatemala","VARNAME_2": "NA","NL_NAME_2": "NA","TYPE_2": "Municipio","ENGTYPE_2": "Municipality","CC_2": "NA","HASC_2": "NA","name": "Tecpán_Guatemala.county","area_km2": 263.1404,"hist_schema_id": "Elevation0-9000","hist_area_km2": {"1300": 0.0615,"1325": 0.2254,"1350": 0.4917,"1375": 0.4507,"1400": 0.8605,"1425": 0.7785,"1450": 0.8605,"1475": 0.8809,"1500": 1.0244,"1525": 1.1268,"1550": 1.4956,"1575": 1.3727,"1600": 1.5161,"1625": 1.721,"1650": 1.3317,"1675": 2.1717,"1700": 2.0078,"1725": 1.8849,"1750": 1.9669,"1775": 1.803,"1800": 1.844,"1825": 1.8031,"1850": 1.9057,"1875": 2.0083,"1900": 2.6642,"1925": 2.7054,"1950": 2.644,"1975": 2.7672,"2000": 3.0337,"2025": 3.5054,"2050": 4.1409,"2075": 3.7104,"2100": 4.5713,"2125": 5.8429,"2150": 7.4012,"2175": 8.4673,"2200": 9.4926,"2225": 12.6714,"2250": 12.6911,"2275": 20.0101,"2300": 16.4008,"2325": 9.0402,"2350": 7.6872,"2375": 7.7894,"2400": 7.3178,"2425": 7.5635,"2450": 7.3587,"2475": 7.1945,"2500": 6.6824,"2525": 5.6165,"2550": 4.8377,"2575": 4.5712,"2600": 3.8538,"2625": 3.3413,"2650": 2.9724,"2675": 2.5214,"2700": 2.5625,"2725": 2.501,"2750": 2.0705,"2775": 1.927,"2800": 1.8245,"2825": 1.6605,"2850": 1.6605,"2875": 1.2095,"2900": 0.8815,"2925": 1.476,"2950": 0.7175,"2975": 0.656,"3000": 0.574,"3025": 0.451,"3050": 0.2665,"3075": 0.041}}}