{"type": "Feature","bbox": [-90.7707,13.9218,-90.6172,14.0643],"geometry": {"type": "MultiPolygon","coordinates": [[[[-90.708,14.064,21.3927],[-90.7148,14.0311,10.567],[-90.7239,14.0146,9.2381],[-90.7297,14.0084,9.1817],[-90.7274,14.0012,8.4285],[-90.7105,13.9806,5.3775],[-90.7102,13.9762,4.7359],[-90.7161,13.9603,3.0719],[-90.7161,13.9541,2.373],[-90.7134,13.9423,1.3695],[-90.7096,13.9379,7.2306],[-90.7099,13.9345,3.7115],[-90.7626,13.9289,7.4693],[-90.7707,13.9238,1.2485],[-90.7596,13.9235,0.0],[-90.7565,13.9254,0.0],[-90.7579,13.9268,1.7964],[-90.7526,13.9271,4.3903],[-90.756,13.9251,0.0],[-90.7554,13.9238,0.0],[-90.7529,13.9238,0.0],[-90.7513,13.9268,1.3038],[-90.7479,13.9282,0.0],[-90.7424,13.9271,1.714],[-90.749,13.9257,0.0],[-90.7429,13.9249,0.0],[-90.7326,13.9268,0.0],[-90.7274,13.9263,0.0],[-90.724,13.9271,2.8595],[-90.7246,13.9293,0.9014],[-90.719,13.9304,0.0],[-90.711,13.9296,0.0],[-90.7154,13.9271,0.0],[-90.6896,13.9282,0.9649],[-90.6637,13.9271,6.4156],[-90.6232,13.9218,0.0],[-90.6242,14.0017,7.9932],[-90.6172,14.0138,7.935],[-90.6573,14.014,10.2675],[-90.6572,14.0116,9.6768],[-90.6619,14.0112,10.9047],[-90.6699,14.0075,9.557],[-90.671,14.0146,11.2137],[-90.6772,14.014,9.9203],[-90.6778,14.0163,9.9273],[-90.669,14.035,13.843],[-90.6699,14.0361,14.031],[-90.6793,14.0334,12.045],[-90.6799,14.0514,18.1469],[-90.6731,14.0619,20.1905],[-90.6812,14.0643,18.885],[-90.6969,14.0625,16.5118],[-90.708,14.064,21.3927]]]]}
,"properties": {"GID_2": "GTM.6.3_1","GID_0": "GTM","country": "Guatemala","GID_1": "GTM.6_1","province": "Escuintla","NL_NAME_1": "NA","county": "Iztapa","VARNAME_2": "NA","NL_NAME_2": "NA","TYPE_2": "Municipio","ENGTYPE_2": "Municipality","CC_2": "NA","HASC_2": "NA","name": "Iztapa.county","area_km2": 122.78566,"hist_schema_id": "Elevation0-9000","hist_area_km2": {"0": 109.80675,"25": 12.97891}}}