{"type":"Feature","properties":{"GID_2":"GTM.2.2_1","GID_0":"GTM","country":"Guatemala","GID_1":"GTM.2_1","province":"BajaVerapaz","NL_NAME_1":"NA","county":"Granados","VARNAME_2":"NA","NL_NAME_2":"NA","TYPE_2":"Municipio","ENGTYPE_2":"Municipality","CC_2":"NA","HASC_2":"NA","name":"Granados.county"},
"geometry":{"type": "MultiPolygon","coordinates": [[[[-90.6589,14.9773,1399.1448],[-90.6602,14.9632,1334.186],[-90.6556,14.9557,1315.9353],[-90.6461,14.9526,1231.0283],[-90.6421,14.9465,1207.6757],[-90.6409,14.9382,1184.3701],[-90.6355,14.9303,1223.074],[-90.6366,14.9249,1227.4353],[-90.63,14.9199,1228.8169],[-90.6166,14.9151,1125.7681],[-90.6151,14.9015,849.8083],[-90.6183,14.898,745.1999],[-90.6238,14.8836,732.0764],[-90.6156,14.8776,669.3757],[-90.6103,14.8815,782.8546],[-90.5913,14.8733,644.4935],[-90.5874,14.8781,700.8188],[-90.5833,14.8747,648.7479],[-90.5758,14.873,698.0616],[-90.5679,14.8771,699.5781],[-90.5628,14.8773,796.6599],[-90.5624,14.8748,657.4149],[-90.5367,14.8892,701.4164],[-90.527,14.8855,583.1165],[-90.5237,14.8896,684.3509],[-90.5168,14.8903,633.8135],[-90.4966,14.8969,643.1372],[-90.4964,14.8987,584.2268],[-90.502,14.9054,633.7336],[-90.5076,14.91,800.1808],[-90.4997,14.9272,835.9291],[-90.5015,14.9331,932.2446],[-90.5103,14.9408,989.3885],[-90.5186,14.9428,1041.1277],[-90.5199,14.9458,956.7691],[-90.5402,14.9565,1158.4358],[-90.5455,14.9625,1125.9078],[-90.5421,14.9722,1243.1792],[-90.5458,14.9841,1406.0487],[-90.5432,14.9886,1519.7808],[-90.5387,14.9935,1702.4784],[-90.533,14.996,1959.7815],[-90.5254,14.9957,1866.6007],[-90.5224,14.999,1906.5004],[-90.5173,14.9974,1977.0884],[-90.5146,15.0007,2035.0928],[-90.5239,15.0041,1849.9735],[-90.5332,15.0041,1729.6328],[-90.5432,14.9982,1634.0557],[-90.5465,14.9982,1738.8644],[-90.5484,15.0067,1712.8411],[-90.5511,15.0094,1781.4299],[-90.5592,15.0075,1771.6692],[-90.561,15.0026,1802.7266],[-90.5778,15.004,2197.5483],[-90.5814,14.9995,2039.895],[-90.5843,14.9908,2011.542],[-90.5871,14.9892,2152.7898],[-90.5895,14.9896,2231.3948],[-90.5941,14.9959,2378.4634],[-90.6101,14.9863,2146.542],[-90.613,14.9787,1970.2526],[-90.6163,14.9806,2065.4075],[-90.6199,14.9733,1991.4062],[-90.6206,14.9662,1766.5692],[-90.626,14.9715,1921.5637],[-90.6321,14.9696,1772.8872],[-90.6398,14.9637,1440.4092],[-90.6459,14.9642,1417.9507],[-90.6481,14.9697,1440.1902],[-90.6515,14.9733,1496.9207],[-90.6589,14.9773,1399.1448]]]]}}