{"type":"Feature","properties":{"GID_2":"GTM.12.8_1","GID_0":"GTM","country":"Guatemala","GID_1":"GTM.12_1","province":"Petén","NL_NAME_1":"NA","county":"SanFrancisco","VARNAME_2":"NA","NL_NAME_2":"NA","TYPE_2":"Municipio","ENGTYPE_2":"Municipality","CC_2":"NA","HASC_2":"NA","name":"San_Francisco.county"},
"geometry":{"type": "MultiPolygon","coordinates": [[[[-90.1367,16.6425,121.5385],[-90.1312,16.6421,119.3733],[-90.1241,16.6446,118.9565],[-90.1087,16.641,119.7222],[-90.1031,16.644,119.4972],[-90.0688,16.6494,124.5651],[-90.0555,16.658,122.9025],[-90.0423,16.6602,134.0849],[-90.0225,16.6541,123.3085],[-89.9204,16.6542,135.011],[-89.9166,16.8637,223.4604],[-90.0365,16.8725,189.8325],[-90.0294,16.8533,195.3693],[-90.1367,16.6425,121.5385]]]]}}