{"type": "Feature","bbox": [-89.7696,14.1209,-89.6483,14.2386],"geometry": {"type": "MultiPolygon","coordinates": [[[[-89.6616,14.1845,682.02],[-89.6618,14.1874,646.7391],[-89.6483,14.1963,747.966],[-89.6599,14.2,669.3724],[-89.6635,14.1982,659.6913],[-89.6695,14.2027,697.7333],[-89.6703,14.2082,734.9239],[-89.6757,14.2114,660.8691],[-89.6993,14.207,585.0],[-89.735,14.2205,826.8057],[-89.7408,14.231,666.6094],[-89.7433,14.2323,682.7164],[-89.7456,14.2253,736.0066],[-89.7483,14.225,777.5074],[-89.7647,14.2386,611.4563],[-89.7659,14.2314,616.4684],[-89.763,14.2083,920.2229],[-89.7656,14.2011,913.0439],[-89.7629,14.2019,954.3147],[-89.7601,14.2001,985.7943],[-89.7587,14.187,1005.7477],[-89.7655,14.1844,1027.0201],[-89.7678,14.1857,995.9366],[-89.7696,14.1815,1039.2502],[-89.764,14.1759,858.4379],[-89.7633,14.1733,774.847],[-89.7512,14.1651,722.9127],[-89.7554,14.1584,767.5611],[-89.7535,14.1574,748.9799],[-89.7545,14.147,868.9423],[-89.7606,14.1438,857.7987],[-89.7624,14.1407,871.9296],[-89.7619,14.1386,899.6578],[-89.7585,14.1382,894.4327],[-89.7517,14.1264,929.8394],[-89.7522,14.1283,945.5972],[-89.7411,14.1243,1084.4083],[-89.7382,14.1209,1191.3818],[-89.7331,14.1244,1220.6195],[-89.718,14.1253,1336.9249],[-89.7094,14.1406,1094.0736],[-89.6614,14.1824,689.0225],[-89.6616,14.1845,682.02]]]]}
,"properties": {"GID_2": "GTM.11.3_1","GID_0": "GTM","country": "Guatemala","GID_1": "GTM.11_1","province": "Jutiapa","NL_NAME_1": "NA","county": "Atescatempa","VARNAME_2": "NA","NL_NAME_2": "NA","TYPE_2": "Municipio","ENGTYPE_2": "Municipality","CC_2": "NA","HASC_2": "NA","name": "Atescatempa.county","area_km2": 86.19245,"hist_schema_id": "Elevation0-9000","hist_area_km2": {"575": 2.54871,"600": 10.60661,"625": 7.40004,"650": 5.8995,"675": 4.74839,"700": 6.02281,"725": 4.91282,"750": 6.18729,"775": 5.69401,"800": 4.70725,"825": 3.84407,"850": 3.86471,"875": 3.67975,"900": 3.28907,"925": 2.69308,"950": 2.44643,"975": 1.64461,"1000": 1.15126,"1025": 0.80176,"1050": 0.84289,"1075": 0.78123,"1100": 0.43177,"1125": 0.30841,"1150": 0.30841,"1175": 0.30841,"1200": 0.16449,"1225": 0.22617,"1250": 0.22617,"1275": 0.16449,"1300": 0.10281,"1325": 0.12337,"1350": 0.02056,"1375": 0.04112}}}