{"type":"Feature","properties":{"GID_2":"GTM.4.5_1","GID_0":"GTM","country":"Guatemala","GID_1":"GTM.4_1","province":"Chiquimula","NL_NAME_1":"NA","county":"Ipala","VARNAME_2":"NA","NL_NAME_2":"NA","TYPE_2":"Municipio","ENGTYPE_2":"Municipality","CC_2":"NA","HASC_2":"NA","name":"Ipala.county"},
"geometry":{"type": "MultiPolygon","coordinates": [[[[-89.5303,14.5248,765.1217],[-89.5284,14.5361,845.4489],[-89.5359,14.5451,959.8314],[-89.5395,14.5529,1082.9657],[-89.5442,14.5552,971.971],[-89.5497,14.5606,943.2951],[-89.5508,14.5661,1089.157],[-89.5477,14.5814,1077.0831],[-89.5511,14.5912,991.0286],[-89.5591,14.602,1169.3309],[-89.5571,14.6059,1141.0121],[-89.55,14.6042,1118.8711],[-89.5452,14.6053,998.7759],[-89.5402,14.6101,1056.2363],[-89.5379,14.6071,1066.2103],[-89.537,14.608,1074.8936],[-89.5371,14.6263,1094.7627],[-89.5403,14.625,1046.7141],[-89.5406,14.6269,982.2411],[-89.5342,14.645,691.3979],[-89.5381,14.6486,709.9833],[-89.5396,14.6543,731.779],[-89.5531,14.6598,958.6947],[-89.5645,14.6585,1163.7598],[-89.5775,14.666,906.7396],[-89.5798,14.6649,906.3539],[-89.593,14.6652,951.0081],[-89.5947,14.6701,900.8301],[-89.6063,14.6833,802.501],[-89.622,14.6832,942.8542],[-89.6506,14.6742,854.2271],[-89.6509,14.6569,783.5779],[-89.66,14.6436,788.4343],[-89.6592,14.638,783.3842],[-89.6641,14.6298,778.9175],[-89.6617,14.6182,772.5821],[-89.6871,14.5609,834.3176],[-89.6872,14.5493,837.2048],[-89.6855,14.5446,840.5413],[-89.6793,14.5432,873.0826],[-89.6771,14.5364,870.8611],[-89.6396,14.5633,1589.5098],[-89.6149,14.5514,1081.2092],[-89.6198,14.5114,889.0947],[-89.5372,14.5136,664.4968],[-89.543,14.519,710.7717],[-89.5397,14.523,738.6379],[-89.5303,14.5248,765.1217]]]]}}