{"type": "Feature","bbox": [-90.904,14.5401,-90.8098,14.6512],"geometry": {"type": "MultiPolygon","coordinates": [[[[-90.8588,14.5401,2354.2192],[-90.8498,14.5592,2378.158],[-90.8525,14.5638,2383.0771],[-90.8517,14.5856,2198.8276],[-90.8455,14.5907,2084.166],[-90.8384,14.5899,2117.8289],[-90.8298,14.594,1947.6139],[-90.8227,14.5935,1899.9683],[-90.8196,14.595,1867.4275],[-90.812,14.605,1788.3717],[-90.8098,14.6133,1761.7601],[-90.8126,14.6184,1764.1072],[-90.8208,14.622,1771.2919],[-90.8293,14.6333,1778.4568],[-90.8364,14.6401,1786.457],[-90.8401,14.6425,1868.2904],[-90.8475,14.6439,1862.1807],[-90.8497,14.648,1927.2271],[-90.8546,14.6505,2006.5717],[-90.8636,14.6512,2015.3359],[-90.8711,14.6488,2014.6351],[-90.8718,14.6423,2065.7876],[-90.8798,14.6327,2113.3901],[-90.8953,14.6193,2272.3303],[-90.9019,14.6107,2503.5146],[-90.904,14.6037,2633.5796],[-90.897,14.5829,2366.3359],[-90.8838,14.5643,2408.8213],[-90.8758,14.5573,2491.0383],[-90.8733,14.5502,2434.6816],[-90.8588,14.5401,2354.2192]]]]}
,"properties": {"GID_2": "GTM.3.9_1","GID_0": "GTM","country": "Guatemala","GID_1": "GTM.3_1","province": "Chimaltenango","NL_NAME_1": "NA","county": "SanAndrésItzapa","VARNAME_2": "NA","NL_NAME_2": "NA","TYPE_2": "Municipio","ENGTYPE_2": "Municipality","CC_2": "NA","HASC_2": "NA","name": "San_Andrés_Itzapa.county","area_km2": 65.01935,"hist_schema_id": "Elevation0-9000","hist_area_km2": {"1725": 0.02052,"1750": 0.41032,"1775": 2.97476,"1800": 3.22088,"1825": 1.84637,"1850": 1.96949,"1875": 2.17467,"1900": 1.96952,"1925": 1.94899,"1950": 1.6823,"1975": 1.60023,"2000": 1.74386,"2025": 2.33877,"2050": 2.2362,"2075": 2.17469,"2100": 1.86699,"2125": 2.13377,"2150": 1.78503,"2175": 2.09284,"2200": 2.48268,"2225": 2.40071,"2250": 2.54434,"2275": 2.42125,"2300": 2.81109,"2325": 2.33915,"2350": 2.23658,"2375": 2.50331,"2400": 2.77009,"2425": 1.84673,"2450": 1.31323,"2475": 0.82078,"2500": 0.80026,"2525": 0.5335,"2550": 0.34883,"2575": 0.32832,"2600": 0.1026,"2625": 0.12311,"2650": 0.10259}}}