{"type":"Feature","properties":{"GID_2":"GTM.2.7_1","GID_0":"GTM","country":"Guatemala","GID_1":"GTM.2_1","province":"BajaVerapaz","NL_NAME_1":"NA","county":"SanMiguelChicaj","VARNAME_2":"NA","NL_NAME_2":"NA","TYPE_2":"Municipio","ENGTYPE_2":"Municipality","CC_2":"NA","HASC_2":"NA","name":"San_Miguel_Chicaj.county"},
"geometry":{"type": "MultiPolygon","coordinates": [[[[-90.4849,15.2832,1252.8912],[-90.4882,15.2752,883.3933],[-90.4924,15.2743,798.0],[-90.4927,15.271,818.3452],[-90.4906,15.2695,798.0],[-90.4916,15.2664,895.0503],[-90.4895,15.2549,801.2513],[-90.4855,15.2491,844.38],[-90.4804,15.2465,849.657],[-90.4795,15.2417,843.4161],[-90.475,15.2392,798.5],[-90.4747,15.2362,905.5168],[-90.4774,15.233,812.4768],[-90.4758,15.2319,834.6649],[-90.4767,15.2295,819.5328],[-90.4744,15.2238,806.1593],[-90.4778,15.2162,985.7529],[-90.4632,15.216,1028.6414],[-90.4515,15.2128,1131.3225],[-90.4484,15.2152,1210.7056],[-90.4465,15.2195,1272.3352],[-90.4413,15.2206,1073.308],[-90.4347,15.2192,1136.8207],[-90.4309,15.2167,1211.8745],[-90.4289,15.213,1091.1752],[-90.425299999999993,15.2009,1133.74],[-90.4264,15.1929,974.2698],[-90.4291,15.1867,866.4045],[-90.4321,15.1842,856.4595],[-90.437,15.1864,921.197],[-90.4463,15.1855,935.4327],[-90.457,15.1818,1059.1409],[-90.475,15.168,1613.9504],[-90.4774,15.1627,1505.4207],[-90.4902,15.155,1178.5746],[-90.4898,15.1499,1177.1387],[-90.4712,15.1382,1429.8978],[-90.4699,15.1407,1323.3217],[-90.4685,15.1393,1370.683],[-90.4635,15.1231,1505.0999],[-90.4557,15.1201,1516.4286],[-90.4502,15.1152,1509.3655],[-90.4438,15.0952,1510.1023],[-90.4293,15.0826,1553.0554],[-90.4281,15.0624,1618.7902],[-90.4258,15.0614,1568.9603],[-90.4254,15.0595,1530.46],[-90.4278,15.0578,1494.4802],[-90.4277,15.0548,1485.274],[-90.4215,15.0548,1609.7698],[-90.4195,15.0505,1698.641],[-90.418,15.0369,1857.8027],[-90.4126,15.0294,1923.4338],[-90.4092,15.0204,2028.0123],[-90.412,15.0111,2127.1777],[-90.4118,15.0046,2261.3628],[-90.4171,14.9986,2072.5962],[-90.4239,14.9978,1967.5413],[-90.4223,14.9934,1825.1989],[-90.4068,14.9922,2139.5205],[-90.4024,14.99,2098.9075],[-90.3921,14.9917,2116.5908],[-90.3868,14.9943,2172.3433],[-90.3817,15.0003,2106.6702],[-90.3789,15.0044,1837.1992],[-90.3787,15.0127,1651.818],[-90.3698,15.0203,1498.7549],[-90.3536,15.0201,1699.2549],[-90.3526,15.0224,1727.6824],[-90.356,15.0643,1706.6956],[-90.3509,15.0759,1566.4685],[-90.3504,15.0971,1060.8511],[-90.3541,15.1209,1096.7903],[-90.358,15.1341,1040.562],[-90.3636,15.1473,964.1924],[-90.371,15.15,929.6591],[-90.3732,15.1579,896.7733],[-90.3727,15.1626,940.9779],[-90.3663,15.1729,976.7195],[-90.3563,15.1829,1063.6879],[-90.3287,15.2049,1999.2089],[-90.3266,15.2097,1850.5256],[-90.3284,15.23,1426.5171],[-90.331,15.226,1578.0061],[-90.335,15.2262,1537.9561],[-90.3487,15.2407,1214.3721],[-90.3684,15.2557,1144.7183],[-90.4029,15.2693,1567.7505],[-90.4035,15.2724,1590.2294],[-90.4003,15.2759,1549.072],[-90.4031,15.2796,1674.9203],[-90.407,15.2793,1539.7173],[-90.4168,15.2828,1681.381],[-90.4202,15.2798,1459.6716],[-90.4239,15.2814,1592.9423],[-90.4423,15.2826,1362.8665],[-90.455,15.2811,1480.053],[-90.4755,15.2843,1467.894],[-90.4849,15.2832,1252.8912]]]]}}