{"type":"Feature","properties":{"GID_2":"GTM.8.22_1","GID_0":"GTM","country":"Guatemala","GID_1":"GTM.8_1","province":"Huehuetenango","NL_NAME_1":"NA","county":"SanSebastiánCoatán","VARNAME_2":"NA","NL_NAME_2":"NA","TYPE_2":"Municipio","ENGTYPE_2":"Municipality","CC_2":"NA","HASC_2":"NA","name":"San_Sebastián_Coatán.county"},
"geometry":{"type": "MultiPolygon","coordinates": [[[[-91.6481,15.8463,1513.0256],[-91.6373,15.8235,1435.663],[-91.6237,15.8136,1613.1534],[-91.6203,15.7994,1726.4519],[-91.5985,15.7991,2036.4849],[-91.592,15.7938,2091.4409],[-91.588,15.7951,2074.2927],[-91.585,15.789,2149.7202],[-91.5658,15.7854,2571.6997],[-91.5443,15.7634,2383.6357],[-91.5335,15.7437,2802.772],[-91.5254,15.7437,2777.2214],[-91.5153,15.7496,2612.7058],[-91.5071,15.7677,2947.1021],[-91.5126,15.7824,2968.5186],[-91.5106,15.7916,3188.8381],[-91.5016,15.7966,3024.9089],[-91.4875,15.8145,3073.9644],[-91.481,15.8175,2821.0083],[-91.4714,15.8188,2555.252],[-91.4498,15.8305,2514.5669],[-91.4779,15.8472,2720.5674],[-91.4774,15.8566,2643.9497],[-91.4839,15.8617,2796.2581],[-91.4946,15.865,2805.6262],[-91.5,15.8819,2779.6257],[-91.5167,15.8697,2769.7009],[-91.5306,15.8741,2792.5974],[-91.5487,15.8676,2132.4524],[-91.5675,15.871,2196.8135],[-91.575,15.8695,2214.0156],[-91.5832,15.8717,2421.0146],[-91.6085,15.8643,2488.8562],[-91.6195,15.8701,2670.4272],[-91.6338,15.8636,2342.8765],[-91.6481,15.8463,1513.0256]]]]}}