{"type":"Feature","properties":{"GID_2":"GTM.6.2_1","GID_0":"GTM","country":"Guatemala","GID_1":"GTM.6_1","province":"Escuintla","NL_NAME_1":"NA","county":"Guanagazapa","VARNAME_2":"NA","NL_NAME_2":"NA","TYPE_2":"Municipio","ENGTYPE_2":"Municipality","CC_2":"NA","HASC_2":"NA","name":"Guanagazapa.county"},
"geometry":{"type": "MultiPolygon","coordinates": [[[[-90.7552,14.1676,105.2581],[-90.739,14.1572,98.0341],[-90.7337,14.1487,81.2642],[-90.7309,14.1331,65.8293],[-90.7328,14.1143,52.1529],[-90.7318,14.1048,40.9406],[-90.7311,14.1036,38.6953],[-90.727,14.1043,42.5329],[-90.7197,14.0977,32.1112],[-90.7181,14.0996,32.9535],[-90.7115,14.0896,22.2493],[-90.7136,14.0841,20.5157],[-90.7112,14.0824,19.4581],[-90.7101,14.0782,20.5921],[-90.7079,14.0784,22.4004],[-90.7074,14.0746,18.4176],[-90.7088,14.0725,21.1971],[-90.7065,14.0687,16.8813],[-90.708,14.064,21.3927],[-90.6969,14.0625,16.5118],[-90.6812,14.0643,18.885],[-90.6731,14.0619,20.1905],[-90.6799,14.0514,18.1469],[-90.6793,14.0334,12.045],[-90.6699,14.0361,14.031],[-90.669,14.035,13.843],[-90.6778,14.0163,9.9273],[-90.6772,14.014,9.9203],[-90.671,14.0146,11.2137],[-90.6689,14.0072,9.4609],[-90.6619,14.0112,10.9047],[-90.6572,14.0116,9.6768],[-90.6573,14.014,10.2675],[-90.6172,14.0138,7.935],[-90.6193,14.0168,9.9888],[-90.6172,14.0695,16.7296],[-90.5903,14.0705,19.8486],[-90.5894,14.0787,20.4828],[-90.5919,14.083,25.4651],[-90.5898,14.0919,22.5959],[-90.5839,14.0935,28.6617],[-90.5747,14.0992,50.4355],[-90.5659,14.1005,83.7151],[-90.5616,14.0982,86.7123],[-90.5546,14.1008,122.8078],[-90.554,14.1222,224.7412],[-90.5551,14.1245,221.7338],[-90.564,14.1258,195.2113],[-90.5665,14.1338,254.2241],[-90.5934,14.1371,175.519],[-90.591,14.158,238.2264],[-90.5666,14.1565,366.5303],[-90.5489,14.1719,642.438],[-90.5296,14.1804,1044.8148],[-90.5201,14.1928,1634.6737],[-90.5091,14.1991,1661.859],[-90.5192,14.2024,1716.7473],[-90.5286,14.2157,1372.696],[-90.5518,14.1969,808.7522],[-90.5583,14.1952,693.8353],[-90.5623,14.1961,679.261],[-90.5645,14.2,632.1829],[-90.5745,14.2027,542.5236],[-90.5968,14.1953,291.2511],[-90.6021,14.2072,212.139],[-90.6007,14.2112,214.4978],[-90.5969,14.2171,257.5413],[-90.5946,14.2252,269.8532],[-90.5897,14.2302,379.4514],[-90.5863,14.2379,379.252],[-90.5884,14.2419,317.3323],[-90.579,14.2473,453.098],[-90.5729,14.2566,514.6169],[-90.573,14.2683,617.1422],[-90.5687,14.2719,643.7048],[-90.5663,14.2785,675.3972],[-90.569,14.2863,670.6635],[-90.5757,14.2904,766.7546],[-90.5775,14.2988,937.334],[-90.5905,14.3067,1179.8767],[-90.6418,14.2912,822.0589],[-90.6541,14.2706,627.2025],[-90.6709,14.2601,546.7268],[-90.6914,14.2503,350.2787],[-90.688,14.2474,287.6378],[-90.6835,14.2374,276.2257],[-90.6979,14.2291,134.4365],[-90.6967,14.2265,122.6702],[-90.6921,14.2253,114.6883],[-90.69,14.2155,104.9421],[-90.6841,14.2113,89.7939],[-90.6816,14.207,78.1224],[-90.6821,14.2018,76.2767],[-90.6716,14.1897,69.926],[-90.6694,14.1855,66.113],[-90.669,14.1776,61.5864],[-90.6672,14.1737,58.2067],[-90.6687,14.1729,60.8199],[-90.6719,14.1593,63.74],[-90.6765,14.1554,48.0104],[-90.7074,14.1722,96.9302],[-90.7139,14.1855,108.1577],[-90.7206,14.189,117.4497],[-90.7226,14.1865,116.3571],[-90.741,14.1881,127.6974],[-90.7426,14.1857,125.553],[-90.7435,14.1726,115.4973],[-90.7552,14.1676,105.2581]]]]}}