{"type":"Feature","properties":{"GID_2":"GTM.11.17_1","GID_0":"GTM","country":"Guatemala","GID_1":"GTM.11_1","province":"Jutiapa","NL_NAME_1":"NA","county":"Zapotitlán","VARNAME_2":"NA","NL_NAME_2":"NA","TYPE_2":"Municipio","ENGTYPE_2":"Municipality","CC_2":"NA","HASC_2":"NA","name":"Zapotitlán.county"},
"geometry":{"type": "MultiPolygon","coordinates": [[[[-89.7969,14.0555,533.7592],[-89.7911,14.0675,869.4642],[-89.7851,14.0684,900.2412],[-89.7766,14.0745,985.5828],[-89.772,14.0861,716.5001],[-89.786,14.1049,1008.1516],[-89.791,14.1061,966.6265],[-89.7942,14.1033,970.3276],[-89.7966,14.1032,966.0869],[-89.7988,14.1047,951.7922],[-89.7963,14.118,1047.9541],[-89.7891,14.1312,1140.9547],[-89.7762,14.1406,939.2121],[-89.78,14.1407,980.4869],[-89.7816,14.1459,952.6465],[-89.7774,14.1537,921.6207],[-89.7803,14.1588,938.1713],[-89.7898,14.1585,911.3672],[-89.8042,14.155,910.8191],[-89.8077,14.1574,938.48],[-89.812,14.164,1017.9224],[-89.8156,14.1592,1026.2198],[-89.8212,14.1622,1061.577],[-89.862799999999993,14.1638,724.1675],[-89.8697,14.158,580.924],[-89.87,14.1525,537.115],[-89.8671,14.1507,602.5074],[-89.8666,14.1444,557.0696],[-89.8584,14.1339,469.0454],[-89.8476,14.1305,554.4246],[-89.8428,14.1258,568.9041],[-89.839,14.1205,618.6153],[-89.8386,14.1139,594.9119],[-89.8394,14.1077,528.2213],[-89.849,14.094,431.1733],[-89.8499,14.0914,382.0446],[-89.8482,14.0875,410.9544],[-89.8501,14.0834,397.4741],[-89.8606,14.0771,371.4953],[-89.8619,14.0704,386.1812],[-89.8662,14.0666,356.2315],[-89.8663,14.0633,351.4367],[-89.8589,14.0597,380.0969],[-89.8405,14.0582,375.9151],[-89.8307,14.0624,418.3102],[-89.8174,14.0644,462.8644],[-89.8106,14.0626,526.5588],[-89.8076,14.0597,502.7133],[-89.8029,14.059,612.5877],[-89.8012,14.0559,548.9998],[-89.7969,14.0555,533.7592]]]]}}