{"type": "Feature","bbox": [-91.8116,15.0222,-91.6855,15.1958],"geometry": {"type": "MultiPolygon","coordinates": [[[[-91.6857,15.1362,1969.1912],[-91.6898,15.1406,2050.9695],[-91.6994,15.1429,2112.3884],[-91.7081,15.1491,2191.8286],[-91.7123,15.1486,2336.9119],[-91.7158,15.1419,2490.0349],[-91.7186,15.1417,2492.4031],[-91.7332,15.1481,2613.1187],[-91.7362,15.1469,2687.2625],[-91.7361,15.1539,2460.1877],[-91.7472,15.1635,2583.9407],[-91.7585,15.1634,2779.8557],[-91.7624,15.1619,2880.5684],[-91.763,15.1629,2858.7339],[-91.7525,15.1724,2731.2451],[-91.7423,15.1847,2642.1946],[-91.7366,15.1958,2378.9688],[-91.7438,15.1922,2496.2798],[-91.7556,15.194,2559.9795],[-91.7637,15.1917,2704.9189],[-91.773,15.1922,2807.0452],[-91.7844,15.1871,2897.6162],[-91.7958,15.1861,2872.8867],[-91.7862,15.1539,2946.5515],[-91.7834,15.1516,2900.6282],[-91.7751,15.1508,2830.4441],[-91.7744,15.1453,2544.1675],[-91.7694,15.1368,2495.8743],[-91.7702,15.1117,2321.8989],[-91.7745,15.1019,2359.5532],[-91.7836,15.0932,2296.1643],[-91.7801,15.092,2302.1499],[-91.7797,15.0904,2322.4902],[-91.7936,15.0783,2642.322],[-91.8111,15.0715,2808.7307],[-91.8116,15.066,2903.449],[-91.8067,15.0624,2946.7144],[-91.8031,15.0623,2921.9185],[-91.8035,15.0508,2890.6726],[-91.796,15.0402,2934.0793],[-91.7935,15.0331,2945.3433],[-91.7843,15.0329,2883.906],[-91.7802,15.0346,2832.147],[-91.7751,15.0423,2876.0591],[-91.7646,15.0482,2751.7295],[-91.7558,15.0462,2707.5881],[-91.7314,15.0469,2740.2437],[-91.7253,15.0448,2686.8062],[-91.7081,15.0222,2520.8584],[-91.6967,15.0382,2491.2512],[-91.7032,15.0601,2347.9824],[-91.7024,15.0856,2119.0593],[-91.6981,15.0925,2192.762],[-91.7031,15.102,2216.2441],[-91.7034,15.1056,2143.0342],[-91.7021,15.111,1998.6992],[-91.6981,15.1143,2039.0911],[-91.6965,15.118,1982.6348],[-91.693,15.1184,1978.7502],[-91.6911,15.1247,1952.1165],[-91.6855,15.1315,1971.8519],[-91.6872,15.134,1924.6843],[-91.6857,15.1362,1969.1912]]]]}
,"properties": {"GID_2": "GTM.17.3_1","GID_0": "GTM","country": "Guatemala","GID_1": "GTM.17_1","province": "SanMarcos","NL_NAME_1": "NA","county": "Comitancillo","VARNAME_2": "NA","NL_NAME_2": "NA","TYPE_2": "Municipio","ENGTYPE_2": "Municipality","CC_2": "NA","HASC_2": "NA","name": "Comitancillo.county","area_km2": 134.1797,"hist_schema_id": "Elevation0-9000","hist_area_km2": {"1900": 0.0614,"1925": 0.0819,"1950": 0.2047,"1975": 0.3889,"2000": 0.3684,"2025": 0.4708,"2050": 0.7164,"2075": 1.2077,"2100": 1.4738,"2125": 1.3919,"2150": 1.7604,"2175": 2.7225,"2200": 3.3775,"2225": 4.401,"2250": 4.1963,"2275": 4.831,"2300": 4.5854,"2325": 3.8894,"2350": 4.2579,"2375": 3.9917,"2400": 4.2579,"2425": 4.2169,"2450": 3.8485,"2475": 3.2343,"2500": 3.8893,"2525": 3.4593,"2550": 3.316,"2575": 3.4798,"2600": 3.2956,"2625": 3.0908,"2650": 3.7663,"2675": 3.9709,"2700": 4.0529,"2725": 4.8513,"2750": 5.138,"2775": 4.2782,"2800": 4.749,"2825": 4.5444,"2850": 4.442,"2875": 3.5002,"2900": 3.1521,"2925": 3.2137,"2950": 2.6817,"2975": 0.9827,"3000": 0.2252,"3025": 0.1637}}}