{"type": "Feature","bbox": [-91.5798,14.8975,-91.5175,14.9461],"geometry": {"type": "MultiPolygon","coordinates": [[[[-91.5731,14.9135,2982.8926],[-91.5743,14.9099,3030.0359],[-91.5798,14.9039,3031.3638],[-91.5776,14.8975,2894.5798],[-91.5724,14.8979,2900.272],[-91.5594,14.9079,3051.8667],[-91.5493,14.9114,2846.366],[-91.5378,14.9041,2794.5227],[-91.5299,14.907,2839.8362],[-91.5175,14.9229,2698.1208],[-91.5236,14.9319,2732.7932],[-91.5248,14.9461,2702.917],[-91.5534,14.9384,2764.6045],[-91.5513,14.9277,2794.4236],[-91.5563,14.9275,2774.5708],[-91.5651,14.9314,2728.665],[-91.5713,14.9299,2714.5684],[-91.5731,14.9135,2982.8926]]]]}
,"properties": {"GID_2": "GTM.13.19_1","GID_0": "GTM","country": "Guatemala","GID_1": "GTM.13_1","province": "Quezaltenango","NL_NAME_1": "NA","county": "SanFranciscoLaUnión","VARNAME_2": "NA","NL_NAME_2": "NA","TYPE_2": "Municipio","ENGTYPE_2": "Municipality","CC_2": "NA","HASC_2": "NA","name": "San_Francisco_La_Unión.county","area_km2": 18.97119,"hist_schema_id": "Elevation0-9000","hist_area_km2": {"2675": 0.3073,"2700": 1.33163,"2725": 2.74521,"2750": 2.82715,"2775": 2.76571,"2800": 1.90531,"2825": 1.37266,"2850": 0.98341,"2875": 0.65561,"2900": 0.40976,"2925": 0.5122,"2950": 0.5122,"2975": 0.38928,"3000": 0.84003,"3025": 1.04493,"3050": 0.24587,"3075": 0.12293}}}