{"type":"Feature","properties":{"GID_2":"GTM.13.20_1","GID_0":"GTM","country":"Guatemala","GID_1":"GTM.13_1","province":"Quezaltenango","NL_NAME_1":"NA","county":"SanMartínSacatepéquez","VARNAME_2":"NA","NL_NAME_2":"NA","TYPE_2":"Municipio","ENGTYPE_2":"Municipality","CC_2":"NA","HASC_2":"NA","name":"San_Martín_Sacatepéquez.county"},
"geometry":{"type": "MultiPolygon","coordinates": [[[[-91.6689,14.7195,1128.6544],[-91.6678,14.7333,1359.0502],[-91.6664,14.7349,1398.8645],[-91.6575,14.7378,1434.7374],[-91.649,14.7344,1376.8387],[-91.6471,14.7402,1463.6321],[-91.6406,14.7494,1595.9585],[-91.6309,14.7542,1828.0658],[-91.6277,14.7577,1906.6079],[-91.6193,14.757,1626.7577],[-91.6124,14.7542,1837.1526],[-91.5885,14.7812,2800.9424],[-91.5824,14.805,3010.3452],[-91.5844,14.8108,3059.9756],[-91.5931,14.8243,3125.7944],[-91.608,14.8199,2827.5544],[-91.6256,14.8178,3002.7988],[-91.634,14.8262,2710.0234],[-91.6416,14.829,2539.2764],[-91.6501,14.8469,3097.4863],[-91.6573,14.8462,2887.541],[-91.6623,14.8478,3093.8882],[-91.6735,14.8456,2665.3413],[-91.6787,14.848,2530.8494],[-91.6966,14.839,2091.4482],[-91.7161,14.835,2051.0928],[-91.723,14.8319,1926.1749],[-91.7234,14.8122,2088.4663],[-91.7325,14.7912,1418.3892],[-91.7336,14.7854,1357.1848],[-91.73,14.7764,1295.9103],[-91.7277,14.7771,1308.3002],[-91.7243,14.7821,1436.2462],[-91.721,14.7805,1427.8286],[-91.7201,14.7719,1385.5726],[-91.7163,14.7642,1272.3051],[-91.7255,14.7421,1048.8552],[-91.7278,14.7319,1067.2239],[-91.7024,14.7275,1296.7362],[-91.6919,14.7408,1384.3462],[-91.6844,14.7419,1448.7227],[-91.6818,14.7411,1454.5105],[-91.6795,14.7333,1408.062],[-91.6689,14.7195,1128.6544]]]]}}