{"type":"Feature","properties":{"GID_2":"GTM.22.10_1","GID_0":"GTM","country":"Guatemala","GID_1":"GTM.22_1","province":"Zacapa","NL_NAME_1":"NA","county":"Zacapa","VARNAME_2":"NA","NL_NAME_2":"NA","TYPE_2":"Municipio","ENGTYPE_2":"Municipality","CC_2":"NA","HASC_2":"NA","name":"Zacapa.county"},
"geometry":{"type": "MultiPolygon","coordinates": [[[[-89.4935,14.8646,578.1918],[-89.4844,14.891,699.7838],[-89.4327,14.9027,1510.8127],[-89.4223,14.91,1321.3352],[-89.3988,14.9018,1337.246],[-89.3945,14.9153,1420.6687],[-89.3867,14.9303,1283.0076],[-89.3571,14.954,977.8965],[-89.3387,14.9629,833.8925],[-89.3212,14.9826,760.3812],[-89.32,14.9877,699.8712],[-89.3241,14.9928,640.4771],[-89.3258,14.998,610.1469],[-89.3251,15.0037,692.6597],[-89.3213,15.009,539.7213],[-89.3234,15.0181,562.6646],[-89.3169,15.0217,478.4548],[-89.3182,15.0266,469.0045],[-89.3458,15.0304,534.7269],[-89.3601,15.028,744.0348],[-89.3716,15.0352,723.2595],[-89.3702,15.0431,574.5957],[-89.3665,15.0503,486.6817],[-89.3697,15.0629,406.6398],[-89.3749,15.0671,302.5771],[-89.3793,15.0652,291.4406],[-89.3863,15.0564,463.4566],[-89.3923,15.0543,543.6736],[-89.3968,15.05,698.4224],[-89.4036,15.052,578.6468],[-89.4263,15.0522,490.311],[-89.4345,15.0786,188.8462],[-89.4383,15.0791,179.5631],[-89.4427,15.0766,193.1391],[-89.4474,15.0773,161.7598],[-89.4518,15.0724,204.2428],[-89.4613,15.0696,203.4476],[-89.4645,15.0709,186.4117],[-89.4684,15.0782,151.4683],[-89.4898,15.0692,197.5485],[-89.4983,15.0678,264.5667],[-89.5053,15.0597,155.4471],[-89.5365,15.051,165.3724],[-89.5529,15.033,170.9657],[-89.5536,15.0152,164.6604],[-89.5456,15.0014,184.4358],[-89.5472,14.9876,199.7267],[-89.5516,14.9826,175.9163],[-89.5496,14.9728,178.8258],[-89.5529,14.9699,181.7639],[-89.5642,14.966,196.2577],[-89.5755,14.9586,215.9689],[-89.5851,14.9492,234.2103],[-89.593,14.9517,235.8358],[-89.6096,14.9505,243.2728],[-89.6135,14.948,249.6952],[-89.6153,14.9449,255.1801],[-89.6103,14.9367,275.7434],[-89.6113,14.9332,286.9308],[-89.6163,14.9285,310.6993],[-89.6334,14.9248,626.21],[-89.6426,14.9147,584.7897],[-89.6465,14.8718,805.4249],[-89.626,14.8642,954.7914],[-89.5072,14.8633,554.9075],[-89.502,14.8573,679.8878],[-89.497,14.8593,704.0149],[-89.4935,14.8646,578.1918]]]]}}