{"type": "Feature","bbox": [-90.9562,14.662,-90.8995,14.7195],"geometry": {"type": "MultiPolygon","coordinates": [[[[-90.9392,14.7151,2080.5459],[-90.9455,14.7195,2109.749],[-90.9557,14.7133,2254.4026],[-90.9562,14.7107,2221.8872],[-90.9533,14.7052,2217.4341],[-90.9529,14.6885,2158.6731],[-90.9443,14.6877,2144.718],[-90.943,14.6803,2134.1692],[-90.9351,14.6765,2125.8667],[-90.9336,14.6721,2118.8892],[-90.9362,14.6682,2115.5894],[-90.9331,14.6629,2090.0122],[-90.9235,14.662,2094.9717],[-90.9196,14.6646,2079.5957],[-90.9162,14.6642,2037.9391],[-90.9109,14.6693,1996.5544],[-90.9105,14.6755,1980.6804],[-90.9085,14.6794,2041.2808],[-90.9005,14.6823,2001.1005],[-90.8995,14.6952,1865.3582],[-90.909,14.6963,1952.407],[-90.9187,14.7064,1966.4916],[-90.9222,14.7046,1998.7256],[-90.9244,14.7057,2079.5542],[-90.9273,14.6996,2003.9895],[-90.9287,14.6999,2001.5676],[-90.9347,14.7046,2063.0542],[-90.936,14.7086,2102.2686],[-90.9382,14.7102,2098.9363],[-90.9392,14.7151,2080.5459]]]]}
,"properties": {"GID_2": "GTM.3.13_1","GID_0": "GTM","country": "Guatemala","GID_1": "GTM.3_1","province": "Chimaltenango","NL_NAME_1": "NA","county": "SantaCruzBalanyá","VARNAME_2": "NA","NL_NAME_2": "NA","TYPE_2": "Municipio","ENGTYPE_2": "Municipality","CC_2": "NA","HASC_2": "NA","name": "Santa_Cruz_Balanyá.county","area_km2": 20.5092,"hist_schema_id": "Elevation0-9000","hist_area_km2": {"1850": 0.02051,"1875": 0.04102,"1900": 0.02051,"1925": 0.22559,"1950": 0.26662,"1975": 0.43069,"2000": 0.73833,"2025": 0.92292,"2050": 3.03538,"2075": 3.91732,"2100": 3.95837,"2125": 3.13792,"2150": 2.00985,"2175": 1.23048,"2200": 0.47167,"2225": 0.08203}}}