{"type":"Feature","properties":{"GID_2":"GTM.8.6_1","GID_0":"GTM","country":"Guatemala","GID_1":"GTM.8_1","province":"Huehuetenango","NL_NAME_1":"NA","county":"Huehuetenango","VARNAME_2":"NA","NL_NAME_2":"NA","TYPE_2":"Municipio","ENGTYPE_2":"Municipality","CC_2":"NA","HASC_2":"NA","name":"Huehuetenango.county"},
"geometry":{"type": "MultiPolygon","coordinates": [[[[-91.3715,15.3591,2397.8723],[-91.4143,15.3551,2119.5579],[-91.4337,15.3571,2101.6899],[-91.4442,15.3563,2027.5038],[-91.4519,15.3679,2266.8691],[-91.4699,15.3822,2616.4099],[-91.4832,15.382,2345.4414],[-91.4931,15.3801,2155.8386],[-91.4985,15.3827,2137.8672],[-91.514,15.3778,2011.3464],[-91.5216,15.3677,1883.5503],[-91.5285,15.3531,1972.9855],[-91.5269,15.3424,1861.1746],[-91.5123,15.3336,1862.5601],[-91.4944,15.3333,1869.9851],[-91.4691,15.329,1929.6331],[-91.461,15.3318,1963.5454],[-91.4453,15.3313,2021.0269],[-91.4144,15.3255,2077.1216],[-91.4007,15.3255,2113.7849],[-91.3869,15.3208,2167.4556],[-91.3802,15.3118,2212.4045],[-91.3811,15.304,2048.418],[-91.3846,15.2996,1932.8522],[-91.3761,15.2862,1909.7139],[-91.3682,15.2794,1927.0873],[-91.3695,15.2678,2086.5112],[-91.3756,15.2562,2026.0173],[-91.3714,15.2483,1852.1357],[-91.3721,15.2126,1660.4978],[-91.3613,15.2261,1614.38],[-91.3551,15.2296,1639.1677],[-91.347,15.2315,1642.7617],[-91.343,15.2344,1643.0432],[-91.3401,15.2331,1654.5209],[-91.3276,15.2343,1569.1865],[-91.3198,15.2494,1517.8359],[-91.3262,15.265,1529.2463],[-91.3214,15.272,1456.4347],[-91.3072,15.2733,1560.2327],[-91.2895,15.2809,1441.5643],[-91.2827,15.2806,1553.0009],[-91.2738,15.2755,1455.2626],[-91.2753,15.3014,1621.3326],[-91.2739,15.3219,1824.4207],[-91.2839,15.3401,1709.1106],[-91.3144,15.3453,1703.0083],[-91.345,15.3482,1915.1296],[-91.3715,15.3591,2397.8723]]]]}}