{"type": "Feature","bbox": [-90.794,14.5373,-90.77,14.571],"geometry": {"type": "MultiPolygon","coordinates": [[[[-90.7813,14.5683,1811.2607],[-90.7887,14.571,2075.3203],[-90.794,14.5681,2098.7056],[-90.7936,14.5644,1999.3862],[-90.788,14.5618,1798.8655],[-90.7862,14.5577,1704.6169],[-90.7862,14.551,1483.4609],[-90.7895,14.5439,1457.3909],[-90.7831,14.5373,1626.8761],[-90.778,14.5403,1578.4412],[-90.7735,14.5459,1641.3582],[-90.7706,14.5524,1747.2205],[-90.77,14.5594,1936.1897],[-90.7813,14.5683,1811.2607]]]]}
,"properties": {"GID_2": "GTM.16.7_1","GID_0": "GTM","country": "Guatemala","GID_1": "GTM.16_1","province": "Sacatepéquez","NL_NAME_1": "NA","county": "SanAntonioAguasCalientes","VARNAME_2": "NA","NL_NAME_2": "NA","TYPE_2": "Municipio","ENGTYPE_2": "Municipality","CC_2": "NA","HASC_2": "NA","name": "San_Antonio_Aguas_Calientes.county","area_km2": 5.376703,"hist_schema_id": "Elevation0-9000","hist_area_km2": {"1450": 0.225752,"1475": 0.861948,"1500": 0.410447,"1525": 0.225744,"1550": 0.246265,"1575": 0.266787,"1600": 0.32835,"1625": 0.266781,"1650": 0.369386,"1675": 0.184694,"1700": 0.164172,"1725": 0.328342,"1750": 0.123129,"1775": 0.205214,"1800": 0.225732,"1825": 0.205211,"1850": 0.102606,"1875": 0.041042,"1900": 0.061562,"1925": 0.123126,"1950": 0.020521,"1975": 0.041041,"2000": 0.041042,"2050": 0.041041,"2075": 0.102603,"2100": 0.143644,"2125": 0.020521}}}