{"type":"Feature","properties":{"GID_2":"GTM.20.10_1","GID_0":"GTM","country":"Guatemala","GID_1":"GTM.20_1","province":"Suchitepéquez","NL_NAME_1":"NA","county":"SanFranciscoZapotitlán","VARNAME_2":"NA","NL_NAME_2":"NA","TYPE_2":"Municipio","ENGTYPE_2":"Municipality","CC_2":"NA","HASC_2":"NA","name":"San_Francisco_Zapotitlán.county"},
"geometry":{"type": "MultiPolygon","coordinates": [[[[-91.5335,14.5638,496.4969],[-91.5199,14.5782,570.0452],[-91.5136,14.5944,669.9248],[-91.5097,14.6004,705.5339],[-91.5278,14.6056,731.7193],[-91.5317,14.623,812.2312],[-91.5429,14.6077,690.3973],[-91.5471,14.5948,618.1957],[-91.5458,14.5899,592.1697],[-91.5357,14.5768,548.0202],[-91.5335,14.5638,496.4969]]]]}}