{"type": "Feature","bbox": [-89.9879,14.4387,-89.8263,14.5911],"geometry": {"type": "MultiPolygon","coordinates": [[[[-89.9809,14.4513,1404.1545],[-89.9751,14.4542,1434.6389],[-89.926,14.4631,1314.854],[-89.8942,14.441,1286.0118],[-89.8888,14.4387,1286.8479],[-89.8834,14.464,999.9572],[-89.8743,14.4709,965.6359],[-89.8652,14.4688,969.7435],[-89.8596,14.4698,970.4156],[-89.8497,14.4747,967.9962],[-89.8486,14.4886,963.6313],[-89.8371,14.5006,968.652],[-89.8309,14.5137,931.2526],[-89.8374,14.5177,993.5495],[-89.8357,14.5345,1017.4617],[-89.8363,14.5443,1036.7963],[-89.8329,14.5526,1107.4666],[-89.8263,14.5571,1181.5105],[-89.8281,14.5588,1240.4559],[-89.8331,14.5579,1097.0594],[-89.8474,14.5671,1059.1685],[-89.8504,14.5675,1089.6384],[-89.854,14.5613,1026.2158],[-89.8558,14.5599,1036.0367],[-89.8576,14.5606,1043.1968],[-89.8651,14.5883,1124.8342],[-89.8687,14.5905,1138.937],[-89.8837,14.5911,1219.4663],[-89.8951,14.5893,1197.4496],[-89.8979,14.5878,1152.6589],[-89.9002,14.5836,1184.0645],[-89.8984,14.5772,1157.4844],[-89.902,14.5762,1087.8312],[-89.9109,14.5812,1208.1388],[-89.926,14.582,1357.2651],[-89.9247,14.5719,1227.4417],[-89.9283,14.5603,1159.1282],[-89.9316,14.5554,1089.5815],[-89.9415,14.5468,1159.7354],[-89.9414,14.5437,1092.0278],[-89.9361,14.542,1071.3269],[-89.9384,14.5332,1017.8032],[-89.9337,14.533,1044.6519],[-89.9327,14.5306,1021.3734],[-89.9341,14.5271,1003.0366],[-89.938,14.5233,1002.535],[-89.9522,14.5217,1015.9349],[-89.9573,14.5196,1035.1239],[-89.9654,14.5068,1252.2087],[-89.9724,14.4891,1326.8877],[-89.9755,14.4854,1320.8433],[-89.9735,14.4753,1350.4537],[-89.9745,14.4715,1347.8621],[-89.9879,14.4619,1255.0085],[-89.9879,14.4583,1297.2041],[-89.9809,14.4513,1404.1545]]]]}
,"properties": {"GID_2": "GTM.10.3_1","GID_0": "GTM","country": "Guatemala","GID_1": "GTM.10_1","province": "Jalapa","NL_NAME_1": "NA","county": "Monjas","VARNAME_2": "NA","NL_NAME_2": "NA","TYPE_2": "Municipio","ENGTYPE_2": "Municipality","CC_2": "NA","HASC_2": "NA","name": "Monjas.county","area_km2": 164.5531,"hist_schema_id": "Elevation0-9000","hist_area_km2": {"925": 0.1026,"950": 15.3538,"975": 41.2158,"1000": 22.5151,"1025": 15.0235,"1050": 11.1442,"1075": 8.3531,"1100": 5.9314,"1125": 5.2749,"1150": 4.3718,"1175": 4.228,"1200": 4.0025,"1225": 2.853,"1250": 3.0791,"1275": 2.7508,"1300": 2.5866,"1325": 3.3052,"1350": 2.5867,"1375": 1.6834,"1400": 1.6424,"1425": 1.6219,"1450": 1.704,"1475": 0.9033,"1500": 0.7186,"1525": 0.2874,"1550": 0.4311,"1575": 0.2464,"1600": 0.349,"1625": 0.2258,"1650": 0.0616}}}