{"type": "Feature","bbox": [-91.2429,14.748,-91.2028,14.7982],"geometry": {"type": "MultiPolygon","coordinates": [[[[-91.2291,14.7969,2387.3984],[-91.2387,14.7803,2394.7661],[-91.238,14.7729,2333.0525],[-91.2429,14.7629,2416.0122],[-91.2412,14.748,2362.1831],[-91.2353,14.75,2467.8184],[-91.2188,14.75,1976.8107],[-91.212,14.758,2475.0054],[-91.2028,14.7619,2325.3994],[-91.2078,14.7632,2320.0127],[-91.2104,14.7659,2231.4795],[-91.2088,14.7747,2126.8633],[-91.214,14.7822,2323.9321],[-91.2164,14.7982,2308.6289],[-91.2291,14.7969,2387.3984]]]]}
,"properties": {"GID_2": "GTM.19.7_1","GID_0": "GTM","country": "Guatemala","GID_1": "GTM.19_1","province": "Sololá","NL_NAME_1": "NA","county": "SanJoséChacayá","VARNAME_2": "NA","NL_NAME_2": "NA","TYPE_2": "Municipio","ENGTYPE_2": "Municipality","CC_2": "NA","HASC_2": "NA","name": "San_José_Chacayá.county","area_km2": 14.82261,"hist_schema_id": "Elevation0-9000","hist_area_km2": {"2000": 0.0205,"2025": 0.0205,"2050": 0.04101,"2075": 0.06151,"2100": 0.04101,"2125": 0.16402,"2150": 0.14351,"2175": 0.30753,"2200": 0.49204,"2225": 0.45104,"2250": 0.69703,"2275": 1.12757,"2300": 1.27107,"2325": 1.6401,"2350": 2.2551,"2375": 2.0296,"2400": 1.27108,"2425": 0.61508,"2450": 0.47156,"2475": 0.38955,"2500": 0.41006,"2525": 0.20503,"2550": 0.24603,"2575": 0.24603,"2600": 0.10251,"2625": 0.06151,"2650": 0.04101}}}