{"type": "Feature","bbox": [-91.5885,14.732,-91.4581,14.8782],"geometry": {"type": "MultiPolygon","coordinates": [[[[-91.4614,14.8161,2455.9556],[-91.4581,14.8215,2403.0649],[-91.4631,14.833,2381.3831],[-91.4608,14.8383,2317.2283],[-91.4717,14.8409,2322.8638],[-91.4728,14.8459,2362.1494],[-91.4684,14.8539,2358.2761],[-91.4741,14.858,2322.9636],[-91.479,14.8725,2382.5627],[-91.4826,14.8782,2354.6306],[-91.4935,14.8782,2335.9282],[-91.4952,14.8701,2378.8936],[-91.5004,14.8643,2383.0459],[-91.5205,14.8681,2383.4797],[-91.5293,14.8633,2381.1396],[-91.539,14.8624,2392.3188],[-91.5443,14.864,2424.0918],[-91.5489,14.8698,2426.1021],[-91.5587,14.8662,2463.0715],[-91.5568,14.8645,2462.7415],[-91.5588,14.8605,2480.0303],[-91.5626,14.8614,2479.949],[-91.5674,14.8578,2498.8838],[-91.5699,14.8503,2541.5457],[-91.5771,14.8471,2629.8452],[-91.57,14.8276,2809.094],[-91.5749,14.8191,3016.9214],[-91.5844,14.8108,3059.9756],[-91.5824,14.805,3010.3452],[-91.5885,14.7812,2800.9424],[-91.5728,14.7335,2010.9229],[-91.5468,14.732,2230.8462],[-91.5408,14.7382,2397.5354],[-91.5189,14.7437,1863.3463],[-91.512,14.7556,2057.9163],[-91.5132,14.7646,2369.51],[-91.5182,14.7706,2547.7036],[-91.5174,14.7734,2638.5903],[-91.5134,14.7754,2344.6782],[-91.5098,14.7833,2584.7715],[-91.5004,14.792,2670.7144],[-91.4991,14.7978,2594.7542],[-91.4997,14.8016,2630.6516],[-91.5074,14.8088,2635.0752],[-91.507,14.8127,2583.5381],[-91.5036,14.816,2313.7214],[-91.4977,14.8184,2342.2329],[-91.4925,14.8183,2276.8394],[-91.4897,14.8235,2404.3289],[-91.4839,14.8249,2630.1223],[-91.4614,14.8161,2455.9556]]]]}
,"properties": {"GID_2": "GTM.13.16_1","GID_0": "GTM","country": "Guatemala","GID_1": "GTM.13_1","province": "Quezaltenango","NL_NAME_1": "NA","county": "Quetzaltenango","VARNAME_2": "NA","NL_NAME_2": "NA","TYPE_2": "Municipio","ENGTYPE_2": "Municipality","CC_2": "NA","HASC_2": "NA","name": "Quetzaltenango.county","area_km2": 130.7977,"hist_schema_id": "Elevation0-9000","hist_area_km2": {"1900": 0.082,"1925": 0.1435,"1950": 0.1435,"1975": 0.2255,"2000": 0.205,"2025": 0.1435,"2050": 0.2665,"2075": 0.287,"2100": 0.3076,"2125": 0.3486,"2150": 0.3691,"2175": 0.5126,"2200": 0.5536,"2225": 0.8201,"2250": 0.7586,"2275": 0.7791,"2300": 1.0661,"2325": 7.7061,"2350": 9.6534,"2375": 14.9608,"2400": 9.7769,"2425": 6.6821,"2450": 6.6617,"2475": 4.8169,"2500": 5.1449,"2525": 5.186,"2550": 3.9357,"2575": 4.0587,"2600": 4.1408,"2625": 4.2844,"2650": 3.2184,"2675": 3.7924,"2700": 3.4439,"2725": 3.5054,"2750": 2.6035,"2775": 2.706,"2800": 2.2755,"2825": 1.804,"2850": 1.722,"2875": 1.1685,"2900": 1.148,"2925": 1.148,"2950": 0.8815,"2975": 1.0045,"3000": 0.984,"3025": 0.8405,"3050": 0.697,"3075": 0.451,"3100": 0.3895,"3125": 0.164,"3150": 0.1845,"3175": 0.246,"3200": 0.3075,"3225": 0.1845,"3250": 0.1845,"3275": 0.1845,"3300": 0.1025,"3325": 0.2255,"3350": 0.123,"3375": 0.164,"3400": 0.0615,"3425": 0.1025,"3450": 0.0615,"3475": 0.082,"3500": 0.082,"3525": 0.1025,"3550": 0.082,"3575": 0.1025,"3600": 0.041,"3625": 0.0615,"3650": 0.041,"3675": 0.0615,"3700": 0.041}}}