{"type": "Feature","bbox": [-90.8636,14.6184,-90.7501,14.7481],"geometry": {"type": "MultiPolygon","coordinates": [[[[-90.7593,14.7316,1455.9072],[-90.7596,14.736,1345.859],[-90.7501,14.7477,1275.0913],[-90.7692,14.7481,1388.6979],[-90.7722,14.7437,1437.5858],[-90.7875,14.7375,1434.0052],[-90.7906,14.7384,1481.4248],[-90.7998,14.7312,1555.3872],[-90.8036,14.7328,1512.8926],[-90.81,14.7291,1533.407],[-90.8148,14.7243,1625.7781],[-90.8155,14.7183,1616.9724],[-90.8186,14.7119,1586.3218],[-90.8336,14.703,1652.1526],[-90.8382,14.7024,1713.1548],[-90.8403,14.7003,1731.712],[-90.8426,14.6893,1785.4265],[-90.8486,14.6829,1762.4321],[-90.8503,14.6831,1762.4321],[-90.852,14.6793,1774.0481],[-90.8543,14.6792,1753.6625],[-90.8588,14.6748,1949.1277],[-90.858,14.6648,1967.0272],[-90.8636,14.6512,2015.3359],[-90.8546,14.6505,2006.5717],[-90.8497,14.648,1927.2271],[-90.8475,14.6439,1862.1807],[-90.8401,14.6425,1868.2904],[-90.8293,14.6333,1778.4568],[-90.8208,14.622,1771.2919],[-90.8126,14.6184,1764.1072],[-90.8113,14.6264,1765.1848],[-90.8139,14.6465,1770.5222],[-90.8128,14.6597,1783.2104],[-90.802,14.6754,1766.63],[-90.7989,14.6884,1786.46],[-90.7941,14.6995,1778.7543],[-90.7847,14.7172,1620.5674],[-90.7796,14.7211,1614.0936],[-90.7685,14.7249,1589.9736],[-90.764,14.7304,1492.4359],[-90.7593,14.7316,1455.9072]]]]}
,"properties": {"GID_2": "GTM.3.2_1","GID_0": "GTM","country": "Guatemala","GID_1": "GTM.3_1","province": "Chimaltenango","NL_NAME_1": "NA","county": "Chimaltenango","VARNAME_2": "NA","NL_NAME_2": "NA","TYPE_2": "Municipio","ENGTYPE_2": "Municipality","CC_2": "NA","HASC_2": "NA","name": "Chimaltenango.county","area_km2": 56.64717,"hist_schema_id": "Elevation0-9000","hist_area_km2": {"1275": 0.08201,"1300": 0.08202,"1325": 0.24605,"1350": 0.43059,"1375": 0.32807,"1400": 0.57412,"1425": 0.49211,"1450": 0.51262,"1475": 0.69717,"1500": 1.06626,"1525": 1.04576,"1550": 1.23032,"1575": 1.45592,"1600": 1.12783,"1625": 1.37393,"1650": 1.53804,"1675": 2.23531,"1700": 2.83011,"1725": 2.70717,"1750": 3.99942,"1775": 10.99416,"1800": 5.66086,"1825": 4.40982,"1850": 4.98425,"1875": 2.39983,"1900": 1.29224,"1925": 0.96406,"1950": 0.82049,"1975": 0.4923,"2000": 0.34871,"2025": 0.22564}}}