{"type":"Feature","properties":{"GID_2":"GTM.2.1_1","GID_0":"GTM","country":"Guatemala","GID_1":"GTM.2_1","province":"BajaVerapaz","NL_NAME_1":"NA","county":"Cubulco","VARNAME_2":"NA","NL_NAME_2":"NA","TYPE_2":"Municipio","ENGTYPE_2":"Municipality","CC_2":"NA","HASC_2":"NA","name":"Cubulco.county"},
"geometry":{"type": "MultiPolygon","coordinates": [[[[-90.5778,15.004,2197.5483],[-90.5746,15.0165,1925.2946],[-90.5806,15.0236,1687.3936],[-90.578,15.0277,1678.0798],[-90.5691,15.0264,1980.3373],[-90.5526,15.0357,1733.5361],[-90.5487,15.0411,1535.5844],[-90.5412,15.0611,1525.1372],[-90.5542,15.0839,1302.5303],[-90.5669,15.0988,1030.5701],[-90.5678,15.1077,1239.9935],[-90.575,15.113,1147.3096],[-90.5755,15.1429,1053.0901],[-90.5742,15.1505,924.387],[-90.5687,15.1553,908.0254],[-90.5575,15.1723,1375.0298],[-90.547,15.1813,1562.3599],[-90.5446,15.1861,1513.519],[-90.5456,15.1902,1414.4711],[-90.5513,15.1949,1245.8855],[-90.5533,15.2023,1051.589],[-90.5617,15.2033,1028.0354],[-90.5714,15.2114,831.4038],[-90.5764,15.2091,1107.8369],[-90.5844,15.2089,881.0429],[-90.5866,15.2125,798.0],[-90.59,15.2137,814.234],[-90.5918,15.2068,1074.6956],[-90.5955,15.2049,999.9113],[-90.5992,15.1988,993.8033],[-90.6042,15.1993,860.3971],[-90.6094,15.2065,893.3855],[-90.6209,15.2055,954.774],[-90.6263,15.2068,865.3241],[-90.6274,15.2092,798.9137],[-90.6333,15.2115,799.459],[-90.6352,15.2071,963.572],[-90.6426,15.2072,900.8872],[-90.6439,15.2118,810.5713],[-90.6478,15.2112,808.1721],[-90.6577,15.2058,1264.1743],[-90.66,15.2073,1093.8835],[-90.6673,15.2068,953.0997],[-90.6794,15.2056,865.963],[-90.6829,15.2037,982.814],[-90.6968,15.2048,1024.5288],[-90.7042,15.2073,901.5151],[-90.7112,15.2044,1109.5323],[-90.7179,15.2075,932.6171],[-90.7221,15.2048,1340.7017],[-90.7264,15.2065,1076.7595],[-90.7332,15.2048,941.7007],[-90.7361,15.2123,1018.4945],[-90.7524,15.2213,931.4849],[-90.7588,15.2193,1249.0161],[-90.7633,15.2217,951.5609],[-90.7772,15.2199,1092.0658],[-90.7835,15.2323,1146.2625],[-90.7916,15.2376,913.249],[-90.8035,15.2324,1228.8726],[-90.809,15.2352,1053.3352],[-90.8058,15.1525,1600.4592],[-90.7763,15.1025,2046.1293],[-90.75,15.064,2247.8152],[-90.6542,14.996,1464.073],[-90.6551,14.9906,1455.9513],[-90.6528,14.9877,1516.8635],[-90.6575,14.9859,1446.6335],[-90.6589,14.9773,1399.1448],[-90.6515,14.9733,1496.9207],[-90.6481,14.9697,1440.1902],[-90.6459,14.9642,1417.9507],[-90.6398,14.9637,1440.4092],[-90.6321,14.9696,1772.8872],[-90.626,14.9715,1921.5637],[-90.6206,14.9662,1766.5692],[-90.6199,14.9733,1991.4062],[-90.6163,14.9806,2065.4075],[-90.613,14.9787,1970.2526],[-90.6101,14.9863,2146.542],[-90.5941,14.9959,2378.4634],[-90.5895,14.9896,2231.3948],[-90.5871,14.9892,2152.7898],[-90.5843,14.9908,2011.542],[-90.5814,14.9995,2039.895],[-90.5778,15.004,2197.5483]]]]}}