{"type":"Feature","properties":{"GID_2":"GTM.11.2_1","GID_0":"GTM","country":"Guatemala","GID_1":"GTM.11_1","province":"Jutiapa","NL_NAME_1":"NA","county":"AsunciónMita","VARNAME_2":"NA","NL_NAME_2":"NA","TYPE_2":"Municipio","ENGTYPE_2":"Municipality","CC_2":"NA","HASC_2":"NA","name":"Asunción_Mita.county"},
"geometry":{"type": "MultiPolygon","coordinates": [[[[-89.6506,14.1905,796.4674],[-89.6324,14.2001,854.6108],[-89.6255,14.2017,764.9371],[-89.6172,14.2022,802.5417],[-89.5943,14.199,478.9969],[-89.5679,14.202,535.2603],[-89.5466,14.2129,523.9786],[-89.5314,14.2172,433.9781],[-89.5206,14.2232,461.3871],[-89.517,14.2344,429.5],[-89.5131,14.2375,429.5],[-89.5129,14.2408,429.5],[-89.5167,14.2425,429.5],[-89.5182,14.2387,429.5],[-89.5291,14.2659,429.5],[-89.5419,14.283,429.5],[-89.5454,14.2935,429.5],[-89.5408,14.2903,429.5],[-89.5391,14.2916,429.5],[-89.5372,14.2964,429.5],[-89.5391,14.3029,433.1448],[-89.5447,14.3081,434.4714],[-89.5496,14.3094,434.9062],[-89.5494,14.3125,436.3347],[-89.5514,14.3133,435.543],[-89.554,14.3181,438.2788],[-89.5571,14.3195,436.657],[-89.5705,14.3197,451.7809],[-89.5753,14.3214,486.1645],[-89.5817,14.3159,451.9976],[-89.5848,14.3156,475.4543],[-89.5846,14.3327,538.3094],[-89.5805,14.3445,504.3564],[-89.5758,14.3466,497.8997],[-89.5684,14.346,472.649],[-89.5657,14.3483,474.8077],[-89.5653,14.3552,453.0592],[-89.5578,14.3567,463.0919],[-89.5593,14.3625,460.673],[-89.5704,14.372,512.295],[-89.5691,14.3765,506.3552],[-89.5735,14.396,677.0476],[-89.5968,14.3848,606.6246],[-89.6012,14.3861,628.1657],[-89.6036,14.3948,670.5538],[-89.6058,14.3941,666.5444],[-89.6127,14.4033,713.6404],[-89.6156,14.4029,720.9166],[-89.6189,14.4091,779.0089],[-89.6148,14.4122,787.6255],[-89.6198,14.4181,847.76],[-89.6436,14.4196,893.4457],[-89.6546,14.4236,880.7749],[-89.6563,14.4264,887.9224],[-89.6659,14.4263,968.1225],[-89.6665,14.4208,988.729],[-89.6743,14.4151,925.83],[-89.6991,14.4087,823.6552],[-89.7007,14.4046,784.3136],[-89.7126,14.3999,670.7415],[-89.7153,14.4023,616.1857],[-89.7191,14.4002,613.3171],[-89.7246,14.4001,651.2374],[-89.7263,14.4015,693.3029],[-89.737799999999993,14.3962,809.7153],[-89.7394,14.3948,833.4894],[-89.7396,14.3865,843.2115],[-89.7694,14.3574,982.8951],[-89.7747,14.3486,951.7761],[-89.7803,14.3443,933.9747],[-89.7841,14.3385,907.664],[-89.7864,14.329,877.6215],[-89.7855,14.3223,871.3528],[-89.7804,14.316,869.264],[-89.7773,14.2988,575.326],[-89.7837,14.2834,910.0903],[-89.7836,14.2752,1020.5186],[-89.778,14.2627,979.4418],[-89.7791,14.2354,872.5963],[-89.7741,14.233,742.9494],[-89.7719,14.2286,693.2446],[-89.7666,14.2304,643.1069],[-89.7647,14.2386,611.4563],[-89.7483,14.225,777.5074],[-89.7456,14.2253,736.0066],[-89.7433,14.2323,682.7164],[-89.7408,14.231,666.6094],[-89.735,14.2205,826.8057],[-89.6993,14.207,585.0],[-89.6757,14.2114,660.8691],[-89.6703,14.2082,734.9239],[-89.6695,14.2027,697.7333],[-89.6635,14.1982,659.6913],[-89.6599,14.2,669.3724],[-89.6483,14.1963,747.966],[-89.6618,14.1874,646.7391],[-89.6616,14.1845,682.02],[-89.6506,14.1905,796.4674]]]]}}