{"type": "Feature","bbox": [-90.2285,13.9616,-90.0529,14.2642],"geometry": {"type": "MultiPolygon","coordinates": [[[[-90.0742,14.2012,854.9413],[-90.1571,14.2526,1376.9337],[-90.1876,14.2564,1273.707],[-90.1983,14.2556,1073.9459],[-90.2022,14.2575,1042.569],[-90.2067,14.2642,899.6824],[-90.2266,14.256,769.9428],[-90.2275,14.2527,775.9393],[-90.2177,14.2329,1099.766],[-90.214,14.2291,1197.1791],[-90.2055,14.2266,1144.4902],[-90.2045,14.2239,1134.7668],[-90.2073,14.2202,1130.4343],[-90.2073,14.212,1026.6198],[-90.2106,14.2024,807.3046],[-90.2131,14.1997,874.9017],[-90.224,14.1992,941.9499],[-90.2214,14.1918,996.0106],[-90.2161,14.1866,1084.4287],[-90.2136,14.1767,1127.1606],[-90.2054,14.174,1007.4996],[-90.2013,14.1684,886.8171],[-90.202,14.1588,842.0662],[-90.1922,14.1408,781.7825],[-90.1957,14.1257,682.5974],[-90.2055,14.116,755.916],[-90.2078,14.1118,730.2738],[-90.2105,14.099,707.1301],[-90.2091,14.0921,610.7383],[-90.2232,14.0812,845.8826],[-90.2285,14.0521,575.9946],[-90.228,14.046,277.1119],[-90.2108,14.0408,231.5048],[-90.2067,14.0387,427.2717],[-90.2043,14.035,472.4456],[-90.2033,14.0298,318.912],[-90.209,13.9994,198.9866],[-90.2086,13.9896,143.6965],[-90.1885,13.9821,214.7221],[-90.1766,13.9799,257.4506],[-90.1615,13.9815,398.8217],[-90.1523,13.9806,501.8959],[-90.1459,13.9745,510.2511],[-90.1465,13.9674,494.808],[-90.1493,13.963,532.6523],[-90.1467,13.9616,528.6218],[-90.1214,13.9959,1280.5183],[-90.1166,14.0,1176.4825],[-90.1166,14.0033,1081.7319],[-90.1229,14.011,1186.0979],[-90.1206,14.0122,1182.1682],[-90.1161,14.0383,978.4312],[-90.1155,14.0487,891.6969],[-90.1189,14.0607,730.229],[-90.0993,14.0676,692.3206],[-90.079,14.0601,1009.5403],[-90.0529,14.1259,604.8006],[-90.0551,14.1303,596.5323],[-90.0573,14.1273,640.0488],[-90.0813,14.1614,579.1304],[-90.0796,14.1642,636.5211],[-90.0759,14.1628,583.4876],[-90.069,14.1671,596.5151],[-90.0685,14.1715,635.3824],[-90.0726,14.1774,728.7886],[-90.067,14.1816,724.2607],[-90.0621,14.1825,861.7264],[-90.0742,14.2012,854.9413]]]]}
,"properties": {"GID_2": "GTM.18.7_1","GID_0": "GTM","country": "Guatemala","GID_1": "GTM.18_1","province": "SantaRosa","NL_NAME_1": "NA","county": "Oratorio","VARNAME_2": "NA","NL_NAME_2": "NA","TYPE_2": "Municipio","ENGTYPE_2": "Municipality","CC_2": "NA","HASC_2": "NA","name": "Oratorio.county","area_km2": 389.7014,"hist_schema_id": "Elevation0-9000","hist_area_km2": {"150": 0.1029,"175": 0.3703,"200": 1.152,"225": 1.6662,"250": 2.3245,"275": 2.7565,"300": 3.1885,"325": 3.97,"350": 4.3402,"375": 6.5201,"400": 11.0025,"425": 20.5224,"450": 30.9877,"475": 36.2906,"500": 30.8013,"525": 25.168,"550": 20.5407,"575": 16.6962,"600": 16.2851,"625": 16.0177,"650": 14.0235,"675": 10.0754,"700": 8.9858,"725": 7.5259,"750": 6.9091,"775": 6.5589,"800": 6.456,"825": 5.6744,"850": 4.9138,"875": 5.2012,"900": 4.8928,"925": 4.3375,"950": 4.5227,"975": 4.584,"1000": 3.9676,"1025": 4.2347,"1050": 3.7413,"1075": 4.0496,"1100": 3.4329,"1125": 3.3709,"1150": 3.597,"1175": 2.7747,"1200": 3.0419,"1225": 2.6513,"1250": 2.3018,"1275": 1.706,"1300": 1.5004,"1325": 1.3565,"1350": 0.9043,"1375": 0.8016,"1400": 0.6782,"1425": 0.1645,"1450": 0.0206,"1475": 0.0411}}}