{"type":"Feature","properties":{"GID_2":"GTM.16.3_1","GID_0":"GTM","country":"Guatemala","GID_1":"GTM.16_1","province":"Sacatepéquez","NL_NAME_1":"NA","county":"CiudadVieja","VARNAME_2":"NA","NL_NAME_2":"NA","TYPE_2":"Municipio","ENGTYPE_2":"Municipality","CC_2":"NA","HASC_2":"NA","name":"Ciudad_Vieja.county"},
"geometry":{"type": "MultiPolygon","coordinates": [[[[-90.7416,14.4636,3595.2747],[-90.7438,14.5033,1984.8905],[-90.7505,14.5385,1517.0642],[-90.7631,14.5467,1713.3347],[-90.7676,14.5593,1979.481],[-90.77,14.5594,1936.1897],[-90.7706,14.5524,1747.2205],[-90.7735,14.5459,1641.3582],[-90.778,14.5403,1578.4412],[-90.7831,14.5373,1626.8761],[-90.7806,14.5287,1546.2816],[-90.7854,14.5168,1498.2229],[-90.7937,14.5138,1493.4384],[-90.7957,14.5111,1508.3994],[-90.7994,14.5118,1487.7112],[-90.8033,14.5104,1456.9404],[-90.8113,14.4982,1447.7672],[-90.7935,14.4941,1507.9944],[-90.7872,14.4886,1629.5481],[-90.7809,14.4893,1727.9023],[-90.7722,14.4861,1898.522],[-90.7483,14.471,3212.6509],[-90.7416,14.4636,3595.2747]]]]}}