{"type":"Feature","properties":{"GID_2":"GTM.16.13_1","GID_0":"GTM","country":"Guatemala","GID_1":"GTM.16_1","province":"Sacatepéquez","NL_NAME_1":"NA","county":"SantaMaríadeJesús","VARNAME_2":"NA","NL_NAME_2":"NA","TYPE_2":"Municipio","ENGTYPE_2":"Municipality","CC_2":"NA","HASC_2":"NA","name":"Santa_Maríade_Jesús.county"},
"geometry":{"type": "MultiPolygon","coordinates": [[[[-90.6511,14.4764,1349.5233],[-90.6596,14.4833,1450.0662],[-90.6664,14.492,1714.8958],[-90.6639,14.4987,2103.4194],[-90.6638,14.5062,1852.4668],[-90.6566,14.5218,1728.5254],[-90.6586,14.5284,2085.0786],[-90.6717,14.5252,2189.0347],[-90.6826,14.5258,2362.4001],[-90.6913,14.5137,2326.9807],[-90.6946,14.5114,2125.7598],[-90.7168,14.509,1866.4891],[-90.7219,14.5114,1806.4402],[-90.7255,14.4972,2076.8638],[-90.7354,14.4805,2804.7422],[-90.7416,14.4636,3595.2747],[-90.7194,14.4244,1489.0154],[-90.6511,14.4764,1349.5233]]]]}}