{"type": "Feature","bbox": [-91.6918,15.4762,-91.6185,15.6341],"geometry": {"type": "MultiPolygon","coordinates": [[[[-91.6491,15.4811,2435.8389],[-91.6352,15.4762,2640.0874],[-91.6336,15.4852,2581.1052],[-91.6285,15.4907,2728.6418],[-91.6185,15.5213,2373.5945],[-91.6301,15.5526,2627.9351],[-91.6316,15.566,2524.947],[-91.6375,15.5784,2655.4753],[-91.6416,15.5947,2560.9976],[-91.6566,15.6249,2157.7385],[-91.6787,15.6283,2146.8511],[-91.6866,15.6341,2212.9517],[-91.6914,15.6196,1868.3621],[-91.6918,15.5959,1681.9214],[-91.6793,15.5723,1772.6473],[-91.6735,15.5508,2134.9392],[-91.6752,15.5388,2375.6079],[-91.6883,15.5077,1876.4695],[-91.6883,15.4992,2062.3955],[-91.6836,15.4889,2354.3125],[-91.6686,15.4836,2422.9265],[-91.6585,15.4855,2250.9871],[-91.6491,15.4811,2435.8389]]],
[[[-91.6811,15.6332,2171.1577],[-91.6854,15.6337,2228.3804],[-91.6789,15.6289,2098.2402],[-91.68,15.6331,2171.1577],[-91.6811,15.6332,2171.1577]]]]}
,"properties": {"GID_2": "GTM.8.28_1","GID_0": "GTM","country": "Guatemala","GID_1": "GTM.8_1","province": "Huehuetenango","NL_NAME_1": "NA","county": "SantiagoChimaltenango","VARNAME_2": "NA","NL_NAME_2": "NA","TYPE_2": "Municipio","ENGTYPE_2": "Municipality","CC_2": "NA","HASC_2": "NA","name": "Santiago_Chimaltenango.county","area_km2": 86.95416,"hist_schema_id": "Elevation0-9000","hist_area_km2": {"1525": 0.02042,"1550": 0.08169,"1575": 0.10211,"1600": 0.28592,"1625": 0.28592,"1650": 0.32676,"1675": 0.40845,"1700": 0.46972,"1725": 0.6127,"1750": 0.65354,"1775": 0.8782,"1800": 0.81697,"1825": 1.08245,"1850": 1.08244,"1875": 1.28671,"1900": 1.49092,"1925": 1.55223,"1950": 1.57265,"1975": 1.57265,"2000": 2.18541,"2025": 2.16506,"2050": 2.02204,"2075": 2.36929,"2100": 2.75755,"2125": 2.14479,"2150": 2.00175,"2175": 2.6962,"2200": 2.32862,"2225": 2.63491,"2250": 3.26804,"2275": 3.51322,"2300": 2.71666,"2325": 3.16613,"2350": 3.39091,"2375": 2.94148,"2400": 2.90058,"2425": 2.45119,"2450": 2.53295,"2475": 2.32863,"2500": 2.00189,"2525": 1.96102,"2550": 2.32872,"2575": 1.75671,"2600": 1.73627,"2625": 1.26655,"2650": 1.14397,"2675": 0.89886,"2700": 1.02144,"2725": 0.93975,"2750": 0.81718,"2775": 0.81718,"2800": 0.63333,"2825": 0.34732,"2850": 0.38819,"2875": 0.32689,"2900": 0.30646,"2925": 0.28603,"2950": 0.2656,"2975": 0.46991,"3000": 0.14302}}}