{"type":"Feature","properties":{"GID_2":"GTM.16.4_1","GID_0":"GTM","country":"Guatemala","GID_1":"GTM.16_1","province":"Sacatepéquez","NL_NAME_1":"NA","county":"Jocotenango","VARNAME_2":"NA","NL_NAME_2":"NA","TYPE_2":"Municipio","ENGTYPE_2":"Municipality","CC_2":"NA","HASC_2":"NA","name":"Jocotenango.county"},
"geometry":{"type": "MultiPolygon","coordinates": [[[[-90.7086,14.6136,2458.1267],[-90.7161,14.607,2049.6482],[-90.7258,14.6091,2070.7266],[-90.7304,14.6085,2047.3528],[-90.7424,14.5894,1654.5681],[-90.7475,14.5865,1554.082],[-90.7501,14.5781,1576.7904],[-90.7472,14.575,1539.67],[-90.7472,14.5677,1539.7101],[-90.7417,14.5679,1538.6077],[-90.7402,14.5728,1539.702],[-90.7375,14.5737,1540.4689],[-90.7344,14.5807,1570.4357],[-90.7301,14.5799,1570.7009],[-90.7212,14.5872,1644.6779],[-90.7198,14.5939,1765.1946],[-90.7168,14.5927,1836.4156],[-90.7098,14.5952,2112.7402],[-90.7086,14.6136,2458.1267]]]]}}