{"type": "Feature","bbox": [-89.9167,16.9467,-89.7291,17.8153],"geometry": {"type": "MultiPolygon","coordinates": [[[[-89.7291,17.8143,277.8852],[-89.9072,17.8153,268.6492],[-89.9167,16.9467,105.0],[-89.8676,16.9948,105.0],[-89.7495,16.994,105.0],[-89.7411,17.2523,214.5985],[-89.7291,17.8143,277.8852]]]]}
,"properties": {"GID_2": "GTM.12.9_1","GID_0": "GTM","country": "Guatemala","GID_1": "GTM.12_1","province": "Petén","NL_NAME_1": "NA","county": "SanJosé","VARNAME_2": "NA","NL_NAME_2": "NA","TYPE_2": "Municipio","ENGTYPE_2": "Municipality","CC_2": "NA","HASC_2": "NA","name": "San_José.county","area_km2": 1692.059,"hist_schema_id": "Elevation0-9000","hist_area_km2": {"100": 36.74,"125": 8.286,"150": 27.298,"175": 48.294,"200": 55.401,"225": 70.991,"250": 103.59,"275": 213.232,"300": 355.49,"325": 331.287,"350": 328.98,"375": 108.137,"400": 4.129,"425": 0.202}}}