{"type": "Feature","bbox": [-90.4034,14.6485,-90.1016,14.8864],"geometry": {"type": "MultiPolygon","coordinates": [[[[-90.394,14.8776,461.362],[-90.4034,14.8683,427.5645],[-90.4009,14.8618,581.4673],[-90.401,14.8504,516.2699],[-90.3945,14.8496,635.3808],[-90.3899,14.8437,576.0333],[-90.3779,14.8444,591.7253],[-90.3705,14.8472,647.2688],[-90.3596,14.8448,656.4291],[-90.3551,14.8468,694.314],[-90.3476,14.846,687.4515],[-90.3469,14.8442,678.9861],[-90.339,14.8417,740.9026],[-90.3314,14.8333,795.5396],[-90.3281,14.8322,869.2812],[-90.3272,14.8293,967.4711],[-90.3238,14.8299,976.5823],[-90.3236,14.8207,693.9515],[-90.3173,14.8077,643.796],[-90.2951,14.8129,688.2878],[-90.2799,14.8108,791.1481],[-90.2716,14.8021,711.6708],[-90.2621,14.8047,889.668],[-90.2588,14.8032,876.182],[-90.2525,14.7945,827.3572],[-90.2469,14.7934,910.1254],[-90.2442,14.7847,760.8682],[-90.2332,14.781,791.5372],[-90.2303,14.7752,841.963],[-90.2362,14.7603,839.131],[-90.2299,14.7555,823.4743],[-90.223,14.7573,908.4056],[-90.2197,14.7529,901.3743],[-90.2195,14.7453,856.3965],[-90.218,14.7429,854.4539],[-90.2115,14.7401,907.7708],[-90.2084,14.73,915.6859],[-90.1992,14.7225,917.9584],[-90.1971,14.7116,1003.4901],[-90.2014,14.708,978.7134],[-90.2001,14.7028,967.0078],[-90.2034,14.6999,941.5354],[-90.2059,14.6927,1021.2728],[-90.2012,14.6848,1084.8057],[-90.2035,14.6758,1159.5952],[-90.1922,14.6485,1247.9513],[-90.1904,14.6523,1252.592],[-90.1899,14.667,1391.131],[-90.1872,14.6762,1370.0259],[-90.1841,14.6795,1311.3754],[-90.181,14.7052,1298.6921],[-90.1631,14.7243,1477.3107],[-90.1677,14.7319,1407.3519],[-90.1609,14.7505,979.3883],[-90.1642,14.7554,854.0542],[-90.1626,14.7651,827.8936],[-90.1648,14.7705,806.5702],[-90.1489,14.7799,829.3593],[-90.1475,14.7835,832.2157],[-90.1274,14.7866,754.6107],[-90.1251,14.7891,700.2941],[-90.1146,14.7907,732.2408],[-90.1016,14.8024,683.0231],[-90.1135,14.8125,927.2279],[-90.115,14.8174,1026.2993],[-90.1729,14.8538,419.5015],[-90.1722,14.8809,324.0834],[-90.1829,14.8762,352.5039],[-90.2059,14.8753,382.8826],[-90.2257,14.8809,345.2224],[-90.2252,14.8751,389.4325],[-90.2467,14.8766,350.0992],[-90.2605,14.8831,380.1061],[-90.2697,14.8802,368.4505],[-90.2902,14.8864,430.4851],[-90.3039,14.8856,401.5809],[-90.305,14.8831,402.6835],[-90.3144,14.8795,478.7123],[-90.3327,14.8816,461.2603],[-90.3399,14.8778,434.6649],[-90.3441,14.8781,524.5559],[-90.3485,14.8752,415.0416],[-90.363,14.8775,506.0308],[-90.3723,14.8749,489.5834],[-90.3825,14.8781,506.8079],[-90.394,14.8776,461.362]]]]}
,"properties": {"GID_2": "GTM.5.7_1","GID_0": "GTM","country": "Guatemala","GID_1": "GTM.5_1","province": "ElProgreso","NL_NAME_1": "NA","county": "Sanarate","VARNAME_2": "NA","NL_NAME_2": "NA","TYPE_2": "Municipio","ENGTYPE_2": "Municipality","CC_2": "NA","HASC_2": "NA","name": "Sanarate.county","area_km2": 278.2917,"hist_schema_id": "Elevation0-9000","hist_area_km2": {"325": 0.4713,"350": 1.8647,"375": 3.5041,"400": 4.4672,"425": 5.082,"450": 5.5124,"475": 5.1026,"500": 5.6559,"525": 4.9387,"550": 5.3076,"575": 5.1437,"600": 5.3282,"625": 5.3284,"650": 6.2918,"675": 7.419,"700": 8.28,"725": 8.5877,"750": 10.8633,"775": 12.0934,"800": 15.9265,"825": 16.8286,"850": 24.5774,"875": 20.5392,"900": 18.5104,"925": 14.6154,"950": 11.5405,"975": 8.1584,"1000": 6.4778,"1025": 4.51,"1050": 2.9727,"1075": 3.0139,"1100": 2.4809,"1125": 2.112,"1150": 1.9891,"1175": 2.0507,"1200": 1.7226,"1225": 2.0918,"1250": 1.5996,"1275": 1.0869,"1300": 1.2715,"1325": 0.9229,"1350": 0.5537,"1375": 0.5332,"1400": 0.3897,"1425": 0.2666,"1450": 0.2051,"1475": 0.1026}}}