{"type":"Feature","properties":{"GID_1":"GTM.4_1","GID_0":"GTM","country":"Guatemala","province":"Chiquimula","VARNAME_1":"NA","NL_NAME_1":"NA","TYPE_1":"Departamento","ENGTYPE_1":"Department","CC_1":"NA","HASC_1":"GT.CQ","ISO_1":"GT-20","name":"Chiquimula.province"},
"geometry":{"type": "MultiPolygon","coordinates": [[[[-89.353,14.4195,2291.313],[-89.3501,14.4221,2141.8704],[-89.3492,14.4255,2078.282],[-89.3508,14.4575,1710.5183],[-89.3503,14.463,1628.5557],[-89.3481,14.4628,1675.3737],[-89.3485,14.466,1680.3843],[-89.338,14.4723,1539.7318],[-89.3155,14.4809,1613.6071],[-89.3087,14.487,1392.8452],[-89.3048,14.4882,1335.9652],[-89.3039,14.491,1220.4587],[-89.2964,14.4944,1224.3254],[-89.2981,14.5049,1497.4437],[-89.2805,14.5177,1170.9366],[-89.2778,14.5295,1060.772],[-89.2733,14.5368,1015.153],[-89.2554,14.5519,958.0651],[-89.252,14.5569,962.1865],[-89.2491,14.568,1024.6147],[-89.2401,14.5762,1227.282],[-89.2273,14.5828,1109.2957],[-89.2176,14.5837,1343.2705],[-89.1777,14.5709,1606.6886],[-89.1685,14.5696,1791.5503],[-89.1554,14.5722,1751.385],[-89.1463,14.6025,1529.4078],[-89.1477,14.6274,1424.1133],[-89.1519,14.6479,1142.5328],[-89.153,14.6629,870.847],[-89.147,14.6768,690.4388],[-89.134,14.6976,917.4289],[-89.1267,14.7151,801.0684],[-89.16,14.7328,780.5566],[-89.1604,14.7556,744.2441],[-89.1634,14.777,1019.8409],[-89.1971,14.8103,780.4758],[-89.2187,14.8398,875.6219],[-89.2222,14.8656,869.9716],[-89.2206,14.8846,780.3395],[-89.2181,14.8877,905.8647],[-89.1883,14.9033,1187.8088],[-89.1831,14.9091,1174.5166],[-89.1765,14.9275,1100.4205],[-89.1826,14.9371,1052.7705],[-89.1958,14.9509,1021.9658],[-89.2142,14.9505,873.8571],[-89.2179,14.9524,850.9832],[-89.2538,14.9008,1062.4165],[-89.279,14.8965,929.4219],[-89.3147,14.9143,1117.8176],[-89.3456,14.9026,1317.7495],[-89.3744,14.8951,1492.9552],[-89.4223,14.91,1321.3352],[-89.4327,14.9027,1510.8127],[-89.4844,14.891,699.7838],[-89.4935,14.8646,578.1918],[-89.497,14.8593,704.0149],[-89.502,14.8573,679.8878],[-89.5072,14.8633,554.9075],[-89.626,14.8642,954.7914],[-89.6465,14.8718,805.4249],[-89.6614,14.875,1399.5171],[-89.7005,14.8432,887.7205],[-89.7078,14.8169,1242.1147],[-89.6967,14.7804,1489.5681],[-89.7012,14.7741,1328.9764],[-89.7037,14.7519,1169.4302],[-89.7267,14.7402,1135.6016],[-89.7322,14.7408,1178.2384],[-89.7124,14.7309,909.9629],[-89.7055,14.7367,944.7316],[-89.6964,14.7396,978.0347],[-89.6802,14.7571,1415.6987],[-89.6703,14.7572,1322.6967],[-89.6612,14.7549,1408.5938],[-89.6596,14.7476,1275.6038],[-89.6556,14.7428,1062.3263],[-89.6595,14.7289,972.5048],[-89.6612,14.705,626.1776],[-89.6555,14.7044,618.3239],[-89.6483,14.706,608.5172],[-89.6509,14.6569,783.5779],[-89.66,14.6436,788.4343],[-89.6592,14.638,783.3842],[-89.6641,14.6298,778.9175],[-89.6617,14.6182,772.5821],[-89.6871,14.5609,834.3176],[-89.6872,14.5493,837.2048],[-89.6855,14.5446,840.5413],[-89.6793,14.5432,873.0826],[-89.6771,14.5364,870.8611],[-89.6396,14.5633,1589.5098],[-89.6149,14.5514,1081.2092],[-89.6198,14.5114,889.0947],[-89.5188,14.5142,693.3385],[-89.5137,14.5087,705.4799],[-89.516,14.5016,678.2175],[-89.5035,14.4971,638.0262],[-89.5089,14.4917,611.1494],[-89.4951,14.4825,630.1589],[-89.4953,14.4777,653.6097],[-89.497,14.476,601.0816],[-89.4938,14.4699,594.8177],[-89.4964,14.461,571.1056],[-89.4948,14.4576,609.1358],[-89.4964,14.4484,602.412],[-89.5014,14.4436,558.4025],[-89.5151,14.4353,529.79],[-89.5039,14.4124,573.9727],[-89.4976,14.4062,539.6552],[-89.4842,14.4185,588.2779],[-89.4795,14.4186,602.1415],[-89.4737,14.4219,640.489],[-89.467,14.4287,637.7766],[-89.4375,14.4181,802.134],[-89.4367,14.4134,785.1899],[-89.4317,14.4107,871.0547],[-89.4255,14.4116,986.2239],[-89.4119,14.4219,1160.1373],[-89.4048,14.4308,1177.3999],[-89.401,14.433,1392.7573],[-89.399,14.4407,1364.1353],[-89.3954,14.4461,1309.627],[-89.3887,14.4475,1307.2751],[-89.3859,14.4506,1475.783],[-89.3821,14.4475,1570.2662],[-89.3831,14.4286,2038.5885],[-89.3782,14.4312,1798.8049],[-89.3752,14.4306,1764.2052],[-89.361,14.4197,2281.9602],[-89.353,14.4195,2291.313]]]]}}