{"type":"Feature","properties":{"ISO3166-1-Alpha-3":"GTM","country":"Guatemala","fill":"#F0F","id":"1960","name":"Chiquimula"},
"geometry":{"type": "Polygon","coordinates": [[[-89.18921,14.91306,1027.1895],[-89.18956,14.91382,1054.7284],[-89.19272,14.92069,1029.5223],[-89.19411,14.92297,1053.5173],[-89.19512,14.92524,1071.6963],[-89.19644,14.92751,1045.9871],[-89.19936,14.93454,1000.9778],[-89.20318,14.94141,1072.2906],[-89.20473,14.94353,1049.5278],[-89.20633,14.94534,1011.8987],[-89.20812,14.94694,993.6664],[-89.21003,14.94824,929.1669],[-89.21259,14.94932,848.5024],[-89.21786,14.94855,791.3916],[-89.22545,14.94643,823.7949],[-89.24754,14.93547,843.7621],[-89.25424,14.93098,952.8599],[-89.25834,14.9272,996.8264],[-89.26351,14.91961,1077.6169],[-89.26816,14.91449,1186.6948],[-89.27429,14.90963,1211.2722],[-89.28617,14.90581,1060.0621],[-89.29369,14.9055,1058.1406],[-89.3001,14.90979,1355.1257],[-89.30413,14.9149,1584.9153],[-89.31976,14.91966,974.0732],[-89.36911,14.90348,1158.907],[-89.38539,14.90348,1559.4395],[-89.39916,14.91258,1325.4897],[-89.42107,14.91904,1472.198],[-89.42934,14.91924,1283.738],[-89.44867,14.91382,1065.3955],[-89.5091,14.86674,517.4213],[-89.52432,14.86318,436.3668],[-89.57786,14.86416,774.0098],[-89.59259,14.86746,838.4527],[-89.62468,14.88266,729.7766],[-89.65866,14.89961,940.5522],[-89.67041,14.90105,805.9794],[-89.68752,14.88824,757.8361],[-89.71036,14.86726,892.4408],[-89.7117,14.86225,789.917],[-89.70863,14.8378,706.3146],[-89.71268,14.82137,1353.1984],[-89.73635,14.77987,897.1613],[-89.68896,14.78225,1439.5521],[-89.67605,14.77863,1706.2739],[-89.67083,14.77057,1506.3805],[-89.667,14.75987,1459.334],[-89.66499,14.74835,1316.262],[-89.66509,14.74515,1143.1339],[-89.66718,14.73305,1030.6492],[-89.66804,14.73021,918.1251],[-89.66863,14.72727,895.8857],[-89.66894,14.72132,838.6627],[-89.66778,14.71574,842.2117],[-89.66413,14.70742,788.1554],[-89.66023,14.69569,752.5025],[-89.69604,14.59895,787.0149],[-89.69961,14.57761,886.6451],[-89.69617,14.57715,883.5562],[-89.6855,14.57761,741.3486],[-89.64519,14.57322,1152.8431],[-89.63264,14.56903,1182.5377],[-89.63052,14.56722,1219.0178],[-89.62354,14.55984,1147.7942],[-89.61788,14.55183,1156.2722],[-89.6131,14.54273,922.4755],[-89.60173,14.52635,888.2032],[-89.59822,14.52408,926.6415],[-89.59453,14.52299,955.4714],[-89.51939,14.52594,836.5903],[-89.51314,14.52371,799.5424],[-89.49913,14.50873,645.6452],[-89.49631,14.50185,721.479],[-89.49655,14.49731,667.725],[-89.49755,14.49214,715.6021],[-89.50231,14.47834,581.5386],[-89.50531,14.47193,639.5001],[-89.50856,14.46232,660.7313],[-89.51117,14.45085,628.0779],[-89.51166,14.44548,573.0597],[-89.51151,14.44186,543.4379],[-89.51073,14.44031,531.613],[-89.50954,14.43834,523.619],[-89.49655,14.42336,648.4644],[-89.49615,14.4229,575.1089],[-89.48528,14.42739,645.35],[-89.46942,14.42537,646.405],[-89.45813,14.41959,741.8383],[-89.44684,14.41553,782.3743],[-89.4311,14.41871,903.7795],[-89.40836,14.44152,1424.4506],[-89.39818,14.44537,1232.6118],[-89.39686,14.42605,1577.3118],[-89.3917,14.43372,1532.3157],[-89.39061,14.43599,1509.8993],[-89.36162,14.41548,2300.9746],[-89.36379,14.44656,2013.173],[-89.36198,14.4624,1768.634],[-89.3555,14.47545,1592.7004],[-89.34527,14.48196,1629.7321],[-89.32304,14.48746,1263.9376],[-89.3148,14.49596,1349.1967],[-89.30485,14.51335,1461.5188],[-89.29093,14.528,1007.3899],[-89.25961,14.55425,989.2291],[-89.25054,14.56518,964.4305],[-89.24568,14.57299,1076.8433],[-89.23811,14.57795,1185.1752],[-89.22109,14.58009,1240.9861],[-89.20881,14.57795,1467.5553],[-89.1837,14.56953,1475.7441],[-89.17215,14.5704,1630.0715],[-89.16039,14.58128,1677.1943],[-89.15574,14.59784,1321.3923],[-89.15523,14.61559,1352.3787],[-89.15941,14.66598,852.4449],[-89.15585,14.67226,685.9433],[-89.14523,14.68345,805.1095],[-89.14269,14.69127,856.2941],[-89.1445,14.7083,837.0081],[-89.14621,14.71086,700.3133],[-89.15052,14.71729,756.7502],[-89.15967,14.72512,740.3088],[-89.17055,14.73879,720.8551],[-89.18941,14.783,630.3925],[-89.19881,14.79809,619.0974],[-89.21897,14.82168,577.3549],[-89.22768,14.83457,1035.6689],[-89.23243,14.8485,742.6864],[-89.23145,14.86731,678.751],[-89.22362,14.87902,665.269],[-89.19881,14.89982,1093.6794],[-89.18921,14.91306,1027.1895]]]}}