{"type":"Feature","properties":{"GID_2":"GTM.19.14_1","GID_0":"GTM","country":"Guatemala","GID_1":"GTM.19_1","province":"Sololá","NL_NAME_1":"NA","county":"SantaCatarinaPalopó","VARNAME_2":"NA","NL_NAME_2":"NA","TYPE_2":"Municipio","ENGTYPE_2":"Municipality","CC_2":"NA","HASC_2":"NA","name":"Santa_Catarina_Palopó.county"},
"geometry":{"type": "MultiPolygon","coordinates": [[[[-91.1168,14.6974,1708.2268],[-91.1104,14.7051,2117.7798],[-91.1156,14.7115,2164.78],[-91.1229,14.7256,2123.3848],[-91.1384,14.7399,1984.6857],[-91.1414,14.7289,1654.2352],[-91.1392,14.7232,1599.6561],[-91.1369,14.7249,1645.0264],[-91.1327,14.7212,1590.1074],[-91.1294,14.7099,1650.3817],[-91.1305,14.7045,1560.8005],[-91.1266,14.7041,1678.1094],[-91.1269,14.7022,1579.8896],[-91.1182,14.6988,1638.2963],[-91.1186,14.697,1555.5],[-91.1168,14.6974,1708.2268]]]]}}