{"type":"Feature","properties":{"GID_2":"GTM.17.28_1","GID_0":"GTM","country":"Guatemala","GID_1":"GTM.17_1","province":"SanMarcos","NL_NAME_1":"NA","county":"Tajumulco","VARNAME_2":"NA","NL_NAME_2":"NA","TYPE_2":"Municipio","ENGTYPE_2":"Municipality","CC_2":"NA","HASC_2":"NA","name":"Tajumulco.county"},
"geometry":{"type": "MultiPolygon","coordinates": [[[[-92.0103,15.1216,1776.5624],[-92.0127,15.1174,1758.4609],[-92.012,15.1037,1678.3022],[-92.015,15.0992,1593.751],[-92.0203,15.0946,1667.1958],[-92.0357,15.0899,1427.3247],[-92.0441,15.076,1331.573],[-92.0612,15.07,1178.7053],[-92.0674,15.0622,1313.3342],[-92.0684,15.0528,1121.8585],[-92.0722,15.051,1006.7252],[-92.0736,15.0459,961.907],[-92.0784,15.0451,817.1515],[-92.08,15.0337,767.3352],[-92.0839,15.0258,819.8574],[-92.0787,15.023,907.7566],[-92.0781,15.0186,996.5315],[-92.0862,15.0114,1015.0182],[-92.0868,15.0087,995.4337],[-92.0704,15.0072,674.5149],[-92.0656,15.004,624.1534],[-92.0742,14.9922,592.4814],[-92.0743,14.9898,552.2734],[-92.0375,14.9858,1038.5],[-92.0332,14.9922,1147.4805],[-92.0291,15.0073,1335.9611],[-92.0256,15.0125,1438.7461],[-92.021,15.016,1434.1877],[-92.0168,15.0169,1315.4912],[-92.0062,15.0154,1043.936],[-91.995,15.0204,1475.186],[-91.9869,15.0209,1776.5027],[-91.989,15.0136,1519.8047],[-91.9855,15.0069,1524.4541],[-91.989,14.9999,1190.7452],[-91.989,14.9906,969.5903],[-91.9952,14.9777,761.7129],[-91.9872,14.9726,870.0381],[-91.9783,14.9749,953.2369],[-91.9771,14.9691,881.2174],[-91.9672,14.9612,888.6882],[-91.9658,14.9713,877.347],[-91.9637,14.9735,1018.2286],[-91.9623,14.9809,939.6409],[-91.9499,15.0009,1384.0398],[-91.9477,15.0025,1426.5128],[-91.9404,14.9991,1273.4744],[-91.9307,15.0042,1748.4891],[-91.9221,14.9942,1727.8687],[-91.9197,14.9954,1747.1305],[-91.913,15.0149,2487.3257],[-91.9019,15.0258,3183.335],[-91.903,15.0379,3918.832],[-91.9009,15.0409,4048.0461],[-91.8758,15.0529,3448.436],[-91.8708,15.0633,3150.2632],[-91.868,15.0798,3035.8135],[-91.8742,15.0864,2995.415],[-91.8764,15.0903,2994.4678],[-91.8761,15.0933,2936.8696],[-91.8742,15.0971,2852.6865],[-91.8689,15.0987,3057.2104],[-91.8673,15.1054,3104.2815],[-91.8747,15.1186,3033.2546],[-91.8771,15.1199,3028.792],[-91.884,15.1183,2908.209],[-91.8972,15.1238,3114.8301],[-91.9011,15.1198,3071.4773],[-91.9093,15.1232,2967.6509],[-91.9164,15.1222,2831.2375],[-91.9226,15.1166,2692.5649],[-91.9239,15.1117,2943.9761],[-91.935,15.1092,2581.9941],[-91.9554,15.1124,2145.7629],[-91.9495,15.1345,2325.3374],[-91.9512,15.1376,2360.9158],[-91.9587,15.1395,2446.4543],[-91.9674,15.1379,2560.6917],[-91.9739,15.129,2226.4292],[-91.9814,15.125,2258.4646],[-91.989,15.127,2300.4441],[-91.9924,15.1226,2152.6067],[-92.0103,15.1216,1776.5624]]]]}}