{"type": "Feature","bbox": [-90.5157,14.5306,-90.4017,14.6009],"geometry": {"type": "MultiPolygon","coordinates": [[[[-90.4175,14.5553,1755.9873],[-90.415,14.5661,1779.5156],[-90.4092,14.566,1729.3461],[-90.4017,14.57,1724.3357],[-90.4027,14.5836,1669.8323],[-90.4181,14.5882,1746.9849],[-90.4225,14.5836,1822.6201],[-90.4344,14.5939,1662.0505],[-90.4284,14.6009,1681.2765],[-90.4366,14.5987,1742.2542],[-90.4374,14.5969,1717.3885],[-90.4551,14.5945,1756.5818],[-90.4637,14.5902,1730.6035],[-90.4681,14.5936,1623.1367],[-90.4753,14.5927,1603.6434],[-90.4777,14.5681,1835.1665],[-90.4853,14.5668,1695.9222],[-90.4852,14.5593,1695.8857],[-90.4873,14.5578,1766.4609],[-90.4935,14.5612,1641.2332],[-90.4959,14.5731,1539.6816],[-90.4982,14.5753,1509.2854],[-90.5057,14.575,1513.7048],[-90.5118,14.5767,1448.2621],[-90.5157,14.5738,1404.7894],[-90.5033,14.57,1536.957],[-90.5113,14.5583,1441.9722],[-90.5121,14.5515,1441.563],[-90.5051,14.555,1510.1295],[-90.5043,14.5528,1512.043],[-90.4952,14.5471,1623.8961],[-90.4907,14.5492,1824.142],[-90.4894,14.5462,1695.6345],[-90.4867,14.5469,1764.0789],[-90.4834,14.5425,1932.218],[-90.477,14.5425,1918.6168],[-90.4773,14.5373,1912.358],[-90.4738,14.5321,1902.6978],[-90.4632,14.5306,1910.7639],[-90.4545,14.5372,1908.382],[-90.451,14.5329,1912.033],[-90.4359,14.5323,1886.0977],[-90.4393,14.5437,1904.2061],[-90.4175,14.5553,1755.9873]]]]}
,"properties": {"GID_2": "GTM.7.14_1","GID_0": "GTM","country": "Guatemala","GID_1": "GTM.7_1","province": "Guatemala","NL_NAME_1": "NA","county": "SantaCatarinaPinula","VARNAME_2": "NA","NL_NAME_2": "NA","TYPE_2": "Municipio","ENGTYPE_2": "Municipality","CC_2": "NA","HASC_2": "NA","name": "Santa_Catarina_Pinula.county","area_km2": 50.11189,"hist_schema_id": "Elevation0-9000","hist_area_km2": {"1350": 0.02052,"1375": 0.06156,"1400": 0.04104,"1425": 0.16417,"1450": 0.28729,"1475": 0.22573,"1500": 0.45146,"1525": 0.75927,"1550": 1.0876,"1575": 0.47199,"1600": 0.38987,"1625": 0.6361,"1650": 0.94391,"1675": 1.06702,"1700": 1.64155,"1725": 2.50339,"1750": 2.89329,"1775": 3.54995,"1800": 3.32425,"1825": 3.6526,"1850": 5.6432,"1875": 6.71051,"1900": 8.06526,"1925": 3.79654,"1950": 1.10817,"1975": 0.38991,"2000": 0.14365,"2025": 0.08209}}}