{"type":"Feature","properties":{"GID_2":"GTM.16.1_1","GID_0":"GTM","country":"Guatemala","GID_1":"GTM.16_1","province":"Sacatepéquez","NL_NAME_1":"NA","county":"Alotenango","VARNAME_2":"NA","NL_NAME_2":"NA","TYPE_2":"Municipio","ENGTYPE_2":"Municipality","CC_2":"NA","HASC_2":"NA","name":"Alotenango.county"},
"geometry":{"type": "MultiPolygon","coordinates": [[[[-90.8732,14.4979,3815.625],[-90.88,14.4716,3531.769],[-90.8675,14.465,2672.3259],[-90.8528,14.45,1597.9596],[-90.8434,14.4473,1484.2319],[-90.8342,14.43,1152.8132],[-90.8339,14.423,1083.2639],[-90.8253,14.4174,965.4998],[-90.8193,14.4089,853.0752],[-90.8161,14.4077,836.5322],[-90.816,14.3876,707.9014],[-90.8108,14.378,677.903],[-90.8084,14.3776,668.9941],[-90.8075,14.3868,732.4832],[-90.8031,14.4009,859.9502],[-90.7939,14.4076,950.3606],[-90.7835,14.4297,1312.165],[-90.7815,14.4312,1344.8619],[-90.7734,14.4297,1385.9185],[-90.767,14.4392,1663.3816],[-90.7441,14.4578,3165.5083],[-90.7416,14.4636,3595.2747],[-90.7483,14.471,3212.6509],[-90.7722,14.4861,1898.522],[-90.7809,14.4893,1727.9023],[-90.7872,14.4886,1629.5481],[-90.7935,14.4941,1507.9944],[-90.7999,14.4962,1457.2419],[-90.8113,14.4982,1447.7672],[-90.8242,14.4982,1602.361],[-90.8293,14.5015,1783.8495],[-90.8438,14.5068,2218.647],[-90.853,14.5081,2663.2681],[-90.8742,14.5032,3856.3652],[-90.8732,14.4979,3815.625]]]]}}