{"type":"Feature","properties":{"GID_2":"GTM.3.5_1","GID_0":"GTM","country":"Guatemala","GID_1":"GTM.3_1","province":"Chimaltenango","NL_NAME_1":"NA","county":"Parramos","VARNAME_2":"NA","NL_NAME_2":"NA","TYPE_2":"Municipio","ENGTYPE_2":"Municipality","CC_2":"NA","HASC_2":"NA","name":"Parramos.county"},
"geometry":{"type": "MultiPolygon","coordinates": [[[[-90.8126,14.6184,1764.1072],[-90.8098,14.6133,1761.7601],[-90.812,14.605,1788.3717],[-90.8196,14.595,1867.4275],[-90.8227,14.5935,1899.9683],[-90.8298,14.594,1947.6139],[-90.8384,14.5899,2117.8289],[-90.8455,14.5907,2084.166],[-90.8517,14.5856,2198.8276],[-90.8525,14.5638,2383.0771],[-90.8498,14.5592,2378.158],[-90.8359,14.5604,2085.46],[-90.8181,14.5547,1973.6858],[-90.8074,14.5664,2004.9658],[-90.8043,14.5727,1998.4681],[-90.8044,14.5794,1931.9426],[-90.8007,14.5814,1833.7053],[-90.8,14.5884,1814.8801],[-90.7933,14.5952,1774.2488],[-90.7923,14.6053,1722.1595],[-90.7889,14.6111,1757.1548],[-90.7907,14.6242,1680.5103],[-90.8126,14.6184,1764.1072]]]]}}