{"type":"Feature","properties":{"GID_2":"GTM.7.25_1","GID_0":"GTM","country":"Guatemala","GID_1":"GTM.7_1","province":"Guatemala","NL_NAME_1":"NA","county":"ZONA17","VARNAME_2":"NA","NL_NAME_2":"NA","TYPE_2":"Municipio","ENGTYPE_2":"Municipality","CC_2":"NA","HASC_2":"NA","name":"Z_O_N_A17.county"},
"geometry":{"type": "MultiPolygon","coordinates": [[[[-90.4637,14.5902,1730.6035],[-90.4602,14.6064,1579.7979],[-90.4618,14.609,1544.7081],[-90.4608,14.6192,1514.7197],[-90.4574,14.6297,1444.4476],[-90.4583,14.6342,1450.1299],[-90.4567,14.6386,1404.7446],[-90.4491,14.6428,1476.7141],[-90.4365,14.6403,1369.7427],[-90.436,14.6452,1423.3434],[-90.429,14.6444,1336.8264],[-90.4268,14.6475,1382.9615],[-90.4269,14.6504,1394.8312],[-90.4313,14.6448,1354.3354],[-90.4361,14.6508,1427.3431],[-90.4405,14.6491,1456.1165],[-90.4526,14.6494,1473.1655],[-90.4577,14.6537,1490.8251],[-90.47,14.6581,1552.8501],[-90.4727,14.6573,1553.4958],[-90.4767,14.6502,1495.3796],[-90.4874,14.6507,1454.3585],[-90.4895,14.6484,1432.9512],[-90.4889,14.6432,1469.5615],[-90.4913,14.6379,1468.3169],[-90.4888,14.63,1470.9707],[-90.4853,14.6325,1467.3129],[-90.4792,14.6312,1481.0637],[-90.4771,14.6262,1520.7268],[-90.4752,14.6093,1566.4485],[-90.4716,14.6024,1598.5359],[-90.4718,14.5935,1601.9607],[-90.4681,14.5936,1623.1367],[-90.4637,14.5902,1730.6035]]]]}}