{"type":"Feature","properties":{"GID_2":"GTM.21.5_1","GID_0":"GTM","country":"Guatemala","GID_1":"GTM.21_1","province":"Totonicapán","NL_NAME_1":"NA","county":"SanFranciscoElAlto","VARNAME_2":"NA","NL_NAME_2":"NA","TYPE_2":"Municipio","ENGTYPE_2":"Municipality","CC_2":"NA","HASC_2":"NA","name":"San_Francisco_El_Alto.county"},
"geometry":{"type": "MultiPolygon","coordinates": [[[[-91.5327,14.9581,2634.4861],[-91.5228,14.9538,2648.5552],[-91.5122,14.9577,2646.9177],[-91.5022,14.9533,2627.2075],[-91.4978,14.954,2628.2603],[-91.4923,14.9585,2593.9739],[-91.4824,14.953,2646.8984],[-91.4763,14.9514,2612.4246],[-91.4747,14.9381,2695.7935],[-91.4541,14.9304,2604.5796],[-91.4305,14.9278,2404.126],[-91.4249,14.9224,2419.095],[-91.416,14.9213,2376.1021],[-91.4166,14.9255,2354.1331],[-91.4067,14.9352,2420.6836],[-91.4038,14.9433,2563.832],[-91.404,14.9484,2703.0989],[-91.4148,14.955,2732.5186],[-91.4173,14.9585,2805.03],[-91.4225,14.9717,2815.7788],[-91.4454,14.9695,2851.0439],[-91.4539,14.9746,2697.7981],[-91.4581,14.9816,2808.2788],[-91.457,14.9865,2772.7312],[-91.4603,14.9916,2754.5269],[-91.4602,14.9987,2722.4551],[-91.463,15.0007,2725.3088],[-91.462,15.0064,2719.7695],[-91.4633,15.0098,2700.0103],[-91.4712,15.0103,2727.3167],[-91.4775,15.0147,2726.5847],[-91.4796,15.0186,2752.0981],[-91.4852,15.0208,2758.2395],[-91.4952,15.0113,2768.5449],[-91.4994,14.9935,2689.564],[-91.5098,14.9927,2598.9751],[-91.5126,14.9992,2626.0801],[-91.5214,15.0103,2682.804],[-91.534,15.019,2699.9595],[-91.5351,15.0239,2694.4983],[-91.5437,15.0306,2884.8306],[-91.5401,14.9758,2626.3999],[-91.5334,14.971,2602.4851],[-91.5324,14.9644,2599.3628],[-91.5342,14.9608,2626.2966],[-91.5327,14.9581,2634.4861]]]]}}