{"type": "Feature","bbox": [-91.8355,15.1861,-91.6282,15.3455],"geometry": {"type": "MultiPolygon","coordinates": [[[[-91.7164,15.3391,1484.7803],[-91.7293,15.3425,2040.079],[-91.7309,15.3447,2028.2378],[-91.7415,15.3455,2302.1877],[-91.7447,15.3409,2181.2278],[-91.7498,15.3403,2266.2524],[-91.7546,15.3355,2262.8369],[-91.7602,15.3327,2101.3364],[-91.7643,15.3289,2040.2806],[-91.7645,15.3263,2051.2126],[-91.7551,15.3195,2068.8267],[-91.7579,15.3155,2222.7117],[-91.7691,15.3105,2530.606],[-91.7666,15.2989,2298.2214],[-91.7686,15.2949,2373.5281],[-91.7747,15.2997,2438.8289],[-91.7794,15.3007,2549.5376],[-91.784,15.2969,2503.6694],[-91.7798,15.2946,2497.5347],[-91.78,15.2853,2174.2468],[-91.7764,15.2806,2129.8765],[-91.7802,15.271,2322.7585],[-91.7895,15.2671,2226.5696],[-91.7894,15.2628,2324.9258],[-91.7926,15.2571,2342.9819],[-91.8019,15.2476,2542.731],[-91.8225,15.2468,2523.8337],[-91.8333,15.2425,2765.7964],[-91.8355,15.233,2738.814],[-91.8256,15.2297,2584.832],[-91.821,15.223,2592.6033],[-91.8159,15.2248,2507.7915],[-91.8115,15.1984,2761.7087],[-91.8018,15.1943,2823.4451],[-91.7958,15.1861,2872.8867],[-91.7844,15.1871,2897.6162],[-91.773,15.1922,2807.0452],[-91.7637,15.1917,2704.9189],[-91.7556,15.194,2559.9795],[-91.7438,15.1922,2496.2798],[-91.7366,15.1958,2378.9688],[-91.7314,15.2096,2212.0007],[-91.7241,15.2125,2250.0662],[-91.7194,15.2118,2355.2173],[-91.7107,15.2154,2199.8628],[-91.6841,15.2324,1997.351],[-91.6789,15.2434,1896.0251],[-91.6755,15.2451,1871.8335],[-91.6767,15.2382,1914.2438],[-91.6721,15.2323,1964.939],[-91.6735,15.2219,1873.052],[-91.6684,15.2246,1801.0199],[-91.6509,15.2277,1834.2878],[-91.6455,15.2262,1833.8132],[-91.6402,15.2392,1690.2615],[-91.6282,15.2425,1747.3718],[-91.6636,15.2926,2005.0183],[-91.6821,15.3042,1815.8674],[-91.6988,15.3238,1907.7935],[-91.7073,15.3369,1785.134],[-91.7164,15.3391,1484.7803]]]]}
,"properties": {"GID_2": "GTM.17.21_1","GID_0": "GTM","country": "Guatemala","GID_1": "GTM.17_1","province": "SanMarcos","NL_NAME_1": "NA","county": "SanMiguelIxtahuacán","VARNAME_2": "NA","NL_NAME_2": "NA","TYPE_2": "Municipio","ENGTYPE_2": "Municipality","CC_2": "NA","HASC_2": "NA","name": "San_Miguel_Ixtahuacán.county","area_km2": 201.1716,"hist_schema_id": "Elevation0-9000","hist_area_km2": {"1475": 0.0204,"1500": 0.5725,"1525": 1.0633,"1550": 1.002,"1575": 1.5542,"1600": 2.2087,"1625": 2.7815,"1650": 3.0474,"1675": 2.7815,"1700": 3.7223,"1725": 3.2314,"1750": 3.436,"1775": 3.5588,"1800": 4.3565,"1825": 4.8065,"1850": 4.8474,"1875": 4.7862,"1900": 4.827,"1925": 5.727,"1950": 5.3382,"1975": 4.4996,"2000": 4.4383,"2025": 4.7041,"2050": 5.5224,"2075": 5.1132,"2100": 4.5407,"2125": 4.418,"2150": 4.1521,"2175": 4.0908,"2200": 4.3158,"2225": 4.9091,"2250": 4.2137,"2275": 4.1932,"2300": 4.0706,"2325": 4.0501,"2350": 3.6411,"2375": 3.8456,"2400": 3.4161,"2425": 3.723,"2450": 3.4571,"2475": 3.3958,"2500": 3.2322,"2525": 4.3983,"2550": 4.3369,"2575": 3.9483,"2600": 3.9278,"2625": 3.5597,"2650": 3.662,"2675": 3.6007,"2700": 3.8871,"2725": 3.6621,"2750": 2.7824,"2775": 2.3119,"2800": 1.821,"2825": 1.3095,"2850": 1.1663,"2875": 0.7366,"2900": 0.4297,"2925": 0.0205}}}