{"type":"Feature","properties":{"featurecla":"River","scalerank":11,"rivernum":22190,"dissolve":"22190River","name":"null985","name_alt":null,"note":"ID is link back to CEC data","name_full":null,"min_zoom":6.7,"strokeweig":0.2,"uident":2051101,"min_label":7.7},
"geometry":{"type": "LineString","coordinates": [[-88.8302302725204,15.783474025514863,15.4473],[-88.805165168353724,15.791937567181535,70.1016],[-88.795765754291224,15.793239650514863,65.9751],[-88.789540168353724,15.798041082806535,106.9067],[-88.781849738666224,15.804063218223206,141.0822],[-88.776112433978724,15.811387436973206,100.8422],[-88.768055793353724,15.818141994264863,25.5576],[-88.749501105853724,15.818793035931535,0.0]]}}