{"type": "Feature","bbox": [-89.893,14.9547,-89.6601,15.1722],"geometry": {"type": "MultiPolygon","coordinates": [[[[-89.893,15.1403,2451.4644],[-89.8289,15.0656,2366.0938],[-89.7731,15.0675,946.4415],[-89.7701,15.0395,1334.88],[-89.7645,15.0358,1265.2596],[-89.7552,15.0218,923.39],[-89.7575,15.0061,507.7098],[-89.7561,15.0027,438.374],[-89.743,14.9892,275.0415],[-89.7438,14.9719,237.5049],[-89.7365,14.9647,229.4554],[-89.737799999999993,14.9616,218.4699],[-89.7359,14.9547,204.793],[-89.724,14.9572,199.2204],[-89.7211,14.9592,197.5642],[-89.7102,14.9578,199.6839],[-89.6961,14.9614,199.946],[-89.6807,14.958,263.0283],[-89.6719,14.9636,230.0956],[-89.6637,14.9638,247.8038],[-89.6601,14.9664,240.4025],[-89.6605,14.9914,210.4716],[-89.6798,14.9938,205.957],[-89.681,14.9871,211.8134],[-89.6917,14.9916,210.0103],[-89.6886,14.9942,226.818],[-89.688,14.9972,232.9335],[-89.6973,15.0038,235.5445],[-89.7017,15.015,262.4935],[-89.7076,15.0189,338.1983],[-89.711,15.0323,771.402],[-89.7218,15.0447,1280.4285],[-89.7228,15.0543,1119.252],[-89.7215,15.075,1255.9309],[-89.7264,15.0768,1476.658],[-89.7367,15.0848,1655.5006],[-89.7386,15.1032,1850.0432],[-89.7527,15.111,1928.9659],[-89.7456,15.1213,2327.3845],[-89.7497,15.1272,2376.9497],[-89.7424,15.1378,2554.0879],[-89.7368,15.1415,2654.2124],[-89.7331,15.1468,2746.7588],[-89.7462,15.1446,2754.2629],[-89.7521,15.1479,2576.2781],[-89.7665,15.1493,2473.7419],[-89.7775,15.1699,2270.4097],[-89.7843,15.1714,2520.3357],[-89.7938,15.1702,2706.7161],[-89.8033,15.1658,2732.0461],[-89.8113,15.1719,2623.8264],[-89.8192,15.1722,2647.3516],[-89.8351,15.1619,2755.1445],[-89.844,15.1639,2730.6477],[-89.8613,15.1605,2788.8948],[-89.8662,15.1474,2190.6692],[-89.8841,15.1481,2363.6255],[-89.8874,15.1521,2009.6187],[-89.8909,15.1499,2365.9658],[-89.8903,15.1441,2258.9321],[-89.893,15.1403,2451.4644]]]]}
,"properties": {"GID_2": "GTM.22.8_1","GID_0": "GTM","country": "Guatemala","GID_1": "GTM.22_1","province": "Zacapa","NL_NAME_1": "NA","county": "Teculután","VARNAME_2": "NA","NL_NAME_2": "NA","TYPE_2": "Municipio","ENGTYPE_2": "Municipality","CC_2": "NA","HASC_2": "NA","name": "Teculután.county","area_km2": 220.3634,"hist_schema_id": "Elevation0-9000","hist_area_km2": {"175": 0.7168,"200": 12.8016,"225": 15.7299,"250": 8.1512,"275": 3.0514,"300": 1.8431,"325": 1.6178,"350": 1.2902,"375": 1.2902,"400": 1.0239,"425": 0.9215,"450": 0.6553,"475": 0.7577,"500": 0.6348,"525": 1.1263,"550": 0.6962,"575": 0.7986,"600": 0.9829,"625": 0.9624,"650": 0.8805,"675": 0.9419,"700": 1.1467,"725": 1.2695,"750": 1.3514,"775": 1.0852,"800": 1.0442,"825": 1.3309,"850": 1.3513,"875": 1.3308,"900": 1.4946,"925": 1.3308,"950": 1.7198,"975": 1.6993,"1000": 1.8426,"1025": 1.8835,"1050": 1.822,"1075": 2.3339,"1100": 2.211,"1125": 1.6378,"1150": 1.8425,"1175": 1.9858,"1200": 2.0267,"1225": 2.0881,"1250": 2.1086,"1275": 2.2109,"1300": 2.17,"1325": 1.9652,"1350": 2.2723,"1375": 2.477,"1400": 2.4155,"1425": 2.3746,"1450": 2.3336,"1475": 2.743,"1500": 2.3336,"1525": 2.7225,"1550": 2.4564,"1575": 2.7634,"1600": 2.9886,"1625": 3.05,"1650": 3.1523,"1675": 3.2342,"1700": 3.1522,"1725": 3.4183,"1750": 3.275,"1775": 2.8042,"1800": 3.0703,"1825": 3.3159,"1850": 2.9475,"1875": 2.9884,"1900": 2.7223,"1925": 2.8041,"1950": 2.4356,"1975": 2.497,"2000": 2.0877,"2025": 2.2105,"2050": 2.0262,"2075": 2.19,"2100": 2.1081,"2125": 1.8215,"2150": 1.7602,"2175": 2.0467,"2200": 1.9239,"2225": 1.5964,"2250": 1.7806,"2275": 1.6987,"2300": 1.7601,"2325": 1.535,"2350": 1.5555,"2375": 1.9033,"2400": 1.4736,"2425": 1.3507,"2450": 0.9824,"2475": 1.187,"2500": 1.0437,"2525": 0.7981,"2550": 0.7981,"2575": 0.88,"2600": 1.0642,"2625": 0.9823,"2650": 0.7981,"2675": 0.8391,"2700": 0.9005,"2725": 0.7572,"2750": 0.6344,"2775": 0.3274,"2800": 0.5935,"2825": 0.2456,"2850": 0.3274,"2875": 0.3274,"2900": 0.0409,"2925": 0.0614,"2950": 0.0409}}}