{"type": "Feature","bbox": [-91.0087,13.9113,-90.7096,14.0807],"geometry": {"type": "MultiPolygon","coordinates": [[[[-90.7297,14.0084,9.1817],[-90.7325,14.0067,9.2106],[-90.7433,13.9726,6.8959],[-90.7526,13.9703,7.9035],[-90.755,13.9664,6.6],[-90.7599,13.9648,7.1365],[-90.7633,13.9664,8.4985],[-90.7637,13.9741,8.4916],[-90.7616,13.9879,11.0805],[-90.7849,13.9979,15.4962],[-90.7918,14.0034,16.2661],[-90.7963,14.005,15.9655],[-90.8195,14.0024,17.6696],[-90.8263,13.997,17.0112],[-90.8291,13.9973,18.0282],[-90.8315,14.0004,18.1657],[-90.8611,14.0018,21.5424],[-90.8634,14.0061,22.8107],[-90.8973,14.0086,25.8191],[-90.8983,14.0184,27.2948],[-90.9033,14.0235,29.2417],[-90.8986,14.034,31.8026],[-90.8966,14.0347,31.3635],[-90.9007,14.0458,35.1502],[-90.9538,14.0669,33.4025],[-90.9829,14.0807,36.2315],[-90.9923,14.0801,34.6945],[-90.9938,14.0758,32.8092],[-90.9985,14.0736,32.1591],[-90.9999,14.0691,31.8097],[-90.9985,14.0597,28.2707],[-91.0024,14.0534,26.7865],[-91.0036,14.035,32.5209],[-91.0029,14.0325,32.0711],[-90.9976,14.0288,29.3162],[-90.9972,14.0256,27.9759],[-91.0023,14.0182,18.838],[-91.0008,14.01,16.4274],[-91.0015,14.0068,14.66],[-91.0044,14.0046,14.9218],[-90.999,13.9955,14.1352],[-91.0087,13.9143,3.0834],[-90.9251,13.9143,5.5541],[-90.9135,13.9113,1.9724],[-90.9101,13.9121,0.5],[-90.9076,13.9151,3.4868],[-90.9057,13.9124,4.5396],[-90.9024,13.9115,2.2029],[-90.8918,13.9146,7.5928],[-90.8096,13.9182,2.5687],[-90.8112,13.9218,1.9959],[-90.8079,13.921,0.3108],[-90.8076,13.919,0.0],[-90.7974,13.9196,3.9492],[-90.7949,13.9185,1.7617],[-90.794,13.9199,3.2506],[-90.7904,13.9154,0.0],[-90.7846,13.9149,0.0],[-90.7846,13.9157,0.0],[-90.7899,13.9163,0.0],[-90.7918,13.9215,0.7459],[-90.801,13.9221,0.0],[-90.8021,13.9235,1.1223],[-90.7962,13.9243,0.9918],[-90.7949,13.9229,0.0],[-90.7904,13.9249,0.0],[-90.791,13.9288,5.5036],[-90.7885,13.9288,4.5779],[-90.786,13.9221,0.0],[-90.7879,13.9196,0.0],[-90.7849,13.9199,0.0],[-90.784,13.9179,0.0],[-90.7804,13.9226,3.7497],[-90.7738,13.9243,0.949],[-90.7735,13.9221,0.4985],[-90.7721,13.9221,0.0],[-90.7715,13.9238,1.2485],[-90.7648,13.9264,8.432],[-90.7626,13.9289,7.4693],[-90.7323,13.9329,11.7428],[-90.7105,13.9335,3.6153],[-90.7096,13.9379,7.2306],[-90.7134,13.9423,1.3695],[-90.7161,13.9541,2.373],[-90.7161,13.9603,3.0719],[-90.7102,13.9762,4.7359],[-90.7105,13.9806,5.3775],[-90.7274,14.0012,8.4285],[-90.7297,14.0084,9.1817]]]]}
,"properties": {"GID_2": "GTM.6.9_1","GID_0": "GTM","country": "Guatemala","GID_1": "GTM.6_1","province": "Escuintla","NL_NAME_1": "NA","county": "SanJosé","VARNAME_2": "NA","NL_NAME_2": "NA","TYPE_2": "Municipio","ENGTYPE_2": "Municipality","CC_2": "NA","HASC_2": "NA","name": "San_José.county","area_km2": 354.6035,"hist_schema_id": "Elevation0-9000","hist_area_km2": {"0": 185.4413,"25": 169.1005,"50": 0.0617}}}