{"type":"Feature","properties":{"GID_2":"GTM.2.4_1","GID_0":"GTM","country":"Guatemala","GID_1":"GTM.2_1","province":"BajaVerapaz","NL_NAME_1":"NA","county":"Rabinal","VARNAME_2":"NA","NL_NAME_2":"NA","TYPE_2":"Municipio","ENGTYPE_2":"Municipality","CC_2":"NA","HASC_2":"NA","name":"Rabinal.county"},
"geometry":{"type": "MultiPolygon","coordinates": [[[[-90.5778,15.004,2197.5483],[-90.561,15.0026,1802.7266],[-90.5592,15.0075,1771.6692],[-90.5511,15.0094,1781.4299],[-90.5484,15.0067,1712.8411],[-90.5465,14.9982,1738.8644],[-90.5432,14.9982,1634.0557],[-90.5332,15.0041,1729.6328],[-90.5239,15.0041,1849.9735],[-90.5146,15.0007,2035.0928],[-90.5148,15.0061,2056.7266],[-90.5096,15.0176,2023.7872],[-90.5007,15.0175,1958.8898],[-90.4927,15.0145,1982.5098],[-90.4886,15.0166,1988.0055],[-90.4815,15.015,1800.2351],[-90.4738,15.01,1897.4791],[-90.4684,15.0134,1754.2764],[-90.4561,15.0093,1725.2047],[-90.4517,14.9991,1999.7424],[-90.4441,14.993,1967.1116],[-90.4353,14.9978,1924.0896],[-90.4308,15.005,1944.6388],[-90.4247,15.0008,1950.5657],[-90.4239,14.9978,1967.5413],[-90.4171,14.9986,2072.5962],[-90.4118,15.0046,2261.3628],[-90.412,15.0111,2127.1777],[-90.4092,15.0204,2028.0123],[-90.4126,15.0294,1923.4338],[-90.418,15.0369,1857.8027],[-90.4195,15.0505,1698.641],[-90.4215,15.0548,1609.7698],[-90.4277,15.0548,1485.274],[-90.4278,15.0578,1494.4802],[-90.4254,15.0595,1530.46],[-90.4258,15.0614,1568.9603],[-90.4281,15.0624,1618.7902],[-90.4293,15.0826,1553.0554],[-90.4438,15.0952,1510.1023],[-90.4502,15.1152,1509.3655],[-90.4557,15.1201,1516.4286],[-90.4635,15.1231,1505.0999],[-90.4685,15.1393,1370.683],[-90.4699,15.1407,1323.3217],[-90.4712,15.1382,1429.8978],[-90.4898,15.1499,1177.1387],[-90.4902,15.155,1178.5746],[-90.4774,15.1627,1505.4207],[-90.475,15.168,1613.9504],[-90.457,15.1818,1059.1409],[-90.4463,15.1855,935.4327],[-90.437,15.1864,921.197],[-90.4321,15.1842,856.4595],[-90.4291,15.1867,866.4045],[-90.4264,15.1929,974.2698],[-90.425299999999993,15.2009,1133.74],[-90.4265,15.2066,1219.9272],[-90.4309,15.2167,1211.8745],[-90.4347,15.2192,1136.8207],[-90.4413,15.2206,1073.308],[-90.4465,15.2195,1272.3352],[-90.4484,15.2152,1210.7056],[-90.4515,15.2128,1131.3225],[-90.4632,15.216,1028.6414],[-90.4778,15.2162,985.7529],[-90.4744,15.2238,806.1593],[-90.4767,15.2295,819.5328],[-90.4758,15.2319,834.6649],[-90.4774,15.233,812.4768],[-90.4747,15.2362,905.5168],[-90.475,15.2392,798.5],[-90.4795,15.2417,843.4161],[-90.4804,15.2465,849.657],[-90.4855,15.2491,844.38],[-90.4895,15.2549,801.2513],[-90.4916,15.2664,895.0503],[-90.4951,15.2637,798.0],[-90.4977,15.2591,847.9777],[-90.506,15.2558,980.0547],[-90.5087,15.2471,1193.6919],[-90.5158,15.2427,985.2268],[-90.5154,15.2383,964.5875],[-90.5221,15.235,897.7104],[-90.5234,15.2239,1215.848],[-90.5315,15.212,1100.451],[-90.542,15.2047,969.1937],[-90.5533,15.2023,1051.589],[-90.5513,15.1949,1245.8855],[-90.5456,15.1902,1414.4711],[-90.5446,15.1861,1513.519],[-90.547,15.1813,1562.3599],[-90.5575,15.1723,1375.0298],[-90.5687,15.1553,908.0254],[-90.5742,15.1505,924.387],[-90.5755,15.1429,1053.0901],[-90.575,15.113,1147.3096],[-90.5678,15.1077,1239.9935],[-90.5669,15.0988,1030.5701],[-90.5542,15.0839,1302.5303],[-90.5412,15.0611,1525.1372],[-90.5487,15.0411,1535.5844],[-90.5526,15.0357,1733.5361],[-90.5691,15.0264,1980.3373],[-90.578,15.0277,1678.0798],[-90.5806,15.0236,1687.3936],[-90.5746,15.0165,1925.2946],[-90.5778,15.004,2197.5483]]]]}}