{"type":"Feature","properties":{"GID_2":"GTM.12.5_1","GID_0":"GTM","country":"Guatemala","GID_1":"GTM.12_1","province":"Petén","NL_NAME_1":"NA","county":"Poptún","VARNAME_2":"NA","NL_NAME_2":"NA","TYPE_2":"Municipio","ENGTYPE_2":"Municipality","CC_2":"NA","HASC_2":"NA","name":"Poptún.county"},
"geometry":{"type": "MultiPolygon","coordinates": [[[[-89.1822,16.5115,633.1824],[-89.8248,16.3625,179.1705],[-89.8332,16.3555,190.2462],[-89.8372,16.3495,178.3958],[-89.8415,16.3495,195.3138],[-89.8415,16.343,196.2805],[-89.8445,16.3415,190.4413],[-89.8494,16.342,165.844],[-89.8574,16.3276,172.3532],[-89.8596,16.329,190.7298],[-89.8656,16.327,164.3134],[-89.8686,16.3305,173.8121],[-89.8746,16.3287,148.3706],[-89.8756,16.33,150.4017],[-89.8778,16.3281,146.5193],[-89.8796,16.3298,147.1208],[-89.887,16.3266,142.4063],[-89.8844,16.3144,149.2806],[-89.88,16.3135,145.8802],[-89.8799,16.3096,145.5231],[-89.8818,16.3083,144.7292],[-89.8797,16.3043,143.8061],[-89.8832,16.3039,142.4076],[-89.8906,16.2992,144.1351],[-89.8913,16.3002,144.1351],[-89.8918,16.2987,141.5614],[-89.894,16.2997,140.0578],[-89.8982,16.2955,140.682],[-89.9011,16.295,140.466],[-89.9075,16.2903,140.1301],[-89.9088,16.2843,140.7271],[-89.9158,16.2831,147.5486],[-89.9166,16.2848,144.979],[-89.919,16.2828,150.1539],[-89.9199,16.2844,143.9412],[-89.9256,16.283,149.769],[-89.9268,16.2795,143.108],[-89.9296,16.2788,144.131],[-89.9317,16.2801,143.5099],[-89.9412,16.2748,138.6617],[-89.9433,16.2717,135.9813],[-89.9419,16.2684,135.8631],[-89.945,16.2676,135.3712],[-89.9444,16.2586,135.9093],[-89.9489,16.2551,134.0169],[-89.9486,16.2444,132.7737],[-89.9573,16.2377,134.7541],[-89.9576,16.2331,133.7523],[-89.9612,16.2326,132.8692],[-89.9576,16.2163,142.3122],[-89.9591,16.2141,143.3171],[-89.9627,16.2176,135.237],[-89.9738,16.2197,134.9417],[-89.9742,16.2234,139.5973],[-89.9815,16.219,137.3342],[-89.9823,16.2157,136.7984],[-89.9851,16.2139,130.2596],[-89.9955,16.2118,125.9747],[-90.0,16.2085,129.4769],[-90.001,16.2047,138.6344],[-89.1979,16.2771,655.3055],[-89.1822,16.5115,633.1824]]]]}}