{"type": "Feature","bbox": [-89.9204,16.6542,-89.551,16.9265],"geometry": {"type": "MultiPolygon","coordinates": [[[[-89.551,16.9265,315.8572],[-89.9173,16.9005,166.0966],[-89.9166,16.8637,223.4604],[-89.9204,16.6542,135.011],[-89.7922,16.6545,147.4259],[-89.7865,16.6577,152.5979],[-89.7845,16.6563,153.6884],[-89.7869,16.6542,151.191],[-89.7425,16.6542,151.6022],[-89.739,16.6547,157.8741],[-89.732,16.6594,175.24],[-89.7317,16.6577,202.5499],[-89.7344,16.6545,196.1524],[-89.5514,16.6569,288.4594],[-89.551,16.9265,315.8572]]]]}
,"properties": {"GID_2": "GTM.12.11_1","GID_0": "GTM","country": "Guatemala","GID_1": "GTM.12_1","province": "Petén","NL_NAME_1": "NA","county": "SantaAna","VARNAME_2": "NA","NL_NAME_2": "NA","TYPE_2": "Municipio","ENGTYPE_2": "Municipality","CC_2": "NA","HASC_2": "NA","name": "Santa_Ana.county","area_km2": 1119.5688,"hist_schema_id": "Elevation0-9000","hist_area_km2": {"125": 12.06,"150": 75.8386,"175": 173.8671,"200": 126.8101,"225": 127.1379,"250": 105.8829,"275": 99.5985,"300": 117.0321,"325": 163.7073,"350": 83.6443,"375": 25.6235,"400": 8.3057,"425": 0.0609}}}