{"type":"Feature","properties":{"GID_2":"GTM.8.3_1","GID_0":"GTM","country":"Guatemala","GID_1":"GTM.8_1","province":"Huehuetenango","NL_NAME_1":"NA","county":"Colotenango","VARNAME_2":"NA","NL_NAME_2":"NA","TYPE_2":"Municipio","ENGTYPE_2":"Municipality","CC_2":"NA","HASC_2":"NA","name":"Colotenango.county"},
"geometry":{"type": "MultiPolygon","coordinates": [[[[-91.6762,15.4048,1685.8352],[-91.6708,15.4241,2302.0049],[-91.6574,15.4361,2834.9702],[-91.6481,15.4507,2254.6892],[-91.6352,15.4762,2640.0874],[-91.6585,15.4855,2250.9871],[-91.6686,15.4836,2422.9265],[-91.6836,15.4889,2354.3125],[-91.7099,15.4833,2476.9961],[-91.7176,15.4619,1937.465],[-91.7299,15.4573,1986.015],[-91.7253,15.4414,1899.6367],[-91.7309,15.4263,1489.3467],[-91.7213,15.4304,1820.2089],[-91.7183,15.4299,1890.8788],[-91.7136,15.4201,1599.5387],[-91.7092,15.4157,1664.781],[-91.6974,15.4113,1680.7771],[-91.6858,15.4123,1882.3497],[-91.6762,15.4048,1685.8352]]]]}}