{"type":"Feature","properties":{"GID_2":"GTM.1.12_1","GID_0":"GTM","country":"Guatemala","GID_1":"GTM.1_1","province":"AltaVerapaz","NL_NAME_1":"NA","county":"Senahú","VARNAME_2":"NA","NL_NAME_2":"NA","TYPE_2":"Municipio","ENGTYPE_2":"Municipality","CC_2":"NA","HASC_2":"NA","name":"Senahú.county"},
"geometry":{"type": "MultiPolygon","coordinates": [[[[-89.9955,15.5063,488.2992],[-89.9967,15.5037,774.5338],[-89.9963,15.4805,917.2639],[-89.9937,15.4767,910.7063],[-89.9893,15.4784,848.2228],[-89.9858,15.4822,761.5636],[-89.9833,15.4827,877.5866],[-89.9834,15.4801,835.0136],[-89.9892,15.4682,1166.5653],[-90.0004,15.4659,1236.3804],[-90.0014,15.4613,1271.6437],[-89.9968,15.4587,1213.3517],[-89.9974,15.4527,1196.9761],[-89.9921,15.4475,1180.4973],[-89.9882,15.4528,1067.8098],[-89.9846,15.4543,1193.5261],[-89.9729,15.4538,1168.0461],[-89.9721,15.4484,1310.043],[-89.9665,15.4463,1375.3555],[-89.9663,15.4376,1405.3577],[-89.9637,15.4359,1468.3406],[-89.9659,15.4328,1485.1067],[-89.9864,15.4283,1661.741],[-90.0179,15.4118,1900.8304],[-90.0468,15.4082,2040.3942],[-90.0541,15.4046,1945.0012],[-90.0618,15.395,2210.4766],[-90.081,15.3863,2260.6963],[-90.0936,15.3784,1919.4927],[-90.096,15.3714,2005.0328],[-90.0813,15.361,2318.1743],[-90.0699,15.3598,2231.3569],[-90.0629,15.3662,2185.4038],[-90.0613,15.3652,2067.6216],[-90.0603,15.3606,2164.8738],[-90.0562,15.3576,2173.0852],[-90.0514,15.3555,1911.3236],[-90.0348,15.3535,1544.5399],[-90.0303,15.3493,1467.3281],[-90.0265,15.3398,1487.6658],[-90.021,15.3383,1631.3389],[-89.9896,15.3423,1643.6782],[-89.9823,15.332,996.9797],[-89.9834,15.3295,882.5772],[-89.9787,15.3285,690.6218],[-89.9783,15.3176,529.2776],[-89.962,15.305,195.6253],[-89.9362,15.3218,364.6948],[-89.9159,15.3187,224.552],[-89.9092,15.3213,299.373],[-89.9066,15.3172,198.52],[-89.9043,15.3181,182.6679],[-89.8963,15.3316,286.4619],[-89.8941,15.3333,327.9556],[-89.8903,15.3326,400.9245],[-89.8838,15.3364,284.0555],[-89.8581,15.3425,530.5933],[-89.8202,15.3436,578.2294],[-89.8043,15.3476,589.9429],[-89.7691,15.3513,371.7004],[-89.7634,15.3546,414.4841],[-89.758,15.3662,273.7501],[-89.7507,15.3679,253.6166],[-89.748,15.3749,378.0066],[-89.6992,15.3902,90.3177],[-89.6833,15.3976,168.7967],[-89.6632,15.4223,227.9604],[-89.6499,15.4424,456.5208],[-89.6428,15.4495,434.4521],[-89.6437,15.4524,473.2382],[-89.6384,15.4535,475.7795],[-89.6315,15.4638,666.0125],[-89.6244,15.4649,746.7547],[-89.6239,15.4707,786.8317],[-89.6207,15.4765,671.2108],[-89.6148,15.479,667.9951],[-89.6042,15.5026,269.6172],[-89.6437,15.5464,190.2235],[-89.6578,15.5293,323.5461],[-89.6658,15.5252,487.4969],[-89.7082,15.5155,746.2594],[-89.7283,15.5259,533.9897],[-89.7379,15.5259,685.1633],[-89.7492,15.5157,624.9483],[-89.7663,15.5177,388.3628],[-89.7781,15.5237,260.9551],[-89.7875,15.5224,356.2536],[-89.7879,15.5199,329.7238],[-89.8015,15.5119,540.1102],[-89.8051,15.5122,694.8884],[-89.8096,15.5029,763.5472],[-89.8046,15.4993,683.295],[-89.8102,15.4939,823.3824],[-89.8181,15.4911,824.419],[-89.8192,15.4946,733.7761],[-89.8254,15.493,739.4608],[-89.8264,15.498,522.9363],[-89.8263,15.5025,430.9644],[-89.8199,15.5127,391.5289],[-89.8227,15.5153,441.6625],[-89.8249,15.5145,475.9647],[-89.8296,15.5205,477.9644],[-89.837,15.5206,524.9304],[-89.8438,15.5164,494.2101],[-89.8477,15.5093,381.0746],[-89.8558,15.5071,372.4987],[-89.8672,15.5093,418.4515],[-89.8693,15.5056,378.3835],[-89.8715,15.4897,507.8823],[-89.8772,15.4875,656.3868],[-89.8859,15.4884,635.9616],[-89.8918,15.4847,632.8264],[-89.906,15.482,719.3618],[-89.9191,15.4811,596.1992],[-89.9388,15.4895,658.5002],[-89.9438,15.4939,725.5904],[-89.9492,15.5053,788.8018],[-89.984,15.5086,507.1482],[-89.9955,15.5063,488.2992]]]]}}