{"type":"Feature","properties":{"GID_2":"GTM.13.2_1","GID_0":"GTM","country":"Guatemala","GID_1":"GTM.13_1","province":"Quezaltenango","NL_NAME_1":"NA","county":"Cabricán","VARNAME_2":"NA","NL_NAME_2":"NA","TYPE_2":"Municipio","ENGTYPE_2":"Municipality","CC_2":"NA","HASC_2":"NA","name":"Cabricán.county"},
"geometry":{"type": "MultiPolygon","coordinates": [[[[-91.5859,15.0748,3061.9868],[-91.5942,15.0834,3190.4663],[-91.5967,15.0977,2984.7595],[-91.6085,15.1016,2743.5508],[-91.614,15.1065,2738.3066],[-91.6156,15.1104,2799.9233],[-91.6145,15.1162,2711.1707],[-91.6164,15.1187,2724.9634],[-91.6129,15.1407,2268.7334],[-91.6186,15.1533,2177.9468],[-91.6291,15.1485,2374.8574],[-91.6731,15.1464,1900.9764],[-91.6803,15.1385,1973.7657],[-91.6838,15.1388,1929.6455],[-91.6872,15.134,1924.6843],[-91.6855,15.1315,1971.8519],[-91.6911,15.1247,1952.1165],[-91.693,15.1184,1978.7502],[-91.6965,15.118,1982.6348],[-91.6981,15.1143,2039.0911],[-91.7021,15.111,1998.6992],[-91.7031,15.102,2216.2441],[-91.6958,15.0901,2181.0376],[-91.696,15.0832,2326.3979],[-91.6878,15.0781,2367.0417],[-91.6823,15.0714,2402.9128],[-91.6757,15.0694,2394.1655],[-91.6714,15.0592,2452.2458],[-91.6611,15.0549,2495.9309],[-91.6489,15.0616,2514.2698],[-91.6312,15.057,2537.1938],[-91.6199,15.0568,2653.6765],[-91.6064,15.0675,2705.3257],[-91.5962,15.0676,2809.429],[-91.5909,15.0693,2870.5107],[-91.5859,15.0748,3061.9868]]]]}}