{"type":"Feature","properties":{"GID_2":"GTM.17.26_1","GID_0":"GTM","country":"Guatemala","GID_1":"GTM.17_1","province":"SanMarcos","NL_NAME_1":"NA","county":"Sipacapa","VARNAME_2":"NA","NL_NAME_2":"NA","TYPE_2":"Municipio","ENGTYPE_2":"Municipality","CC_2":"NA","HASC_2":"NA","name":"Sipacapa.county"},
"geometry":{"type": "MultiPolygon","coordinates": [[[[-91.6282,15.2425,1747.3718],[-91.6402,15.2392,1690.2615],[-91.6455,15.2262,1833.8132],[-91.6509,15.2277,1834.2878],[-91.6684,15.2246,1801.0199],[-91.6735,15.2219,1873.052],[-91.6721,15.2323,1964.939],[-91.6767,15.2382,1914.2438],[-91.6755,15.2451,1871.8335],[-91.6789,15.2434,1896.0251],[-91.6841,15.2324,1997.351],[-91.7107,15.2154,2199.8628],[-91.7194,15.2118,2355.2173],[-91.7241,15.2125,2250.0662],[-91.7314,15.2096,2212.0007],[-91.7393,15.1891,2593.4768],[-91.7525,15.1724,2731.2451],[-91.763,15.1629,2858.7339],[-91.7624,15.1619,2880.5684],[-91.7585,15.1634,2779.8557],[-91.7472,15.1635,2583.9407],[-91.7361,15.1539,2460.1877],[-91.7362,15.1469,2687.2625],[-91.7332,15.1481,2613.1187],[-91.7186,15.1417,2492.4031],[-91.7158,15.1419,2490.0349],[-91.7123,15.1486,2336.9119],[-91.7081,15.1491,2191.8286],[-91.6994,15.1429,2112.3884],[-91.6898,15.1406,2050.9695],[-91.6857,15.1362,1969.1912],[-91.6838,15.1388,1929.6455],[-91.6803,15.1385,1973.7657],[-91.6731,15.1464,1900.9764],[-91.6291,15.1485,2374.8574],[-91.5855,15.1714,1978.0591],[-91.5692,15.2244,2194.0305],[-91.5805,15.2333,2002.6521],[-91.6227,15.2345,1671.405],[-91.6282,15.2425,1747.3718]]]]}}