{"type":"Feature","properties":{"GID_2":"GTM.9.7_1","GID_0":"GTM","country":"Guatemala","GID_1":"GTM.9_1","province":"Izabal","NL_NAME_1":"NA","county":"SanLuis","VARNAME_2":"NA","NL_NAME_2":"NA","TYPE_2":"Municipio","ENGTYPE_2":"Municipality","CC_2":"NA","HASC_2":"NA","name":"San_Luis.county"},
"geometry":{"type": "MultiPolygon","coordinates": [[[[-88.9802,15.5517,1.3896],[-88.9581,15.5499,15.6653],[-88.9424,15.5556,22.9299],[-88.9348,15.5604,23.3384],[-88.9227,15.5536,33.0622],[-88.9151,15.553,40.3255],[-88.9057,15.5552,44.431],[-88.9009,15.554,44.931399999999996],[-88.896,15.5441,66.9351],[-88.8925,15.5476,67.268],[-88.8728,15.5561,127.0947],[-88.8704,15.5577,141.7073],[-88.8692,15.5615,168.9986],[-88.8566,15.5692,158.5773],[-88.8182,15.5645,376.713],[-88.8133,15.567,311.5183],[-88.7961,15.5659,463.9106],[-88.7884,15.5711,440.5877],[-88.7822,15.5719,436.3551],[-88.7722,15.5696,565.3661],[-88.7459,15.5725,449.5014],[-88.72,15.5882,531.5939],[-88.7059,15.6207,454.6044],[-88.7031,15.6383,491.7039],[-88.7062,15.6488,586.2699],[-88.7054,15.6582,749.1223],[-88.6985,15.6631,781.4435],[-88.683,15.6698,698.6088],[-88.6751,15.6782,598.7383],[-88.6656,15.6845,507.3561],[-88.6672,15.6902,461.4471],[-88.6835,15.7064,198.9195],[-88.7123,15.7052,168.3871],[-88.7165,15.7084,243.0759],[-88.72,15.7177,182.4365],[-88.728,15.7282,100.7477],[-88.7334,15.7441,148.0907],[-88.7306,15.7457,212.0487],[-88.7248,15.7559,188.7481],[-88.7133,15.7529,208.8719],[-88.6935,15.7595,31.3745],[-88.6878,15.7643,69.7204],[-88.6796,15.7821,1.2671],[-88.6915,15.7879,2.4752],[-88.7151,15.8029,9.9782],[-88.7235,15.8099,1.9157],[-88.7268,15.8171,0.0],[-88.7312,15.8171,0.0],[-88.7343,15.8132,6.4758],[-88.7401,15.8101,10.0453],[-88.7443,15.8099,2.171],[-88.7476,15.8123,0.0],[-88.7628,15.8036,99.7649],[-88.7772,15.7999,63.3621],[-88.7694,15.7908,196.2379],[-88.7724,15.7751,82.9552],[-88.7765,15.7742,0.0],[-88.7784,15.7754,1.1624],[-88.78,15.7813,30.2518],[-88.7831,15.7826,0.0],[-88.7928,15.7799,22.4587],[-88.8016,15.7725,13.8988],[-88.812,15.7721,4.8883],[-88.8183,15.7759,0.0],[-88.8253,15.7707,12.5149],[-88.8256,15.769,0.0],[-88.8216,15.7674,6.9135],[-88.8235,15.7659,11.9132],[-88.8277,15.7678,0.0],[-88.8292,15.7649,12.8205],[-88.8337,15.7642,0.0],[-88.8303,15.76,7.7856],[-88.8351,15.7602,0.0],[-88.8379,15.7578,4.5242],[-88.8368,15.7539,9.6413],[-88.8397,15.7524,3.0632],[-88.8446,15.756,0.0],[-88.8458,15.7547,0.0],[-88.8405,15.7469,8.1715],[-88.8417,15.7427,5.1447],[-88.8503,15.7374,9.6869],[-88.8506,15.7322,11.4899],[-88.8546,15.7276,4.1466],[-88.8561,15.722,1.9963],[-88.865,15.7131,3.7327],[-88.8772,15.7072,2.3797],[-88.8792,15.703,1.6194],[-88.8783,15.6989,30.898],[-88.8864,15.6851,5.8651],[-88.8942,15.6829,9.9114],[-88.8969,15.6882,0.0],[-88.9001,15.6861,5.6896],[-88.907,15.6913,0.0],[-88.9164,15.6954,2.5604],[-88.9215,15.6951,3.1732],[-88.925,15.6921,5.2822],[-88.9297,15.6943,0.0],[-88.9338,15.6933,8.6905],[-88.9388,15.689,12.6659],[-88.9396,15.686,11.1036],[-88.9424,15.684,4.3781],[-88.9436,15.6785,11.2618],[-88.9464,15.6763,11.5377],[-88.9467,15.6714,13.0654],[-88.9483,15.6696,4.845],[-88.9548,15.6739,0.0],[-88.9623,15.6709,2.8526],[-88.9655,15.6677,9.6228],[-88.9716,15.6704,0.0],[-88.9797,15.6675,12.424],[-88.9828,15.6634,0.7544],[-88.9882,15.664,4.6589],[-88.9899,15.6618,9.1426],[-88.9886,15.6586,4.3845],[-88.9917,15.6546,10.9205],[-88.9927,15.6566,4.7781],[-88.9942,15.6503,3.8337],[-88.9909,15.6491,1.9962],[-88.9927,15.6462,1.1341],[-88.9875,15.6379,5.0335],[-88.9834,15.6349,2.36],[-88.9785,15.6207,1.5781],[-88.9796,15.6133,3.3839],[-88.9851,15.6129,2.4856],[-88.9888,15.6071,0.7835],[-88.9896,15.6083,0.7835],[-89.0004,15.6079,4.5559],[-89.001,15.6068,7.257],[-88.9967,15.6002,4.7114],[-89.0022,15.5909,1.6796],[-88.9966,15.5774,0.898],[-88.9963,15.5706,1.7004],[-88.9868,15.5687,2.1458],[-88.9802,15.5517,1.3896]]]]}}