{"type": "Feature","bbox": [-90.5861,14.6523,-90.5692,14.6658],"geometry": {"type": "MultiPolygon","coordinates": [[[[-90.5692,14.661,1549.9314],[-90.5714,14.6658,1587.1057],[-90.5861,14.6558,1619.8501],[-90.5823,14.6523,1618.8976],[-90.5692,14.661,1549.9314]]]]}
,"properties": {"GID_2": "GTM.7.27_1","GID_0": "GTM","country": "Guatemala","GID_1": "GTM.7_1","province": "Guatemala","NL_NAME_1": "NA","county": "ZONA19","VARNAME_2": "NA","NL_NAME_2": "NA","TYPE_2": "Municipio","ENGTYPE_2": "Municipality","CC_2": "NA","HASC_2": "NA","name": "Z_O_N_A19.county","area_km2": 1.0256036,"hist_schema_id": "Elevation0-9000","hist_area_km2": {"1575": 0.102559,"1600": 0.5127983,"1625": 0.4102463}}}