{"type": "Feature","bbox": [-90.517,14.6131,-90.4889,14.6484],"geometry": {"type": "MultiPolygon","coordinates": [[[[-90.5164,14.6262,1502.8777],[-90.517,14.6239,1496.3184],[-90.5138,14.6234,1494.5208],[-90.516,14.616,1502.6871],[-90.5065,14.6131,1496.3315],[-90.4976,14.6211,1484.3202],[-90.4927,14.6224,1447.7916],[-90.4889,14.6292,1470.9707],[-90.4913,14.6379,1468.3169],[-90.4889,14.6432,1469.5615],[-90.4895,14.6484,1432.9512],[-90.4925,14.6468,1465.9828],[-90.4983,14.6392,1487.1802],[-90.5006,14.6388,1468.9236],[-90.5063,14.6298,1493.257],[-90.5112,14.6265,1485.115],[-90.5117,14.6288,1496.9454],[-90.5164,14.6262,1502.8777]]]]}
,"properties": {"GID_2": "GTM.7.34_1","GID_0": "GTM","country": "Guatemala","GID_1": "GTM.7_1","province": "Guatemala","NL_NAME_1": "NA","county": "ZONA5","VARNAME_2": "NA","NL_NAME_2": "NA","TYPE_2": "Municipio","ENGTYPE_2": "Municipality","CC_2": "NA","HASC_2": "NA","name": "Z_O_N_A5.county","area_km2": 5.456978,"hist_schema_id": "Elevation0-9000","hist_area_km2": {"1425": 0.082055,"1450": 0.738509,"1475": 2.359192,"1500": 2.277221}}}