{"type": "Feature","bbox": [-90.8967,15.2037,-90.6829,15.7692],"geometry": {"type": "MultiPolygon","coordinates": [[[[-90.8082,15.7587,293.2365],[-90.8434,15.7692,313.5499],[-90.8701,15.769,266.955],[-90.8669,15.7266,768.2847],[-90.8696,15.6929,290.6642],[-90.8638,15.6684,1040.2524],[-90.8662,15.648,654.8235],[-90.8625,15.6316,682.5308],[-90.8573,15.5891,625.9608],[-90.8575,15.5624,1137.0319],[-90.8538,15.5491,1061.3458],[-90.8589,15.5368,1344.6602],[-90.8692,15.4631,1097.026],[-90.8779,15.4555,1381.7784],[-90.8776,15.441,1912.7458],[-90.8802,15.4168,2201.4114],[-90.8776,15.4041,2240.7986],[-90.8809,15.3923,2227.4636],[-90.8796,15.3839,2345.2512],[-90.8838,15.3673,2443.7275],[-90.8816,15.3594,2145.0764],[-90.8878,15.3415,1805.3615],[-90.8922,15.3203,1864.4728],[-90.8967,15.3105,1948.285],[-90.888,15.2735,1323.2694],[-90.8776,15.2518,1135.3661],[-90.8446,15.2442,1180.4585],[-90.8317,15.235,910.9805],[-90.809,15.2352,1053.3352],[-90.8035,15.2324,1228.8726],[-90.7916,15.2376,913.249],[-90.7835,15.2323,1146.2625],[-90.7772,15.2199,1092.0658],[-90.7633,15.2217,951.5609],[-90.7588,15.2193,1249.0161],[-90.7524,15.2213,931.4849],[-90.7361,15.2123,1018.4945],[-90.7332,15.2048,941.7007],[-90.7264,15.2065,1076.7595],[-90.7221,15.2048,1340.7017],[-90.7179,15.2075,932.6171],[-90.7112,15.2044,1109.5323],[-90.7042,15.2073,901.5151],[-90.6968,15.2048,1024.5288],[-90.6829,15.2037,982.814],[-90.6856,15.2145,885.1876],[-90.6859,15.2259,1104.3542],[-90.711,15.2551,2513.926],[-90.767,15.2942,1894.6958],[-90.7779,15.3065,1801.588],[-90.7976,15.341,1403.8225],[-90.8112,15.3727,2106.7207],[-90.8159,15.3938,2577.3501],[-90.818,15.4167,2298.9832],[-90.8101,15.4174,2468.1567],[-90.7854,15.4018,1761.7434],[-90.7738,15.4096,1812.4048],[-90.7693,15.4393,2100.436],[-90.7717,15.452,1599.9104],[-90.761,15.5091,1610.0417],[-90.7731,15.5201,1484.9475],[-90.7917,15.5188,1562.0123],[-90.8058,15.5373,1091.7058],[-90.799,15.5613,824.0259],[-90.783,15.579,1041.5182],[-90.7698,15.6207,647.5569],[-90.7568,15.671,288.5872],[-90.7609,15.6711,243.5205],[-90.7681,15.678,352.9306],[-90.7751,15.6776,242.6125],[-90.7792,15.68,272.6703],[-90.7861,15.6794,265.8151],[-90.7907,15.6833,334.789],[-90.7907,15.6886,309.4379],[-90.7757,15.7042,218.1832],[-90.7702,15.7049,255.2532],[-90.7692,15.7067,330.5226],[-90.7805,15.7193,254.2182],[-90.792,15.7194,227.753],[-90.7948,15.7207,214.3049],[-90.7927,15.7254,210.9763],[-90.7806,15.7263,256.64],[-90.7766,15.7323,211.905],[-90.7782,15.7366,235.6786],[-90.7811,15.7386,218.0689],[-90.781,15.7419,215.2484],[-90.7848,15.7452,210.1711],[-90.794,15.7474,206.6589],[-90.8056,15.7427,205.2388],[-90.8174,15.7499,236.6492],[-90.8123,15.7527,219.6897],[-90.8082,15.7587,293.2365]]]]}
,"properties": {"GID_2": "GTM.14.20_1","GID_0": "GTM","country": "Guatemala","GID_1": "GTM.14_1","province": "Quiché","NL_NAME_1": "NA","county": "Uspantán","VARNAME_2": "NA","NL_NAME_2": "NA","TYPE_2": "Municipio","ENGTYPE_2": "Municipality","CC_2": "NA","HASC_2": "NA","name": "Uspantán.county","area_km2": 620.0789,"hist_schema_id": "Elevation0-9000","hist_area_km2": {"200": 3.306,"225": 4.8776,"250": 10.2244,"275": 12.7761,"300": 12.0009,"325": 10.0417,"350": 7.5926,"375": 6.3068,"400": 4.8577,"425": 3.6535,"450": 2.9188,"475": 2.776,"500": 5.5937,"525": 8.1256,"550": 5.1856,"575": 6.0232,"600": 6.1049,"625": 8.8206,"650": 8.6986,"675": 8.1271,"700": 9.6791,"725": 7.2696,"750": 7.3306,"775": 7.4123,"800": 6.3511,"825": 6.7403,"850": 6.7408,"875": 6.4957,"900": 6.9454,"925": 7.5992,"950": 7.6193,"975": 6.2109,"1000": 4.5777,"1025": 3.8427,"1050": 3.4145,"1075": 3.0669,"1100": 2.8831,"1125": 3.1288,"1150": 3.9671,"1175": 3.9876,"1200": 4.7244,"1225": 4.8672,"1250": 5.2968,"1275": 6.6055,"1300": 6.7285,"1325": 7.035,"1350": 7.0146,"1375": 6.6871,"1400": 6.7484,"1425": 6.9933,"1450": 6.6249,"1475": 7.0133,"1500": 6.3589,"1525": 6.6246,"1550": 6.4405,"1575": 5.8267,"1600": 6.3377,"1625": 6.5626,"1650": 6.6035,"1675": 7.2577,"1700": 7.8101,"1725": 8.7707,"1750": 9.8956,"1775": 10.6316,"1800": 9.6299,"1825": 9.9976,"1850": 10.6108,"1875": 10.9171,"1900": 9.0769,"1925": 7.9932,"1950": 6.8275,"1975": 7.461,"2000": 7.0109,"2025": 6.8679,"2050": 7.3992,"2075": 6.8881,"2100": 6.3569,"2125": 5.887,"2150": 6.2958,"2175": 7.1337,"2200": 6.9495,"2225": 7.3177,"2250": 7.3378,"2275": 6.7043,"2300": 5.2936,"2325": 5.3142,"2350": 5.8661,"2375": 5.0075,"2400": 4.3739,"2425": 4.7419,"2450": 4.7415,"2475": 3.127,"2500": 2.8818,"2525": 1.7577,"2550": 1.4103,"2575": 1.1445,"2600": 0.7767,"2625": 0.2044,"2650": 0.0409}}}