{"type":"Feature","properties":{"GID_2":"GTM.22.5_1","GID_0":"GTM","country":"Guatemala","GID_1":"GTM.22_1","province":"Zacapa","NL_NAME_1":"NA","county":"LaUnión","VARNAME_2":"NA","NL_NAME_2":"NA","TYPE_2":"Municipio","ENGTYPE_2":"Municipality","CC_2":"NA","HASC_2":"NA","name":"La_Unión.county"},
"geometry":{"type": "MultiPolygon","coordinates": [[[[-89.1765,14.9275,1100.4205],[-89.1726,14.9216,959.3378],[-89.1667,14.932,970.7561],[-89.1666,14.9352,984.3206],[-89.1695,14.9391,930.3754],[-89.1691,14.9422,1036.8752],[-89.1607,14.9474,934.96],[-89.156,14.9697,999.8535],[-89.1577,14.9715,997.6944],[-89.1516,14.9794,941.5598],[-89.1517,14.9846,1023.7345],[-89.1618,14.9866,1209.1072],[-89.1632,14.9929,1075.4358],[-89.1732,14.9961,1175.713],[-89.1733,15.0,1061.8159],[-89.1765,15.005,1028.3724],[-89.1939,15.0045,1220.0413],[-89.2193,15.008,951.0848],[-89.2298,15.0018,816.7609],[-89.2391,15.0006,651.9403],[-89.2468,15.0138,590.8735],[-89.2462,15.0186,531.0887],[-89.2551,15.0142,446.8277],[-89.2738,15.0106,609.4957],[-89.3036,15.0086,639.9968],[-89.3101,15.0167,583.2131],[-89.3125,15.0084,444.6531],[-89.3213,15.009,539.7213],[-89.3251,15.0037,692.6597],[-89.3258,14.998,610.1469],[-89.3241,14.9928,640.4771],[-89.32,14.9877,699.8712],[-89.3212,14.9826,760.3812],[-89.3387,14.9629,833.8925],[-89.3571,14.954,977.8965],[-89.3867,14.9303,1283.0076],[-89.3945,14.9153,1420.6687],[-89.3988,14.9018,1337.246],[-89.3744,14.8951,1492.9552],[-89.3456,14.9026,1317.7495],[-89.3147,14.9143,1117.8176],[-89.279,14.8965,929.4219],[-89.2538,14.9008,1062.4165],[-89.2179,14.9524,850.9832],[-89.2142,14.9505,873.8571],[-89.1958,14.9509,1021.9658],[-89.1826,14.9371,1052.7705],[-89.1765,14.9275,1100.4205]]]]}}