{"type": "Feature","bbox": [-89.992,15.1197,-89.611,15.4495],"geometry": {"type": "MultiPolygon","coordinates": [[[[-89.962,15.305,195.6253],[-89.9659,15.2978,296.8041],[-89.9648,15.2774,813.8647],[-89.9449,15.2739,754.7618],[-89.9384,15.2701,563.7027],[-89.9307,15.2536,316.1018],[-89.9302,15.2433,474.0228],[-89.9424,15.2111,805.4555],[-89.992,15.1419,1751.6917],[-89.9582,15.1542,2228.9958],[-89.9484,15.1456,2302.5593],[-89.935,15.1423,2592.1431],[-89.9199,15.1402,2603.1045],[-89.893,15.1403,2451.4644],[-89.8903,15.1441,2258.9321],[-89.8909,15.1499,2365.9658],[-89.8874,15.1521,2009.6187],[-89.8841,15.1481,2363.6255],[-89.8662,15.1474,2190.6692],[-89.8613,15.1605,2788.8948],[-89.844,15.1639,2730.6477],[-89.8351,15.1619,2755.1445],[-89.8192,15.1722,2647.3516],[-89.8113,15.1719,2623.8264],[-89.8033,15.1658,2732.0461],[-89.7938,15.1702,2706.7161],[-89.7843,15.1714,2520.3357],[-89.7775,15.1699,2270.4097],[-89.7665,15.1493,2473.7419],[-89.7521,15.1479,2576.2781],[-89.7462,15.1446,2754.2629],[-89.7331,15.1468,2746.7588],[-89.7223,15.1517,2704.2166],[-89.7145,15.1479,2320.9561],[-89.7041,15.1382,2441.1665],[-89.6894,15.139099999999999,2262.0994],[-89.6869,15.1377,2173.48],[-89.6776,15.1223,2092.0432],[-89.6661,15.1197,2097.335],[-89.6626,15.1225,1916.2114],[-89.6648,15.1301,1973.2942],[-89.6643,15.1385,1993.2319],[-89.6676,15.1449,2181.2517],[-89.6661,15.1485,2168.3181],[-89.6313,15.1614,2200.4404],[-89.6222,15.1566,2515.0681],[-89.611,15.1589,2447.1523],[-89.6119,15.1619,2514.574],[-89.6243,15.1753,1928.2128],[-89.6262,15.1798,1965.8229],[-89.6229,15.1899,1519.7922],[-89.626,15.203,1341.3423],[-89.6336,15.2153,1106.9993],[-89.6266,15.23,754.2134],[-89.6268,15.2353,689.3124],[-89.6207,15.2541,603.5236],[-89.6287,15.2665,634.0729],[-89.6279,15.2714,728.161],[-89.6235,15.2744,693.8684],[-89.6366,15.3673,11.8226],[-89.6356,15.3709,11.2421],[-89.6297,15.366,10.774],[-89.6282,15.3687,13.7714],[-89.631,15.3719,11.2158],[-89.6272,15.3762,9.4996],[-89.6335,15.3793,11.2598],[-89.6284,15.385,10.4892],[-89.6348,15.3856,10.5875],[-89.6309,15.4032,10.5798],[-89.6366,15.4124,31.8981],[-89.6385,15.4225,57.1277],[-89.6417,15.4261,143.6017],[-89.6446,15.4375,365.984],[-89.6401,15.4464,369.4344],[-89.6428,15.4495,434.4521],[-89.6499,15.4424,456.5208],[-89.6632,15.4223,227.9604],[-89.6833,15.3976,168.7967],[-89.6992,15.3902,90.3177],[-89.748,15.3749,378.0066],[-89.7507,15.3679,253.6166],[-89.758,15.3662,273.7501],[-89.7634,15.3546,414.4841],[-89.7691,15.3513,371.7004],[-89.8043,15.3476,589.9429],[-89.8202,15.3436,578.2294],[-89.8581,15.3425,530.5933],[-89.8838,15.3364,284.0555],[-89.8903,15.3326,400.9245],[-89.8941,15.3333,327.9556],[-89.8963,15.3316,286.4619],[-89.9043,15.3181,182.6679],[-89.9066,15.3172,198.52],[-89.9092,15.3213,299.373],[-89.9159,15.3187,224.552],[-89.9362,15.3218,364.6948],[-89.962,15.305,195.6253]]]]}
,"properties": {"GID_2": "GTM.1.6_1","GID_0": "GTM","country": "Guatemala","GID_1": "GTM.1_1","province": "AltaVerapaz","NL_NAME_1": "NA","county": "Panzós","VARNAME_2": "NA","NL_NAME_2": "NA","TYPE_2": "Municipio","ENGTYPE_2": "Municipality","CC_2": "NA","HASC_2": "NA","name": "Panzós.county","area_km2": 818.7066,"hist_schema_id": "Elevation0-9000","hist_area_km2": {"0": 7.4412,"25": 94.2848,"50": 26.0316,"75": 23.1274,"100": 19.8352,"125": 18.6701,"150": 17.055,"175": 15.746,"200": 15.9099,"225": 16.687,"250": 16.4621,"275": 16.6667,"300": 15.5831,"325": 15.481,"350": 14.3361,"375": 12.5979,"400": 12.0664,"425": 12.9463,"450": 10.5944,"475": 10.7378,"500": 10.0222,"525": 9.7974,"550": 9.0614,"575": 8.3866,"600": 8.0186,"625": 7.9574,"650": 7.446,"675": 8.1417,"700": 7.9781,"725": 8.4896,"750": 7.1396,"775": 7.8556,"800": 7.4055,"825": 7.4465,"850": 7.0579,"875": 6.6489,"900": 6.1579,"925": 7.4877,"950": 6.1375,"975": 6.3217,"1000": 6.1581,"1025": 6.69,"1050": 6.3832,"1075": 5.6672,"1100": 5.7286,"1125": 5.79,"1150": 5.3194,"1175": 6.0765,"1200": 5.2377,"1225": 5.7084,"1250": 4.9923,"1275": 4.9514,"1300": 5.3811,"1325": 4.9515,"1350": 4.5832,"1375": 4.6447,"1400": 4.8902,"1425": 4.9721,"1450": 4.9108,"1475": 5.1972,"1500": 4.8698,"1525": 4.9517,"1550": 5.2383,"1575": 4.8904,"1600": 4.9109,"1625": 4.4607,"1650": 4.5221,"1675": 4.7063,"1700": 4.0925,"1725": 4.5836,"1750": 4.645,"1775": 4.8087,"1800": 4.0107,"1825": 4.4813,"1850": 4.1335,"1875": 3.847,"1900": 3.8675,"1925": 3.9289,"1950": 4.0517,"1975": 4.2359,"2000": 3.622,"2025": 3.7244,"2050": 4.1337,"2075": 4.1747,"2100": 3.5403,"2125": 4.7068,"2150": 3.8268,"2175": 3.8882,"2200": 3.7449,"2225": 3.0287,"2250": 2.9059,"2275": 2.7832,"2300": 2.7832,"2325": 2.558,"2350": 2.2511,"2375": 1.7599,"2400": 1.9236,"2425": 1.678,"2450": 1.8008,"2475": 1.678,"2500": 1.6371,"2525": 1.719,"2550": 1.2892,"2575": 1.2688,"2600": 0.8595,"2625": 0.9618,"2650": 0.6958,"2675": 0.6344,"2700": 0.7572,"2725": 0.4093,"2750": 0.7981,"2775": 0.573,"2800": 0.4911,"2825": 0.4502,"2850": 0.2251,"2875": 0.2251,"2900": 0.2456,"2925": 0.0614,"2950": 0.1023,"2975": 0.0819,"3000": 0.0205}}}