{"type": "Feature","bbox": [-92.0517,14.8201,-91.9392,14.9343],"geometry": {"type": "MultiPolygon","coordinates": [[[[-92.0463,14.8201,264.7795],[-92.0236,14.8285,288.2767],[-92.0209,14.8258,339.963],[-92.0114,14.8275,352.0268],[-92.0003,14.8361,405.4208],[-91.9823,14.8743,658.2057],[-91.9768,14.8837,696.7155],[-91.9708,14.889099999999999,731.3236],[-91.963,14.9063,685.2887],[-91.9555,14.9138,692.0147],[-91.9438,14.9188,797.5281],[-91.9392,14.9237,781.2383],[-91.9425,14.9277,880.0368],[-91.9406,14.9343,966.4692],[-91.9586,14.9232,793.8323],[-92.0045,14.9129,485.1471],[-92.0144,14.9058,534.9969],[-92.019,14.9003,521.6716],[-92.0148,14.891,516.6741],[-92.0182,14.879,468.1488],[-92.0227,14.8754,449.7469],[-92.0334,14.8719,424.4783],[-92.0289,14.864,400.2325],[-92.0285,14.8466,356.1129],[-92.0303,14.841,329.3839],[-92.0369,14.8323,299.8951],[-92.0484,14.8315,235.2734],[-92.0517,14.8239,194.5014],[-92.0463,14.8201,264.7795]]]]}
,"properties": {"GID_2": "GTM.17.6_1","GID_0": "GTM","country": "Guatemala","GID_1": "GTM.17_1","province": "SanMarcos","NL_NAME_1": "NA","county": "ElRodeo","VARNAME_2": "NA","NL_NAME_2": "NA","TYPE_2": "Municipio","ENGTYPE_2": "Municipality","CC_2": "NA","HASC_2": "NA","name": "El_Rodeo.county","area_km2": 49.46644,"hist_schema_id": "Elevation0-9000","hist_area_km2": {"175": 0.08199,"200": 0.16397,"225": 0.28695,"250": 0.49191,"275": 0.81985,"300": 0.61488,"325": 0.81983,"350": 1.6396,"375": 2.50034,"400": 2.58228,"425": 2.58221,"450": 2.93054,"475": 2.58204,"500": 3.40166,"525": 3.15566,"550": 3.52438,"575": 3.29896,"600": 2.62271,"625": 2.78663,"650": 2.60218,"675": 2.31528,"700": 2.13084,"725": 1.53666,"750": 0.90149,"775": 0.57366,"800": 0.59415,"825": 0.40975,"850": 0.3278,"875": 0.38925,"900": 0.34828,"925": 0.20487,"950": 0.12292,"975": 0.06146,"1000": 0.02049,"1025": 0.04097}}}