{"type": "Feature","bbox": [-90.3022,13.9896,-90.2033,14.1061],"geometry": {"type": "MultiPolygon","coordinates": [[[[-90.2086,13.9896,143.6965],[-90.209,13.9994,198.9866],[-90.2033,14.0298,318.912],[-90.2067,14.0387,427.2717],[-90.228,14.046,277.1119],[-90.2272,14.0621,807.2629],[-90.2232,14.0812,845.8826],[-90.2321,14.0819,740.567],[-90.2368,14.0929,670.9842],[-90.244,14.0957,495.9221],[-90.2487,14.095,474.7435],[-90.2543,14.1034,429.3039],[-90.2758,14.1061,598.326],[-90.2917,14.1053,623.1675],[-90.2828,14.0976,429.6639],[-90.2837,14.0916,436.0401],[-90.2815,14.0895,426.2429],[-90.2804,14.0838,366.6386],[-90.2816,14.0787,312.6864],[-90.2893,14.0703,235.9597],[-90.2972,14.0513,192.7664],[-90.3022,14.0448,123.8266],[-90.2991,14.0382,114.0662],[-90.2997,14.0354,100.1959],[-90.2948,14.0282,83.6241],[-90.2962,14.0226,72.8945],[-90.2928,14.011,58.8834],[-90.2464,14.0043,348.7959],[-90.2294,14.0038,132.9499],[-90.22,13.9958,244.7926],[-90.2086,13.9896,143.6965]]]]}
,"properties": {"GID_2": "GTM.18.9_1","GID_0": "GTM","country": "Guatemala","GID_1": "GTM.18_1","province": "SantaRosa","NL_NAME_1": "NA","county": "SanJuanTecuaco","VARNAME_2": "NA","NL_NAME_2": "NA","TYPE_2": "Municipio","ENGTYPE_2": "Municipality","CC_2": "NA","HASC_2": "NA","name": "San_Juan_Tecuaco.county","area_km2": 84.12399,"hist_schema_id": "Elevation0-9000","hist_area_km2": {"50": 0.51428,"75": 3.47637,"100": 3.22944,"125": 3.76422,"150": 4.21672,"175": 4.97777,"200": 4.99835,"225": 4.2784,"250": 5.10117,"275": 5.14226,"300": 4.79253,"325": 4.1755,"350": 3.96969,"375": 4.29875,"400": 3.45536,"425": 3.33186,"450": 2.79707,"475": 2.24175,"500": 2.2006,"525": 1.87147,"550": 1.52186,"575": 1.74806,"600": 1.76859,"625": 1.13109,"650": 1.00768,"675": 0.8226,"700": 0.37019,"725": 0.47302,"750": 0.47301,"775": 0.49358,"800": 0.63755,"825": 0.45245,"850": 0.22622,"875": 0.1234,"900": 0.04113}}}