{"type": "Feature","bbox": [-91.1259,15.4275,-90.8538,15.8451],"geometry": {"type": "MultiPolygon","coordinates": [[[[-91.0995,15.8154,285.9011],[-91.091,15.8073,281.8176],[-91.0989,15.7918,326.1387],[-91.0763,15.7492,1239.5718],[-91.0748,15.7363,1091.855],[-91.0775,15.7315,1127.9475],[-91.072,15.7153,1293.8992],[-91.0782,15.6969,1481.2655],[-91.0793,15.6849,1561.7205],[-91.0835,15.6801,1236.4908],[-91.0809,15.6646,844.23],[-91.0757,15.6595,1040.6161],[-91.0794,15.6479,1287.6786],[-91.069,15.6339,1209.0759],[-91.0696,15.6223,1163.0276],[-91.0748,15.6201,1073.4546],[-91.0807,15.6026,1472.0684],[-91.0779,15.5939,1117.7034],[-91.0641,15.5875,1646.1735],[-91.0466,15.5881,1710.3601],[-91.0358,15.5696,2459.9656],[-91.0255,15.5698,2419.4104],[-91.026,15.5648,2584.9482],[-91.0347,15.5412,2509.1941],[-91.0193,15.5344,2562.104],[-91.0189,15.5228,2347.5771],[-91.0156,15.5101,2275.5007],[-91.0469,15.4968,2261.0613],[-91.0546,15.4806,2202.6113],[-91.0632,15.475,2024.0265],[-91.0803,15.4694,2072.436],[-91.0897,15.4722,2115.436],[-91.1054,15.4612,2071.3296],[-91.1259,15.4337,1894.2249],[-91.1252,15.4275,2016.52],[-91.1211,15.4297,1919.0872],[-91.1083,15.4441,2205.752],[-91.0966,15.4469,2050.0854],[-91.0784,15.4473,2010.8488],[-91.0136,15.458,1657.2277],[-91.0033,15.4509,1667.8977],[-90.9781,15.453,1444.9756],[-90.9678,15.4574,1426.7306],[-90.9574,15.4551,1261.1688],[-90.9445,15.4645,1394.9237],[-90.9291,15.4625,1219.8263],[-90.9096,15.463,1084.0364],[-90.8659,15.4874,1230.9821],[-90.8589,15.5368,1344.6602],[-90.8538,15.5491,1061.3458],[-90.8575,15.5624,1137.0319],[-90.8573,15.5891,625.9608],[-90.8625,15.6316,682.5308],[-90.8662,15.648,654.8235],[-90.8638,15.6684,1040.2524],[-90.8696,15.6929,290.6642],[-90.8669,15.7266,768.2847],[-90.8701,15.769,266.955],[-90.8994,15.7755,332.334],[-90.9284,15.778,264.0449],[-90.951,15.7827,209.1265],[-91.0458,15.7922,245.987],[-91.0553,15.8137,259.6062],[-91.0536,15.8363,256.562],[-91.0658,15.8422,265.6277],[-91.0807,15.8451,303.3654],[-91.0995,15.8154,285.9011]]]]}
,"properties": {"GID_2": "GTM.14.2_1","GID_0": "GTM","country": "Guatemala","GID_1": "GTM.14_1","province": "Quiché","NL_NAME_1": "NA","county": "Chajul","VARNAME_2": "NA","NL_NAME_2": "NA","TYPE_2": "Municipio","ENGTYPE_2": "Municipality","CC_2": "NA","HASC_2": "NA","name": "Chajul.county","area_km2": 801.9165,"hist_schema_id": "Elevation0-9000","hist_area_km2": {"200": 4.7132,"225": 9.8143,"250": 17.3015,"275": 25.4623,"300": 22.0978,"325": 17.5283,"350": 15.0188,"375": 12.7541,"400": 11.9384,"425": 9.7143,"450": 7.8778,"475": 7.7556,"500": 5.3679,"525": 5.062,"550": 4.3683,"575": 3.5316,"600": 3.94,"625": 4.4302,"650": 5.9822,"675": 6.0844,"700": 6.4724,"725": 8.3305,"750": 8.0042,"775": 7.167,"800": 5.9828,"825": 6.6363,"850": 6.4322,"875": 6.6568,"900": 6.2893,"925": 6.7386,"950": 6.9426,"975": 7.412,"1000": 8.1671,"1025": 8.453,"1050": 10.1063,"1075": 11.6171,"1100": 12.434,"1125": 13.373,"1150": 13.7198,"1175": 13.4953,"1200": 14.659,"1225": 13.8225,"1250": 13.8633,"1275": 13.9858,"1300": 14.0674,"1325": 13.3529,"1350": 13.3943,"1375": 11.6593,"1400": 10.8637,"1425": 10.476,"1450": 11.8034,"1475": 10.762,"1500": 11.783,"1525": 10.4148,"1550": 10.2723,"1575": 10.2314,"1600": 9.2717,"1625": 8.8023,"1650": 8.6185,"1675": 8.5166,"1700": 7.6792,"1725": 7.8839,"1750": 7.6797,"1775": 8.5994,"1800": 8.5998,"1825": 8.9674,"1850": 8.7432,"1875": 9.111,"1900": 8.8456,"1925": 8.7640999999999991,"1950": 9.3366,"1975": 8.7643,"2000": 7.8039,"2025": 7.5384,"2050": 8.4987,"2075": 7.1707,"2100": 6.9049,"2125": 6.0467,"2150": 6.067,"2175": 5.4336,"2200": 3.6358,"2225": 3.5132,"2250": 3.6766,"2275": 2.6144,"2300": 2.3897,"2325": 2.2058,"2350": 2.6961,"2375": 2.1856,"2400": 2.1651,"2425": 1.6953,"2450": 2.1243,"2475": 1.6954,"2500": 1.5932,"2525": 1.3685,"2550": 1.3481,"2575": 1.0417,"2600": 0.8987,"2625": 0.5515,"2650": 0.2655,"2675": 0.0204}}}