{"type": "Feature","bbox": [-90.4959,14.5864,-90.4716,14.6325],"geometry": {"type": "MultiPolygon","coordinates": [[[[-90.4718,14.5935,1601.9607],[-90.4716,14.6024,1598.5359],[-90.4752,14.6093,1566.4485],[-90.4771,14.6262,1520.7268],[-90.4792,14.6312,1481.0637],[-90.4853,14.6325,1467.3129],[-90.4888,14.63,1470.9707],[-90.4947,14.6197,1462.2615],[-90.4943,14.6143,1478.6718],[-90.4959,14.6092,1462.553],[-90.4914,14.6051,1500.4668],[-90.4892,14.6004,1493.1622],[-90.4921,14.5994,1509.463],[-90.493,14.5972,1516.1812],[-90.4898,14.5963,1510.0415],[-90.4887,14.5931,1548.8267],[-90.4841,14.5888,1545.3507],[-90.4764,14.5864,1639.145],[-90.4753,14.5927,1603.6434],[-90.4718,14.5935,1601.9607]]]]}
,"properties": {"GID_2": "GTM.7.24_1","GID_0": "GTM","country": "Guatemala","GID_1": "GTM.7_1","province": "Guatemala","NL_NAME_1": "NA","county": "ZONA16","VARNAME_2": "NA","NL_NAME_2": "NA","TYPE_2": "Municipio","ENGTYPE_2": "Municipality","CC_2": "NA","HASC_2": "NA","name": "Z_O_N_A16.county","area_km2": 8.678558,"hist_schema_id": "Elevation0-9000","hist_area_km2": {"1425": 0.512881,"1450": 0.800108,"1475": 1.949,"1500": 1.620807,"1525": 1.087416,"1550": 0.882264,"1575": 1.046403,"1600": 0.677089,"1625": 0.10259}}}