{"type":"Feature","properties":{"ISO3166-1-Alpha-3":"GTM","country":"Guatemala","fill":"#00F","id":"1955","name":"Totonicapán"},
"geometry":{"type": "Polygon","coordinates": [[[-91.31535,15.26315,1676.0414],[-91.34111,15.26491,1733.3008],[-91.35279,15.26282,1815.9517],[-91.37692,15.25233,2020.7939],[-91.39248,15.24124,1842.2526],[-91.43581,15.2315,1644.6783],[-91.44578,15.22879,1723.2173],[-91.45082,15.22638,1739.1919],[-91.45439,15.22269,1719.582],[-91.46756,15.20388,1767.9656],[-91.47351,15.19266,1755.8223],[-91.4742,15.19,1736.3652],[-91.47645,15.16486,1902.8007],[-91.47705,15.16181,1849.6449],[-91.48141,15.15939,1964.5178],[-91.48519,15.15773,1960.8008],[-91.51883,15.15597,2058.282],[-91.53632,15.15045,2199.3989],[-91.58748,15.13101,2286.6392],[-91.5897,15.12988,2256.052],[-91.59187,15.12848,2309.9143],[-91.59389,15.12027,2532.6946],[-91.58877,15.09143,2934.2837],[-91.56415,15.00053,2718.4448],[-91.56022,14.98591,2669.5728],[-91.55273,14.97624,2687.804],[-91.53604,14.96162,2639.0811],[-91.53629,14.94994,2631.3477],[-91.53833,14.94457,2670.7998],[-91.53841,14.93836,2770.3384],[-91.5365,14.93165,2768.6465],[-91.52061,14.91351,2773.0151],[-91.51934,14.91139,2760.6802],[-91.51782,14.90932,2763.1538],[-91.51108,14.90715,2765.8113],[-91.49165,14.90932,2803.2351],[-91.47048,14.91015,2415.9512],[-91.46188,14.89067,2388.2649],[-91.45886,14.8607,2388.3896],[-91.44798,14.85098,2399.8855],[-91.42829,14.81765,2531.4277],[-91.42441,14.82106,2617.0935],[-91.37871,14.85878,2678.188],[-91.36997,14.86168,2753.3872],[-91.35814,14.86328,3043.3833],[-91.33509,14.85987,2850.1182],[-91.32592,14.85734,2585.2917],[-91.32021,14.85486,2521.9436],[-91.31305,14.85403,2647.8667],[-91.29246,14.86261,2974.7583],[-91.27869,14.86261,2969.7971],[-91.27166,14.86137,2941.8352],[-91.25574,14.85625,2886.1138],[-91.25264,14.85584,2890.3977],[-91.2461,14.85568,2873.8774],[-91.24065,14.85672,3024.658],[-91.22962,14.86002,3288.041],[-91.21585,14.87325,3027.6814],[-91.20257,14.89175,2743.8564],[-91.18298,14.91067,2340.6436],[-91.21469,14.93485,2388.9692],[-91.21249,14.94116,2441.8022],[-91.20693,14.95774,2300.8845],[-91.20724,14.964,2311.8972],[-91.21016,14.96958,2317.6924],[-91.2266,14.98074,2242.8933],[-91.23355,14.99149,2086.127],[-91.23822,15.00937,2056.5476],[-91.24099,15.01448,2034.5308],[-91.243,15.01743,2039.692],[-91.26078,15.0304,1990.5465],[-91.27148,15.03707,1900.2344],[-91.27318,15.03893,1994.6428],[-91.27442,15.0413,2009.6929],[-91.27486,15.0443,1903.6499],[-91.27502,15.0474,1913.4106],[-91.27424,15.05515,1970.1145],[-91.27187,15.06172,1936.663],[-91.26853,15.06642,1913.8971],[-91.26047,15.07257,1958.8533],[-91.25543,15.07469,1885.3538],[-91.25114,15.07572,1901.1935],[-91.24068,15.07593,1926.2401],[-91.23776,15.07805,1982.1981],[-91.23541,15.08192,1915.606],[-91.2345,15.09205,1867.3232],[-91.23455,15.09722,1801.7828],[-91.24081,15.10848,1763.6497],[-91.24773,15.11071,1749.1279],[-91.24913,15.12456,1792.2283],[-91.25887,15.13804,1720.9254],[-91.2638,15.15758,1714.9287],[-91.27068,15.16047,1654.3608],[-91.29853,15.18825,1650.3071],[-91.30166,15.19512,1659.0812],[-91.3152,15.20163,1620.7219],[-91.32016,15.21708,1571.7726],[-91.32,15.23522,1702.6893],[-91.31535,15.26315,1676.0414]]]}}