{"type": "Feature","bbox": [-91.5573,14.821,-91.175299999999993,15.2494],"geometry": {"type": "MultiPolygon","coordinates": [[[[-91.5051,14.8933,2416.7517],[-91.4945,14.8781,2348.8403],[-91.4826,14.8782,2354.6306],[-91.4745,14.8844,2386.3257],[-91.4731,14.8888,2391.2026],[-91.4762,14.8938,2393.5425],[-91.4633,14.8986,2379.3032],[-91.4585,14.8992,2339.8215],[-91.4514,14.8952,2323.5444],[-91.4365,14.8905,2394.291],[-91.4368,14.8729,2390.5193],[-91.4407,14.8572,2395.5239],[-91.42,14.845,2491.8325],[-91.4036,14.821,3197.6978],[-91.3629,14.8477,2989.0737],[-91.3627,14.8512,2987.675],[-91.3478,14.8644,2970.2808],[-91.2977,14.8676,2910.2776],[-91.2869,14.8588,2929.2275],[-91.2731,14.8584,2946.897],[-91.2626,14.8412,2929.2957],[-91.2459,14.8488,2794.7158],[-91.2146,14.8573,3068.3533],[-91.211,14.8717,2912.7202],[-91.2063,14.8795,2821.2544],[-91.175299999999993,14.8934,2759.7124],[-91.224,14.9416,2409.3506],[-91.2387,14.9452,2374.0303],[-91.2412,14.9643,2152.675],[-91.2325,14.9768,2169.1978],[-91.237,14.9851,2142.3054],[-91.2547,14.9798,2164.8149],[-91.2628,14.9953,2151.5054],[-91.2643,15.001,2182.0918],[-91.2637,15.0217,2106.178],[-91.2718,15.0354,1902.9803],[-91.2639,15.0496,1984.5685],[-91.2581,15.125,1762.104],[-91.2534,15.1235,1729.9269],[-91.2514,15.115,1739.7871],[-91.2488,15.1109,1749.1279],[-91.2253,15.1031,1848.8737],[-91.2141,15.1001,1998.8612],[-91.205,15.111,1920.2888],[-91.2063,15.1127,1926.7764],[-91.2232,15.1189,1891.3887],[-91.2282,15.1226,1834.4935],[-91.2348,15.1312,1809.9274],[-91.236,15.1369,1822.0203],[-91.2387,15.1372,1828.8088],[-91.2411,15.1426,1819.694],[-91.2524,15.1445,1822.99],[-91.2542,15.1526,1779.2963],[-91.2586,15.1552,1812.6157],[-91.2627,15.1613,1741.9327],[-91.2669,15.1614,1736.6791],[-91.2694,15.1582,1798.9906],[-91.2849,15.1633,1743.7227],[-91.2903,15.1679,1637.999],[-91.2919,15.1729,1629.0836],[-91.2971,15.1766,1628.6907],[-91.2992,15.1872,1606.2522],[-91.3022,15.1879,1672.0713],[-91.3089,15.1948,1616.7427],[-91.3095,15.1992,1602.0074],[-91.3187,15.2008,1611.5403],[-91.3171,15.2092,1575.8234],[-91.3208,15.2128,1585.6962],[-91.3179,15.22,1573.4706],[-91.3171,15.2277,1650.113],[-91.3144,15.2305,1571.1384],[-91.3145,15.2357,1589.3333],[-91.3108,15.244,1569.3014],[-91.3198,15.2494,1517.8359],[-91.3276,15.2343,1569.1865],[-91.3401,15.2331,1654.5209],[-91.343,15.2344,1643.0432],[-91.347,15.2315,1642.7617],[-91.3551,15.2296,1639.1677],[-91.3613,15.2261,1614.38],[-91.3721,15.2126,1660.4978],[-91.3815,15.2107,1612.1967],[-91.3882,15.1373,1767.527],[-91.4662,15.134,2031.7045],[-91.5115,15.1455,2084.0],[-91.5485,15.1114,2628.4004],[-91.5401,14.9758,2626.3999],[-91.5334,14.971,2602.4851],[-91.5324,14.9644,2599.3628],[-91.5342,14.9608,2626.2966],[-91.5327,14.9581,2634.4861],[-91.5573,14.9382,2825.3225],[-91.5248,14.9461,2702.917],[-91.5236,14.9319,2732.7932],[-91.5175,14.9229,2698.1208],[-91.5156,14.9155,2727.8386],[-91.5051,14.8933,2416.7517]]]]}
,"properties": {"GID_1": "GTM.21_1","GID_0": "GTM","country": "Guatemala","province": "Totonicapán","VARNAME_1": "NA","NL_NAME_1": "NA","TYPE_1": "Departamento","ENGTYPE_1": "Department","CC_1": "NA","HASC_1": "GT.TO","ISO_1": "NA","name": "Totonicapán.province","area_km2": 1080.9561,"hist_schema_id": "Elevation0-9000","hist_area_km2": {"1500": 0.0205,"1525": 0.1023,"1550": 0.5114,"1575": 1.5344,"1600": 2.0459,"1625": 3.1917,"1650": 6.1789,"1675": 9.4324,"1700": 12.9318,"1725": 15.2447,"1750": 14.6316,"1775": 16.4334,"1800": 20.0161,"1825": 21.3269,"1850": 24.3572,"1875": 23.5194,"1900": 24.0525,"1925": 22.2725,"1950": 20.1033,"1975": 18.3228,"2000": 15.8664,"2025": 15.6416,"2050": 16.7474,"2075": 16.5631,"2100": 18.1401,"2125": 18.3044,"2150": 17.3631,"2175": 15.6843,"2200": 17.4458,"2225": 16.8727,"2250": 15.5212,"2275": 14.6415,"2300": 14.785,"2325": 15.073,"2350": 19.6009,"2375": 20.0931,"2400": 24.6843,"2425": 20.1764,"2450": 20.9549,"2475": 19.5006,"2500": 18.169,"2525": 18.5175,"2550": 18.9676,"2575": 22.2244,"2600": 28.5325,"2625": 29.434,"2650": 30.5812,"2675": 28.7993,"2700": 26.3014,"2725": 23.6181,"2750": 19.5826,"2775": 19.0085,"2800": 18.5579,"2825": 18.3326,"2850": 15.5264,"2875": 14.0729,"2900": 14.6471,"2925": 13.8076,"2950": 12.9887,"2975": 12.8664,"3000": 9.8958,"3025": 8.1342,"3050": 6.8437,"3075": 5.9216,"3100": 5.2251,"3125": 4.9588,"3150": 5.9015,"3175": 5.0612,"3200": 4.3235,"3225": 3.5448,"3250": 3.1145,"3275": 2.008,"3300": 1.1884,"3325": 0.2664,"3350": 0.0615,"3375": 0.082}}}