{"type": "Feature","bbox": [-90.8174,15.1197,-89.4063,16.0741],"geometry": {"type": "MultiPolygon","coordinates": [[[[-89.6042,15.5026,269.6172],[-89.6615,15.5662,387.8179],[-89.5508,15.7084,199.8507],[-89.5467,15.7107,196.6194],[-89.544,15.7146,232.5255],[-89.5475,15.7206,188.5557],[-89.5438,15.7231,198.1764],[-89.5438,15.7281,237.0271],[-89.5407,15.7311,217.3428],[-89.5405,15.7367,155.1572],[-89.536,15.739,154.4411],[-89.5412,15.7534,188.2772],[-89.5394,15.7571,173.3554],[-89.5317,15.7626,154.5592],[-89.5292,15.7699,169.4462],[-89.525,15.7674,149.6431],[-89.5217,15.7714,165.6685],[-89.5211,15.7701,158.5154],[-89.5175,15.7705,171.3175],[-89.5166,15.7689,162.1153],[-89.5139,15.7709,156.5393],[-89.5126,15.7686,142.6091],[-89.5071,15.7698,165.8948],[-89.5037,15.7709,142.9205],[-89.495,15.7817,154.9067],[-89.4919,15.7824,212.2603],[-89.4868,15.7794,131.6371],[-89.4823,15.7822,136.6275],[-89.4813,15.7852,170.0515],[-89.4778,15.7844,129.9917],[-89.4741,15.7859,142.6671],[-89.4725,15.7904,225.2609],[-89.476,15.7984,164.3858],[-89.4732,15.8057,139.052],[-89.4774,15.8076,136.7826],[-89.4757,15.8146,118.2246],[-89.473,15.8154,124.4371],[-89.47,15.8134,112.6555],[-89.4671,15.8155,123.8776],[-89.4644,15.8149,114.9063],[-89.4633,15.8128,175.8559],[-89.451,15.8184,129.9708],[-89.4422,15.8167,89.9449],[-89.434,15.8213,91.8432],[-89.4313,15.8253,89.0334],[-89.4258,15.8248,89.6851],[-89.4233,15.8311,93.796],[-89.4145,15.8332,88.6679],[-89.4132,15.835,88.2357],[-89.4172,15.8387,90.0101],[-89.4129,15.8497,86.5254],[-89.4102,15.8509,87.895],[-89.4076,15.8491,91.3901],[-89.4063,15.8522,86.2597],[-89.4099,15.8569,88.7676],[-89.4101,15.8608,87.4552],[-89.4135,15.8629,87.9073],[-89.4195,15.8636,89.2862],[-89.4382,15.8578,91.9242],[-89.4391,15.8545,94.3907],[-89.4513,15.8514,113.3036],[-89.4583,15.855,131.307],[-89.4625,15.8654,133.7548],[-89.4762,15.8644,136.5987],[-89.4818,15.8604,135.6204],[-89.4812,15.8576,135.5628],[-89.4886,15.8576,136.1869],[-89.4895,15.855,136.8445],[-89.4976,15.8509,141.7971],[-89.4973,15.9442,293.7911],[-89.5372,15.9418,346.6929],[-89.5452,15.9369,281.3825],[-89.5513,15.9356,291.7401],[-89.5605,15.9342,290.8539],[-89.5894,15.9341,253.9993],[-89.602,15.9289,235.1017],[-89.6356,15.931,234.2345],[-89.6688,15.94,196.916],[-89.6942,15.9571,181.8078],[-89.7048,15.9676,186.1062],[-89.7069,15.9643,169.5069],[-89.7109,15.9666,168.8582],[-89.721,15.9677,167.4549],[-89.7386,15.9563,169.1807],[-89.7382,15.9442,187.5393],[-89.743,15.9427,163.1259],[-89.747,15.9343,169.8189],[-89.7518,15.9322,159.2901],[-89.752,15.9271,158.5443],[-89.7625,15.9213,149.1602],[-89.7692,15.9249,148.7915],[-89.7739,15.9218,157.1791],[-89.7793,15.9227,147.2861],[-89.7805,15.9181,150.3839],[-89.7853,15.9191,147.0817],[-89.7891,15.9106,153.0863],[-89.8183,15.9115,142.4908],[-89.8239,15.9068,143.2043],[-89.8276,15.9089,142.5364],[-89.834,15.9074,141.3706],[-89.8357,15.9098,141.6278],[-89.8397,15.9107,141.2641],[-89.8514,15.9051,141.0921],[-89.8566,15.9091,140.968],[-89.8585,15.9133,141.552],[-89.8641,15.9189,143.2261],[-89.8612,15.9276,143.8147],[-89.8648,15.9342,137.5945],[-89.87,15.9337,140.8282],[-89.8798,15.9381,143.8142],[-89.8772,15.9427,164.2881],[-89.8789,15.9469,149.8001],[-89.8878,15.9488,152.8632],[-89.8815,15.9529,153.0444],[-89.887,15.9659,150.3461],[-89.8907,15.9669,139.2151],[-89.8928,15.9648,143.0681],[-89.8919,15.9578,152.8241],[-89.8994,15.9552,143.4429],[-89.8996,15.9613,147.2269],[-89.9029,15.9622,148.9825],[-89.9062,15.9608,141.5622],[-89.9081,15.9628,139.6453],[-89.909,15.9696,164.4839],[-89.9122,15.9702,153.6655],[-89.9159,15.9679,140.2597],[-89.9202,15.972,145.8582],[-89.9257,15.9726,144.5744],[-89.9299,15.9659,145.2552],[-89.9317,15.9687,137.0046],[-89.9314,15.9724,142.4378],[-89.9388,15.9687,140.7341],[-89.9409,15.97,139.3749],[-89.9395,15.9733,145.3297],[-89.9415,15.9775,151.3019],[-89.953,15.9787,135.4428],[-89.9523,15.9875,149.6717],[-89.9491,15.9885,148.2301],[-89.9471,15.9914,150.1237],[-89.9476,15.9942,138.9138],[-89.9576,15.9901,134.7168],[-89.9583,15.9933,143.8062],[-89.9531,16.002,141.1821],[-89.9549,16.0061,142.049],[-89.9723,16.0116,144.4024],[-89.9731,16.0171,143.9175],[-89.9771,16.0163,145.2941],[-89.9808,16.0095,140.8493],[-89.9752,16.009,143.9994],[-89.9746,16.0073,130.6147],[-89.9755,16.0034,143.2478],[-89.974,15.9975,148.6932],[-89.9776,15.9944,152.1572],[-89.9839,15.9988,130.1132],[-89.9908,16.0002,129.8804],[-90.0006,15.9974,133.1861],[-90.0091,15.9916,131.6803],[-90.0138,15.9945,127.3578],[-90.0083,15.9994,137.9884],[-90.0154,16.0084,125.9697],[-90.027,16.0066,131.6264],[-90.0351,16.0118,126.8105],[-90.0394,16.0086,127.5452],[-90.0356,15.9983,142.4489],[-90.0408,15.9902,141.0532],[-90.2229,16.0473,177.2918],[-90.4392,16.0741,131.3494],[-90.435,16.0656,131.464],[-90.4308,16.0636,128.0],[-90.4186,16.0676,131.3112],[-90.4161,16.0641,142.0719],[-90.4244,16.057,131.9106],[-90.4282,16.0518,130.5666],[-90.4294,16.0469,132.8378],[-90.4409,16.0436,129.0],[-90.4417,16.0408,129.0],[-90.4374,16.0393,131.5802],[-90.429,16.0414,136.8346],[-90.4231,16.0345,133.2216],[-90.4229,16.0234,141.2455],[-90.4359,16.0294,133.6377],[-90.4383,16.0275,133.746],[-90.4415,16.0171,136.4298],[-90.455,16.0152,133.71],[-90.4641,16.0063,130.5],[-90.4718,16.0059,135.4379],[-90.4712,16.0087,134.0121],[-90.4738,16.0144,134.0032],[-90.4781,16.0164,134.9051],[-90.4869,16.0135,135.3907],[-90.4911,15.9913,139.051],[-90.4998,15.9847,138.4426],[-90.5018,15.9879,134.3254],[-90.5042,15.9865,132.9221],[-90.5058,15.9831,141.1792],[-90.506,15.9874,132.8991],[-90.502,15.9894,140.0667],[-90.4956,15.9979,132.0],[-90.4984,15.9994,136.2665],[-90.5065,15.9929,134.36],[-90.5098,15.9948,137.0323],[-90.5162,15.9945,135.3296],[-90.5153,16.0026,137.1828],[-90.5187,16.0048,137.0995],[-90.5234,15.9968,137.1079],[-90.5254,15.9981,138.4796],[-90.5251,16.001,139.0266],[-90.5288,16.0043,138.5001],[-90.5327,16.0027,138.3777],[-90.5332,15.9987,138.6864],[-90.5383,15.9976,137.8351],[-90.5458,16.0065,140.1279],[-90.5482,16.0063,138.0607],[-90.5502,16.0039,142.3624],[-90.5487,15.9988,140.3765],[-90.5562,15.9928,139.8357],[-90.5601,15.9944,138.4008],[-90.5585,15.9982,138.8783],[-90.5607,16.0001,139.6898],[-90.5677,15.9955,137.0],[-90.572,15.996,137.4427],[-90.5741,16.0095,140.9834],[-90.5835,16.0152,139.7649],[-90.6043,16.0134,142.8136],[-90.6072,16.0166,143.2083],[-90.5973,16.0196,143.5451],[-90.5926,16.0232,144.1055],[-90.5951,16.0358,185.8565],[-90.6103,16.0245,161.5573],[-90.6152,16.0244,145.976],[-90.6286,16.0399,156.6472],[-90.6342,16.0404,148.1475],[-90.6426,16.037,159.771],[-90.6516,16.04,143.0],[-90.6541,16.0363,183.2329],[-90.6645,16.0386,155.7332],[-90.6706,16.0309,178.873],[-90.681,16.0227,146.5],[-90.6918,16.0194,151.426],[-90.6991,16.021,166.3215],[-90.6985,16.0164,151.9258],[-90.691,16.0084,174.7362],[-90.6883,15.9962,182.2647],[-90.7004,15.9968,154.4182],[-90.7028,15.9946,152.0278],[-90.7029,15.9893,152.4886],[-90.6973,15.9802,180.9104],[-90.6993,15.9753,182.3601],[-90.7039,15.9737,187.2705],[-90.7101,15.9756,154.9567],[-90.7111,15.9798,156.1833],[-90.7205,15.9847,160.9076],[-90.7279,15.9852,156.5699],[-90.7307,15.9831,157.0336],[-90.7321,15.9787,157.9159],[-90.7311,15.9734,170.1225],[-90.7336,15.9691,185.5974],[-90.7441,15.9691,162.2415],[-90.7544,15.9588,159.1181],[-90.7532,15.955,156.5184],[-90.7446,15.951,166.0822],[-90.7426,15.9462,160.2087],[-90.7387,15.9449,160.7315],[-90.7339,15.9474,157.5],[-90.7294,15.943,164.7854],[-90.7294,15.9371,179.4717],[-90.7337,15.9269,179.762],[-90.746,15.9229,161.2102],[-90.7487,15.9199,164.356],[-90.7472,15.9032,193.6005],[-90.7531,15.894,167.5231],[-90.7543,15.8889,168.3535],[-90.7519,15.8862,168.1247],[-90.741,15.8868,198.1777],[-90.7353,15.8853,205.0225],[-90.7326,15.8823,208.1387],[-90.7351,15.8718,196.8373],[-90.7259,15.8651,199.6132],[-90.74,15.8444,210.4264],[-90.7444,15.8418,193.6264],[-90.7472,15.8372,199.2716],[-90.7566,15.8379,195.6002],[-90.7677,15.827,206.8244],[-90.7687,15.8184,223.6502],[-90.7745,15.816,182.9749],[-90.7791,15.8089,196.6407],[-90.7782,15.8037,234.3637],[-90.7747,15.8008,260.1265],[-90.7803,15.7919,217.1838],[-90.7855,15.7916,200.0862],[-90.7852,15.7882,193.925],[-90.7903,15.7838,205.9649],[-90.7923,15.7774,255.1575],[-90.7948,15.775,223.2624],[-90.8046,15.7729,199.1329],[-90.8082,15.7587,293.2365],[-90.8123,15.7527,219.6897],[-90.8174,15.7499,236.6492],[-90.8056,15.7427,205.2388],[-90.794,15.7474,206.6589],[-90.7848,15.7452,210.1711],[-90.781,15.7419,215.2484],[-90.7811,15.7386,218.0689],[-90.7782,15.7366,235.6786],[-90.7766,15.7323,211.905],[-90.7806,15.7263,256.64],[-90.7927,15.7254,210.9763],[-90.7948,15.7207,214.3049],[-90.792,15.7194,227.753],[-90.7805,15.7193,254.2182],[-90.7692,15.7067,330.5226],[-90.7702,15.7049,255.2532],[-90.7757,15.7042,218.1832],[-90.7907,15.6886,309.4379],[-90.7907,15.6833,334.789],[-90.7891,15.6811,320.69],[-90.7861,15.6794,265.8151],[-90.7792,15.68,272.6703],[-90.7751,15.6776,242.6125],[-90.7681,15.678,352.9306],[-90.7609,15.6711,243.5205],[-90.6927,15.6536,306.2899],[-90.6915,15.6516,294.3313],[-90.6541,15.6487,257.8641],[-90.6576,15.6436,262.9958],[-90.6558,15.6385,264.9788],[-90.6484,15.6379,271.1436],[-90.6425,15.6325,346.7939],[-90.6434,15.6236,500.6143],[-90.6413,15.6192,370.7495],[-90.6354,15.6168,542.2527],[-90.635,15.6126,291.3517],[-90.6292,15.6101,278.2296],[-90.6291,15.5963,282.791],[-90.633,15.5919,330.6452],[-90.6388,15.5907,376.3618],[-90.6419,15.5853,342.8319],[-90.6324,15.5773,433.1817],[-90.6198,15.5733,445.6819],[-90.6175,15.5648,453.9346],[-90.6124,15.5563,316.8856],[-90.6099,15.5441,324.4287],[-90.6073,15.5402,404.2923],[-90.6039,15.5164,310.1562],[-90.6052,15.5119,371.8373],[-90.6031,15.507,388.7356],[-90.6084,15.4975,472.386],[-90.6163,15.498,419.6889],[-90.625,15.4855,661.6917],[-90.634,15.4827,717.2682],[-90.646,15.4637,801.0117],[-90.6459,15.4455,680.7169],[-90.6552,15.4337,1062.6815],[-90.6629,15.4314,886.9447],[-90.6674,15.4353,543.7993],[-90.672,15.4367,589.4436],[-90.6992,15.4405,523.8611],[-90.6993,15.4376,670.2936],[-90.704,15.429,1125.8789],[-90.7116,15.4204,902.8625],[-90.7127,15.4141,646.5295],[-90.7094,15.4119,767.415],[-90.7115,15.4008,740.6427],[-90.708,15.3838,637.1313],[-90.7029,15.3805,691.7358],[-90.7021,15.3773,566.6108],[-90.6942,15.3719,755.1345],[-90.6913,15.3632,771.3132],[-90.6798,15.359,656.8081],[-90.6745,15.3593,619.4191],[-90.6661,15.3542,835.1277],[-90.6559,15.3548,587.5032],[-90.6455,15.3469,845.4229],[-90.6244,15.3459,627.0426],[-90.6084,15.3399,952.9136],[-90.6018,15.3408,746.213],[-90.5955,15.3394,887.1432],[-90.5933,15.3421,718.5914],[-90.5864,15.3409,803.3554],[-90.5821,15.3426,686.7762],[-90.5764,15.3401,884.7673],[-90.5679,15.3395,777.813],[-90.5633,15.3412,644.0347],[-90.5561,15.3372,806.4232],[-90.552,15.3389,743.7488],[-90.5449,15.3378,805.1891],[-90.5291,15.3394,747.0662],[-90.5107,15.3355,720.0165],[-90.5053,15.3306,828.422],[-90.4994,15.3326,729.5953],[-90.4802,15.3221,878.0152],[-90.4759,15.3019,877.0857],[-90.4838,15.2898,1044.3302],[-90.4849,15.2832,1252.8912],[-90.4755,15.2843,1467.894],[-90.455,15.2811,1480.053],[-90.4423,15.2826,1362.8665],[-90.4239,15.2814,1592.9423],[-90.4202,15.2798,1459.6716],[-90.4168,15.2828,1681.381],[-90.407,15.2793,1539.7173],[-90.4031,15.2796,1674.9203],[-90.4003,15.2759,1549.072],[-90.4035,15.2724,1590.2294],[-90.4029,15.2693,1567.7505],[-90.3684,15.2557,1144.7183],[-90.3487,15.2407,1214.3721],[-90.335,15.2262,1537.9561],[-90.331,15.226,1578.0061],[-90.3284,15.23,1426.5171],[-90.3279,15.2413,1272.6064],[-90.3137,15.243,1640.996],[-90.3054,15.2468,1828.3098],[-90.2937,15.2799,1592.0946],[-90.2956,15.2824,1566.4841],[-90.2931,15.2908,1627.74],[-90.2904,15.2941,1789.1467],[-90.2814,15.292,1939.5215],[-90.25,15.2735,2167.4644],[-90.2169,15.272,2190.9263],[-90.1671,15.2579,1950.0247],[-90.1537,15.2571,1858.1289],[-90.1432,15.2625,1563.9248],[-90.124,15.2596,1288.0244],[-90.0976,15.2619,1119.7649],[-90.0902,15.2598,1047.0681],[-90.063,15.2607,806.9465],[-90.0568,15.2571,802.4243],[-90.0396,15.2625,823.0112],[-90.0096,15.2658,738.9999],[-89.9703,15.2737,825.7202],[-89.9648,15.2774,813.8647],[-89.9449,15.2739,754.7618],[-89.9384,15.2701,563.7027],[-89.9341,15.2617,157.0533],[-89.9307,15.2536,316.1018],[-89.9302,15.2433,474.0228],[-89.9424,15.2111,805.4555],[-89.992,15.1419,1751.6917],[-89.9582,15.1542,2228.9958],[-89.9484,15.1456,2302.5593],[-89.935,15.1423,2592.1431],[-89.9199,15.1402,2603.1045],[-89.893,15.1403,2451.4644],[-89.8903,15.1441,2258.9321],[-89.8909,15.1499,2365.9658],[-89.8874,15.1521,2009.6187],[-89.8841,15.1481,2363.6255],[-89.8662,15.1474,2190.6692],[-89.8613,15.1605,2788.8948],[-89.844,15.1639,2730.6477],[-89.8351,15.1619,2755.1445],[-89.8192,15.1722,2647.3516],[-89.8113,15.1719,2623.8264],[-89.8033,15.1658,2732.0461],[-89.7938,15.1702,2706.7161],[-89.7843,15.1714,2520.3357],[-89.7775,15.1699,2270.4097],[-89.7665,15.1493,2473.7419],[-89.7521,15.1479,2576.2781],[-89.7462,15.1446,2754.2629],[-89.7331,15.1468,2746.7588],[-89.7223,15.1517,2704.2166],[-89.7145,15.1479,2320.9561],[-89.7041,15.1382,2441.1665],[-89.6894,15.139099999999999,2262.0994],[-89.6869,15.1377,2173.48],[-89.6776,15.1223,2092.0432],[-89.6661,15.1197,2097.335],[-89.6626,15.1225,1916.2114],[-89.6648,15.1301,1973.2942],[-89.6643,15.1385,1993.2319],[-89.6676,15.1449,2181.2517],[-89.6661,15.1485,2168.3181],[-89.6313,15.1614,2200.4404],[-89.6222,15.1566,2515.0681],[-89.611,15.1589,2447.1523],[-89.6119,15.1619,2514.574],[-89.6243,15.1753,1928.2128],[-89.6262,15.1798,1965.8229],[-89.6229,15.1899,1519.7922],[-89.626,15.203,1341.3423],[-89.6336,15.2153,1106.9993],[-89.6266,15.23,754.2134],[-89.6268,15.2353,689.3124],[-89.6207,15.2541,603.5236],[-89.6287,15.2665,634.0729],[-89.6279,15.2714,728.161],[-89.6235,15.2744,693.8684],[-89.6366,15.3673,11.8226],[-89.6356,15.3709,11.2421],[-89.6297,15.366,10.774],[-89.6282,15.3687,13.7714],[-89.631,15.3719,11.2158],[-89.6272,15.3762,9.4996],[-89.6335,15.3793,11.2598],[-89.6284,15.385,10.4892],[-89.6348,15.3856,10.5875],[-89.6309,15.4032,10.5798],[-89.6366,15.4124,31.8981],[-89.6385,15.4225,57.1277],[-89.6417,15.4261,143.6017],[-89.6446,15.4375,365.984],[-89.6401,15.4464,369.4344],[-89.6437,15.4524,473.2382],[-89.6384,15.4535,475.7795],[-89.6315,15.4638,666.0125],[-89.6244,15.4649,746.7547],[-89.6239,15.4707,786.8317],[-89.6207,15.4765,671.2108],[-89.6148,15.479,667.9951],[-89.6042,15.5026,269.6172]]]]}
,"properties": {"GID_1": "GTM.1_1","GID_0": "GTM","country": "Guatemala","province": "AltaVerapaz","VARNAME_1": "NA","NL_NAME_1": "NA","TYPE_1": "Departamento","ENGTYPE_1": "Department","CC_1": "NA","HASC_1": "GT.AV","ISO_1": "GT-16","name": "Alta_Verapaz.province","area_km2": 10080.926,"hist_schema_id": "Elevation0-9000","hist_area_km2": {"0": 7.441,"25": 94.346,"50": 26.624,"75": 27.578,"100": 37.262,"125": 107.121,"150": 644.557,"175": 834.603,"200": 561.225,"225": 387.397,"250": 318.356,"275": 335.705,"300": 341.23,"325": 380.676,"350": 305.075,"375": 250.347,"400": 217.965,"425": 195.058,"450": 172.062,"475": 160.822,"500": 146.352,"525": 137.089,"550": 127.231,"575": 120.904,"600": 115.539,"625": 112.829,"650": 104.318,"675": 99.486,"700": 93.872,"725": 96.409,"750": 86.874,"775": 83.244,"800": 77.793,"825": 78.079,"850": 73.32,"875": 73.153,"900": 70.967,"925": 70.726,"950": 70.297,"975": 79.839,"1000": 74.856,"1025": 71.59,"1050": 68.631,"1075": 64.32,"1100": 63.545,"1125": 63.099,"1150": 64.712,"1175": 63.509,"1200": 59.873,"1225": 59.875,"1250": 57.138,"1275": 61.982,"1300": 75.774,"1325": 85.42,"1350": 83.088,"1375": 88.057,"1400": 105.172,"1425": 105.561,"1450": 107.711,"1475": 92.753,"1500": 77.097,"1525": 73.318,"1550": 70.129,"1575": 64.243,"1600": 65.347,"1625": 64.692,"1650": 62.626,"1675": 59.683,"1700": 56.207,"1725": 55.003,"1750": 50.14,"1775": 48.406,"1800": 39.885,"1825": 34.369,"1850": 33.51,"1875": 33.449,"1900": 33.673,"1925": 32.365,"1950": 29.014,"1975": 25.927,"2000": 21.164,"2025": 18.752,"2050": 17.505,"2075": 16.912,"2100": 15.521,"2125": 15.522,"2150": 14.07,"2175": 13.313,"2200": 11.371,"2225": 10.675,"2250": 9.346,"2275": 8.733,"2300": 9.325,"2325": 8.078,"2350": 7.117,"2375": 5.808,"2400": 5.215,"2425": 3.702,"2450": 2.721,"2475": 2.189,"2500": 1.923,"2525": 1.985,"2550": 1.412,"2575": 1.351,"2600": 0.921,"2625": 1.003,"2650": 0.696,"2675": 0.634,"2700": 0.757,"2725": 0.409,"2750": 0.798,"2775": 0.573,"2800": 0.491,"2825": 0.45,"2850": 0.225,"2875": 0.225,"2900": 0.246,"2950": 0.102,"2975": 0.082}}}