{"type": "Feature","id": "1948","bbox": [-90.81815,15.15107,-89.39635,16.08238],"geometry": {"type": "Polygon","coordinates": [[[-90.04011,15.99879,133.3831],[-90.04667,15.99946,132.2346],[-90.21681,16.05215,161.7552],[-90.42075,16.08238,154.8555],[-90.44784,16.07969,130.3085],[-90.44814,16.07928,130.3085],[-90.4482,16.07926,130.3085],[-90.43641,16.07328,130.739],[-90.4315,16.06548,131.8825],[-90.43354,16.05605,131.7663],[-90.44199,16.04483,132.1288],[-90.436,16.03401,133.0624],[-90.44026,16.02481,129.5],[-90.45049,16.02068,133.9171],[-90.46248,16.02497,136.7369],[-90.4644,16.01998,140.3887],[-90.46783,16.01564,137.5307],[-90.46933,16.0107,136.0513],[-90.47553,16.0107,131.5],[-90.48737,16.01796,136.0739],[-90.50674,16.00621,137.6903],[-90.51711,16.0107,139.5419],[-90.52395,16.0107,141.5042],[-90.52778,16.00453,138.5001],[-90.53103,16.00396,137.6855],[-90.53821,16.0107,137.6563],[-90.54039,16.00729,138.5458],[-90.54163,16.00427,138.4192],[-90.54271,16.0045,138.6558],[-90.54442,16.0107,138.7838],[-90.54858,16.00631,138.0607],[-90.55511,16.00088,137.212],[-90.55808,15.99768,136.5],[-90.57134,16.00435,140.8812],[-90.58023,16.01261,140.9427],[-90.5903,16.01835,142.3643],[-90.6071,16.01752,146.8785],[-90.6071,16.02497,143.5795],[-90.60222,16.02646,143.7855],[-90.59728,16.02925,141.2253],[-90.59284,16.03119,144.6396],[-90.59284,16.03863,169.1298],[-90.59976,16.04266,162.9261],[-90.60555,16.04295,163.9837],[-90.6101,16.03918,154.6568],[-90.6133,16.03119,144.2854],[-90.62015,16.03119,145.7246],[-90.63431,16.04522,163.1558],[-90.66015,16.0398,173.2981],[-90.7027,16.01752,149.9854],[-90.69526,16.00388,149.0],[-90.7042,15.9982,150.3291],[-90.70404,15.99386,152.0278],[-90.70216,15.98864,152.8441],[-90.7058,15.98029,154.881],[-90.71275,15.97629,151.0],[-90.71748,15.98047,156.1969],[-90.72068,15.98709,158.6664],[-90.72316,15.99021,166.1514],[-90.73443,15.98538,168.4794],[-90.75019,15.9728,182.528],[-90.76352,15.96972,211.0291],[-90.76352,15.96228,189.133],[-90.75936,15.95887,155.6977],[-90.7505,15.94926,160.6816],[-90.74365,15.95608,169.4546],[-90.74187,15.95298,160.0218],[-90.74218,15.95115,159.554],[-90.74138,15.95011,160.1674],[-90.73621,15.94926,158.9485],[-90.73621,15.94244,160.3155],[-90.74611,15.93557,201.5836],[-90.75381,15.92104,199.2073],[-90.76352,15.88782,169.5736],[-90.73862,15.88528,200.3564],[-90.73257,15.8681,193.3272],[-90.74296,15.84862,235.8714],[-90.76724,15.8394,227.6276],[-90.77135,15.83345,199.6742],[-90.78463,15.79842,224.9235],[-90.81182,15.76511,252.0434],[-90.81815,15.75064,196.8964],[-90.80502,15.75211,268.0108],[-90.79334,15.7508,243.6353],[-90.78386,15.74594,272.542],[-90.77717,15.73697,235.6786],[-90.7821,15.7348,200.75],[-90.78652,15.73116,246.73],[-90.79146,15.72953,335.5931],[-90.79146,15.72333,212.5455],[-90.77665,15.71235,220.3495],[-90.77097,15.70904,319.0697],[-90.78448,15.69974,251.0518],[-90.78823,15.68845,348.7686],[-90.78063,15.67891,253.2226],[-90.7434,15.67274,483.2959],[-90.701,15.6608,423.9594],[-90.68903,15.65442,359.534],[-90.68079,15.6592,546.7657],[-90.67162,15.6608,547.8391],[-90.66247,15.6592,391.8037],[-90.65428,15.65442,334.2213],[-90.65782,15.65362,293.5448],[-90.66069,15.65362,317.9148],[-90.66219,15.65233,283.5728],[-90.66172,15.6476,335.816],[-90.64276,15.63582,282.6988],[-90.63271,15.62292,581.7988],[-90.6319,15.60861,269.3444],[-90.64064,15.59236,497.8472],[-90.62555,15.58212,588.4512],[-90.61545,15.56127,309.9732],[-90.60865,15.54076,360.3987],[-90.60338,15.53153,551.726],[-90.59697,15.52595,581.6774],[-90.60374,15.51407,321.982],[-90.61452,15.50316,413.7872],[-90.62015,15.5005,419.1357],[-90.64808,15.47629,559.5066],[-90.64808,15.46947,444.351],[-90.64007,15.45888,1131.8676],[-90.65221,15.45262,524.0248],[-90.69216,15.44898,961.7162],[-90.70559,15.44231,484.3329],[-90.70975,15.4266,792.7822],[-90.70777,15.40844,1056.1073],[-90.7027,15.39436,880.2257],[-90.68203,15.37495,1162.3799],[-90.65082,15.36309,815.6383],[-90.49351,15.33974,1125.8998],[-90.47762,15.33098,1146.7771],[-90.47848,15.31064,774.6542],[-90.48783,15.28765,938.4415],[-90.49724,15.27085,798.0],[-90.50377,15.2622,798.0],[-90.48057,15.26114,1020.6639],[-90.4577,15.26098,868.1342],[-90.42411,15.26013,934.3245],[-90.40055,15.26098,1152.4669],[-90.37892,15.25431,1508.1782],[-90.32384,15.21809,1458.4695],[-90.31316,15.20781,1433.2045],[-90.31027,15.20706,1473.6978],[-90.30632,15.20752,1379.6987],[-90.29621,15.21287,1337.3774],[-90.29231,15.21685,1344.2428],[-90.28009,15.23165,1570.0952],[-90.27534,15.23566,1583.1287],[-90.26857,15.24509,1598.8499],[-90.26051,15.27597,2325.8477],[-90.25976,15.28217,2185.083],[-90.2589,15.28434,2168.1045],[-90.25637,15.28912,1864.6418],[-90.25482,15.29106,1803.2173],[-90.25309,15.29279,1723.8392],[-90.24878,15.29571,1388.8435],[-90.23524,15.29493,1386.7399],[-90.18718,15.28372,1071.4086],[-90.07801,15.26884,546.2318],[-90.03881,15.27015,500.3015],[-90.00605,15.28279,660.2629],[-89.99701,15.28486,593.6692],[-89.9521,15.2885,408.4344],[-89.94874,15.28783,477.58],[-89.9451,15.28674,539.2569],[-89.93766,15.28248,498.6653],[-89.92642,15.27219,433.1695],[-89.92172,15.26656,175.1991],[-89.91931,15.26214,291.249],[-89.91737,15.25718,324.025],[-89.91815,15.24705,333.7745],[-89.92885,15.21793,931.8792],[-89.973,15.15654,2264.9048],[-89.92383,15.15107,1857.2572],[-89.90719,15.15241,1914.6621],[-89.878,15.15985,2137.6646],[-89.85053,15.17174,2376.438],[-89.84012,15.17318,2330.186],[-89.81704,15.17236,2656.2349],[-89.78203,15.15933,2417.1821],[-89.77025,15.15696,2122.4829],[-89.70661,15.16636,2218.0425],[-89.67468,15.16429,1872.0878],[-89.60551,15.1799,1934.2354],[-89.62344,15.20465,1276.8054],[-89.62788,15.21406,1307.7009],[-89.62979,15.21925,1043.5647],[-89.63005,15.22359,971.3292],[-89.62979,15.22907,899.8096],[-89.62662,15.24556,665.2618],[-89.62654,15.2507,624.9442],[-89.62739,15.25486,543.0007],[-89.63305,15.26439,671.7261],[-89.63972,15.27325,343.1828],[-89.64209,15.27762,413.0941],[-89.6462,15.28726,150.2092],[-89.64705,15.29069,147.1013],[-89.64726,15.30571,29.3727],[-89.6383,15.42291,50.6601],[-89.63667,15.42477,64.0117],[-89.63062,15.42924,76.9751],[-89.61166,15.43802,25.1101],[-89.60959,15.43952,26.4655],[-89.60775,15.44123,28.0524],[-89.60602,15.44327,32.4808],[-89.60465,15.44526,39.8362],[-89.6023,15.44999,148.4785],[-89.59941,15.46107,505.2755],[-89.59755,15.46614,235.0062],[-89.59631,15.46849,322.3539],[-89.58814,15.48123,235.0689],[-89.58956,15.4851,28.6634],[-89.5931,15.49055,38.6607],[-89.6062,15.50215,247.0894],[-89.61496,15.51148,147.0264],[-89.62284,15.52295,71.5511],[-89.64496,15.54595,121.9913],[-89.64876,15.55202,115.911],[-89.65021,15.55375,186.8303],[-89.65222,15.5559,145.5627],[-89.65419,15.55753,128.0481],[-89.65863,15.56011,248.2176],[-89.66137,15.56089,237.2818],[-89.65403,15.57771,483.0147],[-89.59791,15.65463,559.2566],[-89.53492,15.74043,157.5706],[-89.53269,15.74545,200.5541],[-89.53063,15.74795,224.5025],[-89.52766,15.75002,209.1629],[-89.5173,15.75312,191.9476],[-89.5121,15.7556,224.1397],[-89.49538,15.767,178.2509],[-89.48495,15.7716,156.4822],[-89.48141,15.77428,145.5459],[-89.47753,15.77919,151.9919],[-89.46536,15.80059,188.9365],[-89.46438,15.80325,223.6625],[-89.45931,15.81232,130.3154],[-89.45686,15.81428,105.5139],[-89.45332,15.81604,104.5749],[-89.43397,15.81795,89.5956],[-89.42376,15.8258,89.3148],[-89.39635,15.86128,87.5881],[-89.4264,15.85397,92.4426],[-89.43844,15.84862,100.3555],[-89.4464,15.84937,103.3484],[-89.46335,15.85826,137.4603],[-89.48466,15.85417,136.189],[-89.51112,15.84229,150.8895],[-89.51244,15.84211,150.8895],[-89.51303,15.84312,165.7884],[-89.51551,15.89518,384.8777],[-89.51631,15.89769,368.1815],[-89.5206,15.89929,333.5734],[-89.52696,15.89986,310.9389],[-89.54083,15.89921,325.8959],[-89.54693,15.89794,360.9654],[-89.55132,15.8965,348.1973],[-89.55337,15.89497,324.2853],[-89.55567,15.89371,338.1446],[-89.5583,15.89278,341.9259],[-89.56125,15.89216,342.1062],[-89.56504,15.89218,348.4565],[-89.62695,15.90006,279.5567],[-89.63395,15.8997,224.8627],[-89.64566,15.89055,210.7827],[-89.64791,15.88924,255.1877],[-89.65039,15.88823,232.7093],[-89.65584,15.88696,234.9055],[-89.66925,15.88774,202.2654],[-89.6739,15.88931,196.2228],[-89.67953,15.892,199.7189],[-89.70038,15.9058,188.5474],[-89.7162,15.91877,187.4248],[-89.71899,15.92032,176.8584],[-89.74255,15.93086,170.086],[-89.74547,15.93164,172.1941],[-89.7485,15.93192,159.2151],[-89.75219,15.92931,160.9385],[-89.75762,15.92629,156.1041],[-89.76041,15.92585,152.9106],[-89.76917,15.9266,149.1422],[-89.77216,15.92652,148.0813],[-89.7748,15.92567,147.7935],[-89.77674,15.9242,147.6069],[-89.77844,15.92249,147.2861],[-89.7826,15.91668,147.8593],[-89.78384,15.91528,150.3173],[-89.78501,15.91433,154.2456],[-89.78687,15.91329,160.2189],[-89.79221,15.91182,148.1898],[-89.82586,15.91004,142.5364],[-89.84133,15.91231,140.9917],[-89.8456,15.91259,143.107],[-89.84924,15.91221,142.8041],[-89.85195,15.91146,142.4225],[-89.85534,15.91262,140.3172],[-89.8589,15.91575,141.952],[-89.8636,15.92461,141.7915],[-89.86518,15.9296,136.7194],[-89.86779,15.93551,141.9986],[-89.88084,15.95259,147.4322],[-89.88425,15.95861,157.3702],[-89.88727,15.96267,154.0424],[-89.8897,15.96396,138.9386],[-89.89531,15.96311,146.7734],[-89.90471,15.96422,149.8229],[-89.92218,15.97572,147.6969],[-89.92662,15.9713,141.7574],[-89.92908,15.97029,141.0189],[-89.94047,15.97257,145.3297],[-89.95745,15.98515,139.9768],[-89.95494,15.992,132.8977],[-89.9552,15.99417,143.4943],[-89.95709,15.99572,147.2904],[-89.96001,15.99747,136.9152],[-89.96135,15.99993,146.3097],[-89.9612,16.00042,138.4543],[-89.96089,16.00101,138.4543],[-89.96019,16.00287,148.6472],[-89.95965,16.00507,149.8505],[-89.95972,16.00763,140.0154],[-89.96112,16.00946,134.9674],[-89.96321,16.01081,134.6915],[-89.97078,16.0138,149.3749],[-89.97285,16.01435,148.2292],[-89.97455,16.01393,135.3607],[-89.97481,16.01096,141.9069],[-89.97272,16.00318,145.9095],[-89.97249,16.00117,145.5192],[-89.97246,16.00011,145.2258],[-89.97254,15.99977,145.2258],[-89.97308,15.99915,145.2258],[-89.97494,15.99804,148.6932],[-89.983,15.99654,139.6428],[-89.98579,15.9953,127.8777],[-89.98866,15.99479,132.898],[-89.99104,15.99525,136.1354],[-89.99494,15.99957,127.0025],[-89.99649,16.00003,127.4367],[-89.99926,16.00001,128.8871],[-90.00473,15.99877,131.0043],[-90.00853,15.99949,137.9884],[-90.0113,16.00287,126.6648],[-90.0121,16.00621,125.4114],[-90.01473,16.00895,127.0237],[-90.01918,16.01008,130.5447],[-90.03011,16.00853,142.228],[-90.03445,16.00608,132.5449],[-90.03716,16.00349,131.3037],[-90.03778,16.00148,125.2161],[-90.03832,16.00024,135.2894],[-90.03848,16.00001,135.2894],[-90.04011,15.99879,133.3831]]]}
,"properties": {"ISO3166-1-Alpha-3": "GTM","country": "Guatemala","fill": "#F0F","name": "Alta Verapaz","area_km2": 9948.228,"hist_schema_id": "Elevation0-9000","hist_area_km2": {"0": 3.169,"25": 85.472,"50": 26.276,"75": 28.414,"100": 36.365,"125": 123.873,"150": 677.475,"175": 837.634,"200": 552.073,"225": 370.169,"250": 304.205,"275": 325.49,"300": 331.994,"325": 371.194,"350": 296.124,"375": 242.964,"400": 213.498,"425": 193.059,"450": 171.592,"475": 160.21,"500": 145.269,"525": 136.332,"550": 126.331,"575": 119.555,"600": 113.126,"625": 109.822,"650": 100.535,"675": 95.436,"700": 90.293,"725": 92.503,"750": 82.927,"775": 79.297,"800": 76.751,"825": 75.175,"850": 71.663,"875": 71.844,"900": 70.149,"925": 69.888,"950": 69.132,"975": 79.062,"1000": 74.038,"1025": 70.527,"1050": 67.813,"1075": 63.4,"1100": 63.177,"1125": 62.24,"1150": 64.528,"1175": 63.386,"1200": 59.873,"1225": 60.059,"1250": 57.67,"1275": 62.37,"1300": 76.633,"1325": 86.074,"1350": 84.315,"1375": 89.51,"1400": 106.399,"1425": 106.686,"1450": 109.021,"1475": 93.633,"1500": 77.875,"1525": 74.872,"1550": 73.013,"1575": 66.718,"1600": 66.759,"1625": 65.571,"1650": 63.608,"1675": 59.949,"1700": 56.228,"1725": 54.941,"1750": 50.222,"1775": 48.651,"1800": 39.864,"1825": 33.898,"1850": 32.855,"1875": 32.794,"1900": 32.835,"1925": 31.015,"1950": 27.582,"1975": 24.29,"2000": 19.793,"2025": 17.319,"2050": 15.09,"2075": 14.538,"2100": 13.454,"2125": 12.739,"2150": 11.757,"2175": 10.408,"2200": 8.568,"2225": 7.974,"2250": 6.809,"2275": 6.686,"2300": 7.259,"2325": 6.441,"2350": 5.766,"2375": 4.805,"2400": 4.192,"2425": 3.19,"2450": 1.759,"2475": 1.371,"2500": 1.105,"2525": 1.187,"2550": 0.941,"2575": 0.716,"2600": 0.491,"2625": 0.614,"2650": 0.491,"2675": 0.368,"2700": 0.327,"2725": 0.123,"2750": 0.286,"2775": 0.164,"2800": 0.123,"2825": 0.102}}}