{"type":"Feature","properties":{"featurecla":"River","scalerank":12,"rivernum":22221,"dissolve":"22221River","name":"Rio Santa Isabel o Cancuen","name_alt":null,"note":"ID is link back to CEC data","name_full":null,"min_zoom":7.0,"strokeweig":0.15,"uident":2041301,"min_label":8.0},
"geometry":{"type": "LineString","coordinates": [[-90.002145962624567,16.002997137494035,140.4534],[-89.997263150124567,16.003281968223206,136.6378],[-89.9823298818954,16.007106838014863,132.8944],[-89.971913215228724,16.005682684369035,136.9155],[-89.966420051166224,16.002875067181535,136.159],[-89.9625544912704,15.999009507285706,136.8351],[-89.9520564443954,15.979274806764863,139.7313],[-89.947743293353724,15.974920965619035,133.0834],[-89.941395637103724,15.971991278119035,138.3317],[-89.907582160541224,15.964504298952363,146.7462],[-89.8863826162704,15.954087632285706,149.6065],[-89.877674933978724,15.946682033327363,149.8001],[-89.863026496478724,15.922552801556535,144.8883],[-89.8564753897079,15.915350653119035,140.4047],[-89.849232551166224,15.910793361452363,143.058],[-89.842762824603724,15.909369207806535,142.1152],[-89.800607876687067,15.910671291139863,144.9778],[-89.785145637103724,15.919338283327363,147.0817],[-89.763986782937067,15.922919012494035,148.7583],[-89.757435676166224,15.925482489056535,156.1041],[-89.7523494131454,15.930121160931535,160.9385],[-89.7418513662704,15.947780666139863,167.3262],[-89.729603644916224,15.957627671348206,170.9576],[-89.657053189187067,15.980088608848206,201.1612],[-89.6534724600204,15.982245184369035,222.1765],[-89.650257941791224,15.985215561973206,194.6767],[-89.641184048562067,16.005682684369035,194.1097],[-89.6367488272079,16.011826890098206,196.7061],[-89.628000454812067,16.017116603639863,197.7142],[-89.6004939443954,16.018581447389863,212.5749],[-89.5846248037704,16.036525783327363,242.1288],[-89.5689998037704,16.046942449994035,283.9194],[-89.5465388662704,16.049627996869035,291.1443],[-89.5318904287704,16.049709377077363,229.6073],[-89.503977017312067,16.037746486452363,240.4845],[-89.4720759756454,16.042141017702363,268.4992],[-89.456044074603724,16.048610744264863,299.1582],[-89.451486782937067,16.052720444785706,257.763],[-89.450510220437067,16.057359116660706,266.7418]]}}