{"type":"Feature","properties":{"featurecla":"River","scalerank":11,"rivernum":22186,"dissolve":"22186River","name":"null11","name_alt":null,"note":"ID is link back to CEC data","name_full":null,"min_zoom":6.7,"strokeweig":0.15,"uident":2053601,"min_label":7.7},
"geometry":{"type": "LineString","coordinates": [[-90.267648892312067,15.248480535931535,1569.3032],[-90.212635871478724,15.228867905723206,1590.0181],[-90.185414191791224,15.227728582806535,1483.2283],[-90.161854621478724,15.237819728639877,1268.1704],[-90.089466926166224,15.228379624473206,583.2404],[-90.009103970437067,15.242132879681535,392.0548],[-89.952748176166224,15.258083400514877,372.6709],[-89.926869269916224,15.275458074994035,526.855],[-89.8954158193954,15.309149481244035,93.1326],[-89.852772590228724,15.313544012494035,70.0807]]}}