{"type":"Feature","properties":{"featurecla":"River","scalerank":12,"rivernum":22221,"dissolve":"22221River","name":"Rio de la Pasion","name_alt":null,"note":"ID is link back to CEC data","name_full":null,"min_zoom":7.0,"strokeweig":0.15,"uident":2041301,"min_label":8.0},
"geometry":{"type": "LineString","coordinates": [[-90.539865689187067,16.469061590619035,112.8888],[-90.5189509756454,16.501288153119035,113.5082],[-90.5086970693954,16.511623439577363,116.4546],[-90.5018611318954,16.515041408327363,114.2127],[-90.479725715228724,16.519069728639863,131.381],[-90.477284308978724,16.518622137494035,131.1662],[-90.4718318350204,16.515733140098206,123.2172],[-90.460275845437067,16.500189520306535,108.5],[-90.4584041006454,16.498683986452363,114.8571],[-90.457020637103724,16.498643296348206,114.8101],[-90.454050259499567,16.502264715619035,115.1014],[-90.452137824603724,16.507269598431535,110.064],[-90.450998501687067,16.519761460410706,110.1138],[-90.452381965228724,16.532538153119035,128.4631],[-90.4553523428329,16.542100327598206,117.5592],[-90.4568171865829,16.544256903119035,121.0907],[-90.4614558584579,16.547674871869035,118.5202],[-90.462228970437067,16.548732814577363,117.0254],[-90.4621882803329,16.550116278119035,114.5752],[-90.4610896475204,16.552191473431535,109.2415],[-90.458688931374567,16.555121160931535,109.6165],[-90.4552302725204,16.557928778119035,112.5842],[-90.451283332416224,16.559597072389863,114.3968],[-90.4292292959579,16.562852280723206,118.4959],[-90.425404426166224,16.564805405723206,118.1413],[-90.412831183978724,16.577948309369035,112.4412],[-90.4065242178329,16.581081447389863,116.0771],[-90.386667446999567,16.584865627077363,113.1284],[-90.3839412100204,16.586859442181535,113.036],[-90.379587368874567,16.593247788535706,114.4265],[-90.3768611318954,16.600856838014863,119.6984],[-90.375559048562067,16.602484442181535,111.5435],[-90.3733210928329,16.603583074994035,109.0],[-90.364572720437067,16.604234116660706,117.7105],[-90.3583064443954,16.603379624473206,118.954],[-90.352853970437067,16.601467189577363,113.0987],[-90.3485408193954,16.598618882285706,116.7393],[-90.3456111318954,16.595119533327363,119.4375],[-90.344431118874567,16.591131903119035,114.7858],[-90.345204230853724,16.586778061973206,110.0556],[-90.3482966787704,16.582302150514863,113.2762],[-90.353952603249567,16.577866929160706,115.3151],[-90.352609829812067,16.575303452598206,114.3465],[-90.350900845437067,16.573838608848206,113.1561],[-90.348866340228724,16.573228257285706,115.4527],[-90.338856574603724,16.574245509889863,113.9496],[-90.3362117178329,16.574001369264863,115.5597],[-90.333811001687067,16.573187567181535,115.5155],[-90.323231574603724,16.563950913535706,118.7857],[-90.317616340228724,16.561509507285706,116.7097],[-90.315378384499567,16.561102606244035,118.8851],[-90.3141169912704,16.561428127077363,120.6646],[-90.313465949603724,16.562363999473206,119.6193],[-90.312326626687067,16.565130926556535,117.6612],[-90.311024543353724,16.566595770306535,115.3349],[-90.308664517312067,16.567857163535706,114.516],[-90.3026423818954,16.569199936973206,116.3624],[-90.252145962624567,16.557928778119035,115.775],[-90.245716926166224,16.554551499473206,138.404],[-90.235422329812067,16.546169338014863,129.3681],[-90.231800910541224,16.544256903119035,122.4272],[-90.228342251687067,16.543361720827363,116.7785],[-90.2247615225204,16.543605861452363,120.5264],[-90.207346157937067,16.548244533327363,113.4019],[-90.144520637103724,16.549546616660706,120.8009],[-90.079416470437067,16.570379949994035,113.9404],[-90.0533748037704,16.562567449994035,119.5215],[-90.0423884756454,16.544338283327363,113.3563],[-90.040028449603724,16.527736720827363,115.2329],[-90.045399543353724,16.502264715619035,118.6059],[-90.043771939187067,16.490790106244035,113.4378],[-90.026234504291224,16.453111069785706,114.5496],[-90.023508267312067,16.440537827598206,115.0687],[-90.024647590228724,16.426662502077363,119.471],[-90.029286262103724,16.415391343223206,119.5923],[-90.0489802725204,16.385646877077363,115.9424],[-90.052845832416224,16.368719793744035,119.3877],[-90.064523892312067,16.344590561973206,120.0377],[-90.065256314187067,16.335272528119035,117.1912],[-90.052561001687067,16.285264390098206,118.6224],[-90.053089973041224,16.277818101035706,116.2024],[-90.0550837881454,16.272080796348206,113.0501],[-90.0587458975204,16.267360744264863,140.7561],[-90.064320441791224,16.262884832806535,118.9065],[-90.0942683584579,16.252508856244035,113.5741],[-90.0973201162704,16.249741929160706,118.4268],[-90.100168423562067,16.244004624473206,123.2121],[-90.099680142312067,16.238918361452363,118.4715],[-90.096506314187067,16.234523830202363,123.9687],[-90.0914607412704,16.230902410931535,126.6211],[-90.0787654287704,16.226223048952363,116.5862],[-90.053700324603724,16.226304429160706,121.4594],[-90.0472712881454,16.224595444785706,118.0644],[-90.0443416006454,16.222764390098206,117.5537],[-90.0387263662704,16.216253973431535,118.4528],[-90.037587043353724,16.213242905723206,118.6157],[-90.0377498037704,16.210882879681535,115.8824],[-90.044178840228724,16.202337957806535,120.9706],[-90.045277473041224,16.199001369264863,117.1093],[-90.045480923562067,16.196275132285706,120.9264],[-90.040882941791224,16.182847397910706,119.4888],[-90.040638801166224,16.180039780723206,121.55],[-90.041615363666224,16.175970770306535,121.5267],[-90.045725064187067,16.167547918744035,123.0035],[-90.046620246478724,16.163153387494035,121.2149],[-90.045643683978724,16.157416082806535,120.1324],[-90.0432429678329,16.153428452598206,126.9121],[-90.0398249990829,16.150742905723206,124.0535],[-90.028187629291224,16.145331121869035,117.8307],[-90.0252986318954,16.142808335410706,117.7695],[-90.0237117178329,16.139105535931535,120.6726],[-90.0250544912704,16.129543361452363,140.0528],[-90.032297329812067,16.123806056764863,139.3072],[-90.080881314187067,16.117132879681535,137.0206],[-90.0881648428329,16.114121811973206,126.9122],[-90.0896296865829,16.108384507285706,121.1493],[-90.067331509499567,16.098537502077363,122.9356],[-90.057850715228724,16.089911199994035,146.3161],[-90.0560603506454,16.085557358848206,145.5752],[-90.0572810537704,16.081447658327363,125.5103],[-90.058542446999567,16.080430405723206,130.3359],[-90.0602107412704,16.079942124473206,124.7981],[-90.068186001687067,16.079657293744035,127.4204],[-90.069772915749567,16.079087632285706,129.0352],[-90.0709529287704,16.077866929160706,125.6],[-90.071766730853724,16.075791733848206,125.4912],[-90.0718074209579,16.073757228639863,127.1966],[-90.0606990225204,16.052476304160706,134.4576],[-90.0553279287704,16.006048895306535,145.5074],[-90.053212043353724,16.001491603639863,145.344],[-90.0497126943954,15.998358465619035,128.6768],[-90.0445857412704,15.997056382285706,130.0106],[-90.040760871478724,15.997341213014863,124.6343],[-90.0200496084579,16.006089585410706,132.1134],[-90.013783332416224,16.005886134889863,128.7773],[-90.002145962624567,16.002997137494035,140.4534]]}}