{"type":"Feature","properties":{"featurecla":"River","scalerank":5,"rivernum":193,"dissolve":"193River","name":"Rio6","name_alt":null,"note":null,"min_zoom":4.7,"strokeweig":0.2,"name_en":"Rio Chixoy o Negro","min_label":5.7},
"geometry":{"type": "LineString","coordinates": [[-90.614165849260388,15.557037566127176,356.7576],[-90.615527343749989,15.561151434369123,309.9732],[-90.625585937499991,15.58197662968162,576.6663],[-90.640722656249991,15.59223053593162,497.8472],[-90.632006835937489,15.608514715619123,269.3444],[-90.6328125,15.622821356244117,581.7988],[-90.642871093749989,15.63568756718162,282.6988],[-90.661865234375,15.647479559369117,335.816],[-90.662280273437489,15.652215887494123,283.5728],[-90.660815429687489,15.65350983280662,317.9148],[-90.657958984375,15.65350983280662,293.5448],[-90.654394531249991,15.654315496869117,334.2213],[-90.66259765625,15.659051824994123,391.8037],[-90.671728515624991,15.660663153119117,547.8391],[-90.680908203125,15.659051824994123,546.7657],[-90.689135742187489,15.654315496869117,359.534],[-90.701098632812489,15.660663153119117,423.9594],[-90.743505859374991,15.672626043744117,483.2959],[-90.78076171875,15.67877838749412,253.2226],[-90.788330078125,15.68829987186912,348.7686],[-90.784594726562489,15.699579168744123,363.5035],[-90.771044921874989,15.70892975468162,319.0697],[-90.776708984374991,15.71222565311912,220.3495],[-90.791552734374989,15.72321198124412,212.5455],[-90.791552734374989,15.729364324994123,335.5931],[-90.78662109375,15.73102448124412,248.8938],[-90.7822265625,15.73468659061912,200.75],[-90.777270507812489,15.73688385624412,235.6786],[-90.783984374999989,15.74579498905662,272.542],[-90.79345703125,15.75067780155662,243.6353],[-90.80517578125,15.751971746869117,318.8704],[-90.818212890624991,15.750506903119117,196.8964],[-90.811938476562489,15.76496002811912,252.0434],[-90.784716796874989,15.79828522343162,224.9235],[-90.771484375,15.83331940311912,199.6742],[-90.767333984375,15.839227606244123,227.6276],[-90.743017578124991,15.848504949994123,235.8714],[-90.732666015625,15.86798737186912,193.3272],[-90.738696289062489,15.885126043744123,200.3564],[-90.763671875,15.887713934369117,169.5736],[-90.753955078124989,15.92096588749412,199.2073],[-90.746191406249991,15.935419012494123,201.5836],[-90.736328125,15.94232819218162,160.3155],[-90.736328125,15.94916412968162,158.9485],[-90.741503906249989,15.949969793744117,160.1674],[-90.742285156249991,15.951044012494123,159.554],[-90.741992187499989,15.95282623905662,160.0218],[-90.74375,15.955926824994123,169.4546],[-90.750585937499991,15.94916412968162,160.6816],[-90.759448242187489,15.958758856244117,155.6977],[-90.763671875,15.962176824994117,189.133],[-90.763671875,15.969598699994123,211.0291],[-90.750292968749989,15.972674871869117,182.528],[-90.734545898437489,15.985223699994123,168.4794],[-90.723315429687489,15.990106512494123,166.1514],[-90.720800781249991,15.986932684369123,159.2443],[-90.717578124999989,15.980340887494123,155.3947],[-90.712890625,15.976190496869123,151.0],[-90.705908203124991,15.98016998905662,154.881],[-90.702246093749991,15.988544012494117,152.8508],[-90.704150390624989,15.99371979374412,152.9181],[-90.704345703125,15.99811432499412,150.8471],[-90.695361328124989,16.00372955936912,149.8553],[-90.702807617187489,16.01740143436912,149.9854],[-90.660253906249991,16.039667059369123,173.2981],[-90.634375,16.04511139530662,154.2032],[-90.620214843749991,16.03107330936912,145.7246],[-90.613452148437489,16.03107330936912,144.2854],[-90.610205078124991,16.039081121869117,154.6568],[-90.605639648437489,16.04279205936912,163.9837],[-90.599902343749989,16.04254791874412,162.9261],[-90.592944335937489,16.03851959843162,169.1298],[-90.592944335937489,16.03107330936912,144.6396],[-90.597412109375,16.02912018436912,140.3268],[-90.602343749999989,16.02631256718162,143.7855],[-90.607226562499989,16.02484772343162,143.5795],[-90.607226562499989,16.01740143436912,146.8785],[-90.590380859374989,16.018182684369123,142.3643],[-90.580322265625,16.01251862186912,140.9427],[-90.571459960937489,16.00421784061912,140.8812],[-90.558203124999991,15.997577215619117,138.8783],[-90.555224609374989,16.00079987186912,137.212],[-90.548681640624991,16.006219793744123,138.0607],[-90.54453125,16.01056549686912,138.7838],[-90.542822265624991,16.00433991093162,138.6558],[-90.541748046875,16.004169012494117,138.6558],[-90.54052734375,16.00714752811912,138.5458],[-90.538330078125,16.01056549686912,137.6563],[-90.531103515624991,16.00385162968162,137.6855],[-90.527880859374989,16.004413153119117,138.5001],[-90.524023437499991,16.01056549686912,141.5042],[-90.5171875,16.01056549686912,139.5419],[-90.5068359375,16.00604889530662,134.4799],[-90.487402343749991,16.017840887494117,136.0739],[-90.475634765624989,16.01056549686912,131.5],[-90.469409179687489,16.01056549686912,136.0513],[-90.467944335937489,16.015497137494123,137.5307],[-90.464453124999991,16.01984284061912,140.3887],[-90.462573242187489,16.02484772343162,136.7369],[-90.450610351562489,16.02057526249412,133.9171],[-90.440356445312489,16.02472565311912,129.5],[-90.436083984374989,16.03388092655662,133.0624],[-90.442138671875,16.04474518436912,132.1288],[-90.433642578124989,16.055926824994117,131.7663],[-90.431640625,16.06537506718162,129.8939],[-90.4365234375,16.07318756718162,130.739],[-90.448974609375,16.079461981244123,130.3085],[-90.444921874999991,16.084833074994123,131.9764],[-90.438232421875,16.098993231244123,129.1169],[-90.435302734375,16.107440496869117,129.7403]]}}