{"type":"Feature","properties":{"featurecla":"River","scalerank":11,"rivernum":22189,"dissolve":"22189River","name":"null10","name_alt":null,"note":"ID is link back to CEC data","name_full":null,"min_zoom":6.7,"strokeweig":0.15,"uident":2051601,"min_label":7.7},
"geometry":{"type": "LineString","coordinates": [[-89.799631314187067,15.720770574994035,336.4401],[-89.774728970437067,15.712429103639863,235.3741],[-89.722971157937067,15.727403061973206,232.8177],[-89.667347785541224,15.740790106244035,180.1554],[-89.651844855853724,15.764268296348206,184.0681],[-89.651193814187067,15.799831447389863,193.9994],[-89.590077277728724,15.809108791139863,184.5172],[-89.538075324603724,15.837429103639863,182.7066],[-89.513050910541224,15.843085028119035,165.7884],[-89.512440558978724,15.842108465619035,150.8895],[-89.511097785541224,15.842311916139863,150.8895],[-89.484689907937067,15.854193426556535,136.189],[-89.463368293353724,15.858262436973206,137.4603],[-89.446400519916224,15.849391994264863,103.3484],[-89.438465949603724,15.848659572389863,100.3555],[-89.426380988666224,15.853949285931535,92.4426],[-89.416005012103724,15.856512762494035,91.1826]]}}