{"type":"Feature","properties":{"featurecla":"River","scalerank":11,"rivernum":22186,"dissolve":"22186River","name":"null983","name_alt":null,"note":"ID is link back to CEC data","name_full":null,"min_zoom":6.7,"strokeweig":0.2,"uident":2053601,"min_label":7.7},
"geometry":{"type": "LineString","coordinates": [[-89.852772590228724,15.313544012494035,70.0807],[-89.833973762103724,15.315497137494035,54.7937],[-89.768625454812067,15.328965561973206,27.4163],[-89.7435603506454,15.341498114056535,88.9261],[-89.723500129291224,15.341864324994035,29.1044],[-89.715158657937067,15.334092515098206,21.9155],[-89.701486782937067,15.335557358848206,18.6518],[-89.6832576162704,15.344590561973206,16.3075],[-89.669911262103724,15.359890041139863,14.0115],[-89.661732551166224,15.357774155723206,15.0325],[-89.596180793353724,15.344020900514863,11.2481],[-89.592030402728724,15.342067775514863,13.572],[-89.5787654287704,15.340684311973206,14.5369],[-89.5570369131454,15.343125718223206,13.1712],[-89.5499568350204,15.347276108848206,9.4128],[-89.541086392312067,15.358425197389863,7.8455],[-89.5357966787704,15.360703843223206,7.3229],[-89.526437954812067,15.360296942181535,7.1243],[-89.5206599600204,15.357367254681535,6.0319],[-89.519642707416224,15.340602931764863,11.5325],[-89.518137173562067,15.338487046348206,14.5131],[-89.5162654287704,15.336004949994035,16.3453],[-89.5096736318954,15.333278713014877,18.5161],[-89.4869685537704,15.335720119264863,5.2572],[-89.4784236318954,15.334336655723206,4.8462],[-89.466623501687067,15.327826239056535,16.9887],[-89.457630988666224,15.334011134889863,10.086],[-89.445912238666224,15.337917384889863,5.7954],[-89.444650845437067,15.338324285931535,5.1496],[-89.437570767312067,15.342881577598206,5.3665],[-89.428089973041224,15.343613999473206,4.1011],[-89.420277473041224,15.342556056764863,4.3137],[-89.412953254291224,15.345770574994035,3.1314],[-89.405384894916224,15.343085028119035,2.3521],[-89.396066861062067,15.352362371869035,4.3355],[-89.359689907937067,15.372178452598206,13.8898],[-89.3316951162704,15.380560614056535,0.0]]}}