{"type":"Feature","properties":{"featurecla":"River","scalerank":5,"rivernum":193,"dissolve":"193River","name":"Rio22","name_alt":"Chixoy","note":null,"min_zoom":4.7,"strokeweig":0.2,"name_en":"Rio Negro","min_label":5.7},
"geometry":{"type": "LineString","coordinates": [[-91.263916015625,15.15741608280662,1714.9287],[-91.270751953125,15.16034577030662,1714.4993],[-91.298632812499989,15.188104559369123,1650.3071],[-91.3017578125,15.19501373905662,1659.0812],[-91.315283203124991,15.20148346561912,1620.7219],[-91.320239257812489,15.21698639530662,1571.7726],[-91.320117187499989,15.235126043744117,1702.6893],[-91.315478515624989,15.263055731244123,1652.2456],[-91.310961914062489,15.27155182499412,1419.9852],[-91.302978515625,15.27680084843162,1514.5258],[-91.259570312499989,15.284540106244123,1345.5592],[-91.236914062499991,15.29181549686912,1457.4092],[-91.227880859374991,15.29205963749412,1361.1543],[-91.203417968749989,15.287713934369123,1318.2517],[-91.194628906249989,15.288690496869123,1255.3981],[-91.17919921875,15.292108465619123,1446.6603],[-91.171728515624991,15.29230377811912,1354.7273],[-91.162841796875,15.29059479374412,1249.5148],[-91.139013671874991,15.28180573124412,1310.8828],[-91.130786132812489,15.28034088749412,1233.549],[-91.11669921875,15.282977606244117,1189.0081],[-91.10546875,15.29071686405662,1225.0981],[-91.085253906249989,15.309833074994117,1665.7844],[-91.072802734374989,15.314325262494123,1958.0646],[-90.983642578125,15.313495184369117,1937.016],[-90.970703125,15.30890534061912,1811.5043],[-90.940283203124991,15.286737371869123,1214.0797],[-90.927587890624991,15.28253815311912,1474.6836],[-90.905200195312489,15.28143952030662,1414.0732],[-90.894824218749989,15.279559637494117,1399.6165],[-90.884570312499989,15.27374909061912,1273.2789],[-90.865771484374989,15.256708074994123,1252.3176],[-90.857470703124989,15.252557684369123,1257.609],[-90.691650390625,15.214862371869117,1044.605],[-90.574462890625,15.209833074994123,1048.61],[-90.541430664062489,15.21234772343162,798.0],[-90.497363281249989,15.27069733280662,798.0],[-90.487890624999991,15.28754303593162,938.4415],[-90.478564453124989,15.31049225468162,774.6542],[-90.477709960937489,15.33087799686912,1146.7771],[-90.49365234375,15.339618231244117,1125.8998],[-90.650927734374989,15.36298248905662,815.6383],[-90.68212890625,15.37482330936912,1162.3799],[-90.702807617187489,15.39423248905662,880.2257],[-90.707861328124991,15.408319403119123,1056.1073],[-90.709814453124991,15.42645905155662,792.7822],[-90.705737304687489,15.44220612186912,484.3329],[-90.692236328124991,15.448846746869123,961.7162],[-90.65234375,15.45246002811912,524.0248],[-90.640185546874989,15.458758856244117,1131.8676],[-90.648193359375,15.469354559369123,444.351],[-90.648193359375,15.47614166874412,559.5066],[-90.620214843749991,15.500360418744123,329.5744],[-90.614599609374991,15.503045965619123,413.7872],[-90.603857421874991,15.51398346561912,321.982],[-90.597094726562489,15.52582428593162,581.6774],[-90.603515625,15.531366278119123,502.4698],[-90.608740234374991,15.540643621869123,360.3987],[-90.614165849260388,15.557037566127176,356.7576]]}}