{"type": "Feature","bbox": [-89.7322,14.7033,-89.4377,14.875],"geometry": {"type": "MultiPolygon","coordinates": [[[[-89.4935,14.8646,578.1918],[-89.497,14.8593,704.0149],[-89.502,14.8573,679.8878],[-89.5072,14.8633,554.9075],[-89.626,14.8642,954.7914],[-89.6465,14.8718,805.4249],[-89.6614,14.875,1399.5171],[-89.7005,14.8432,887.7205],[-89.7078,14.8169,1242.1147],[-89.6967,14.7804,1489.5681],[-89.7012,14.7741,1328.9764],[-89.7037,14.7519,1169.4302],[-89.7267,14.7402,1135.6016],[-89.7322,14.7408,1178.2384],[-89.7124,14.7309,909.9629],[-89.7055,14.7367,944.7316],[-89.6964,14.7396,978.0347],[-89.6802,14.7571,1415.6987],[-89.6703,14.7572,1322.6967],[-89.6612,14.7549,1408.5938],[-89.6156,14.7543,840.1763],[-89.6082,14.7587,1103.8113],[-89.6037,14.7592,1054.3235],[-89.5996,14.7666,929.6064],[-89.5612,14.7477,385.2991],[-89.5617,14.7386,407.1039],[-89.5594,14.7383,419.4599],[-89.5525,14.7447,395.31],[-89.5445,14.7417,443.7454],[-89.5396,14.7379,491.87],[-89.5381,14.732,579.1194],[-89.5411,14.7267,581.8891],[-89.5401,14.722,710.6425],[-89.5282,14.7033,958.6542],[-89.5163,14.7068,913.5637],[-89.4898,14.7053,633.8873],[-89.4901,14.7217,536.9165],[-89.4926,14.7245,497.941],[-89.4767,14.7296,549.3693],[-89.475,14.7357,596.8983],[-89.4637,14.7423,735.8395],[-89.4447,14.759,754.0892],[-89.445,14.7611,706.6067],[-89.4488,14.7603,788.6114],[-89.4569,14.7645,923.7881],[-89.4589,14.7671,985.9311],[-89.4493,14.7763,1076.9823],[-89.4561,14.7775,1178.2092],[-89.4723,14.7877,775.6255],[-89.4739,14.7942,911.0699],[-89.4723,14.8035,955.7641],[-89.4706,14.8063,1096.0601],[-89.4672,14.8072,1208.4254],[-89.4561,14.8069,1389.1667],[-89.4437,14.7978,1270.1051],[-89.4377,14.8202,941.7086],[-89.4473,14.826599999999999,1117.6284],[-89.4538,14.8288,1269.585],[-89.4551,14.8434,1332.1063],[-89.4607,14.8475,937.3373],[-89.46,14.8531,705.4686],[-89.468,14.8633,337.4269],[-89.4935,14.8646,578.1918]]]]}
,"properties": {"GID_2": "GTM.4.2_1","GID_0": "GTM","country": "Guatemala","GID_1": "GTM.4_1","province": "Chiquimula","NL_NAME_1": "NA","county": "Chiquimula","VARNAME_2": "NA","NL_NAME_2": "NA","TYPE_2": "Municipio","ENGTYPE_2": "Municipality","CC_2": "NA","HASC_2": "NA","name": "Chiquimula.county","area_km2": 363.7911,"hist_schema_id": "Elevation0-9000","hist_area_km2": {"275": 0.6353,"300": 0.8402,"325": 4.6936,"350": 12.1962,"375": 18.7984,"400": 15.6413,"425": 13.5092,"450": 12.0743,"475": 10.1884,"500": 9.7989,"525": 9.1224,"550": 8.8147,"575": 8.9992,"600": 8.5893,"625": 8.0151,"650": 7.5436,"675": 6.8671,"700": 6.5801,"725": 7.2567,"750": 7.4613,"775": 7.9738,"800": 7.7688,"825": 8.5885,"850": 8.281,"875": 8.117,"900": 7.2357,"925": 7.0923,"950": 6.1495,"975": 7.6254,"1000": 6.416,"1025": 7.0105,"1050": 6.5187,"1075": 5.5758,"1100": 5.8423,"1125": 5.4938,"1150": 5.0428,"1175": 5.0223,"1200": 4.2433,"1225": 4.4891,"1250": 4.3867,"1275": 3.5872,"1300": 3.8126,"1325": 3.9561,"1350": 3.8742,"1375": 4.0176,"1400": 4.2226,"1425": 3.8536,"1450": 4.0793,"1475": 3.1977,"1500": 3.2387,"1525": 3.4231,"1550": 2.6647,"1575": 2.9106,"1600": 2.9312,"1625": 2.0498,"1650": 1.5989,"1675": 1.4349,"1700": 1.4145,"1725": 0.5945,"1750": 0.205,"1775": 0.164,"1800": 0.0615}}}