{"type":"Feature","properties":{"GID_2":"GTM.20.17_1","GID_0":"GTM","country":"Guatemala","GID_1":"GTM.20_1","province":"Suchitepéquez","NL_NAME_1":"NA","county":"SantaBárbara","VARNAME_2":"NA","NL_NAME_2":"NA","TYPE_2":"Municipio","ENGTYPE_2":"Municipality","CC_2":"NA","HASC_2":"NA","name":"Santa_Bárbara.county"},
"geometry":{"type": "MultiPolygon","coordinates": [[[[-91.2616,14.5313,812.3001],[-91.2631,14.5202,659.4896],[-91.2761,14.5127,629.8721],[-91.2947,14.5058,508.7796],[-91.3,14.4966,453.2137],[-91.3171,14.4836,339.1409],[-91.324,14.48,313.2158],[-91.3351,14.4714,269.916],[-91.3377,14.4676,263.8941],[-91.3156,14.4636,325.6841],[-91.2885,14.4622,366.0227],[-91.2881,14.4445,313.7988],[-91.2839,14.4375,326.7022],[-91.2854,14.4335,297.2433],[-91.285,14.4262,295.3041],[-91.2802,14.4184,255.752],[-91.2804,14.4137,238.1501],[-91.2783,14.4105,233.5703],[-91.258,14.4063,224.9524],[-91.2395,14.3948,228.407],[-91.2346,14.4077,273.0616],[-91.2264,14.4125,254.0095],[-91.2122,14.4287,374.3854],[-91.2067,14.4319,410.4904],[-91.1931,14.4306,396.4154],[-91.1892,14.4355,424.1986],[-91.1879,14.4435,528.3183],[-91.1927,14.4481,596.5142],[-91.1888,14.4522,631.8228],[-91.1857,14.4624,746.8578],[-91.1885,14.4678,580.5068],[-91.1935,14.4723,614.5397],[-91.1817,14.4907,707.8921],[-91.1783,14.5016,756.6606],[-91.1861,14.5312,1273.7646],[-91.1789,14.561,2072.9202],[-91.1958,14.5628,2060.5813],[-91.2086,14.5602,1682.1193],[-91.2186,14.5558,1415.593],[-91.2236,14.5563,1239.6514],[-91.251,14.5379,812.2793],[-91.253,14.535,792.4869],[-91.2526,14.5272,707.897],[-91.2538,14.5256,699.1035],[-91.2553,14.5261,699.1035],[-91.2557,14.5334,809.8573],[-91.2616,14.5313,812.3001]]]]}}