{"type":"Feature","properties":{"GID_2":"GTM.6.8_1","GID_0":"GTM","country":"Guatemala","GID_1":"GTM.6_1","province":"Escuintla","NL_NAME_1":"NA","county":"Palín","VARNAME_2":"NA","NL_NAME_2":"NA","TYPE_2":"Municipio","ENGTYPE_2":"Municipality","CC_2":"NA","HASC_2":"NA","name":"Palín.county"},
"geometry":{"type": "MultiPolygon","coordinates": [[[[-90.713,14.3262,347.1407],[-90.7095,14.3354,427.9028],[-90.7057,14.337,437.9685],[-90.705,14.3441,452.8227],[-90.6995,14.3472,624.5676],[-90.6939,14.3538,555.4779],[-90.6909,14.3541,594.7826],[-90.687,14.3629,711.9149],[-90.6826,14.3653,737.9344],[-90.6756,14.363,860.4706],[-90.6726,14.3666,809.7791],[-90.6655,14.3657,925.7714],[-90.6506,14.4155,1438.6514],[-90.6322,14.4431,1193.4304],[-90.6351,14.4491,1180.2],[-90.6354,14.4606,1184.9257],[-90.6511,14.4764,1349.5233],[-90.7194,14.4244,1489.0154],[-90.7416,14.4636,3595.2747],[-90.7441,14.4578,3165.5083],[-90.767,14.4392,1663.3816],[-90.7734,14.4297,1385.9185],[-90.7815,14.4312,1344.8619],[-90.7835,14.4297,1312.165],[-90.7904,14.4134,1024.366],[-90.7693,14.4139,1194.3118],[-90.7637,14.4109,1189.3262],[-90.7478,14.4079,1160.6448],[-90.745,14.4047,1113.3838],[-90.7476,14.3876,891.0533],[-90.7457,14.3802,818.0201],[-90.7341,14.3726,783.2446],[-90.7469,14.3708,747.9617],[-90.7492,14.3608,663.9958],[-90.7534,14.357,625.2254],[-90.7544,14.3528,603.4612],[-90.7486,14.3433,549.4428],[-90.7456,14.3459,609.5821],[-90.7438,14.342,552.2422],[-90.7422,14.3286,544.8716],[-90.713,14.3262,347.1407]]]]}}