{"type": "Feature","bbox": [-89.8861,14.8199,-89.6888,14.9507],"geometry": {"type": "MultiPolygon","coordinates": [[[[-89.6888,14.8521,1317.4526],[-89.725,14.8704,670.1624],[-89.723,14.8739,581.2733],[-89.716,14.8765,775.5383],[-89.7105,14.8992,451.8857],[-89.715,14.91,486.8914],[-89.7291,14.9137,288.8402],[-89.7307,14.9155,276.5714],[-89.737,14.9161,261.2645],[-89.7391,14.93,250.0527],[-89.744,14.9347,239.8904],[-89.7383,14.9497,214.825],[-89.7441,14.9507,202.5832],[-89.7569,14.9428,205.8952],[-89.7656,14.9408,205.4019],[-89.7771,14.941,206.0732],[-89.7816,14.9376,207.2359],[-89.7948,14.9444,211.6171],[-89.7999,14.9449,212.2092],[-89.8088,14.9424,217.8643],[-89.8124,14.938,221.4535],[-89.8059,14.9224,271.4436],[-89.8081,14.9114,385.4809],[-89.8125,14.903,432.1779],[-89.8398,14.8848,699.8649],[-89.8451,14.8731,843.5756],[-89.8508,14.869,885.7464],[-89.8576,14.8679,987.6179],[-89.8584,14.8602,989.3662],[-89.8608,14.8547,886.2023],[-89.8682,14.8493,868.931],[-89.8824,14.8454,1181.2737],[-89.8861,14.843,1222.665],[-89.8372,14.8199,629.3622],[-89.8211,14.8212,867.7728],[-89.8173,14.8252,845.2228],[-89.8119,14.8264,743.6031],[-89.8077,14.8327,597.2551],[-89.8017,14.8366,569.9152],[-89.7952,14.8344,811.3844],[-89.7861,14.8369,827.8105],[-89.7785,14.8424,666.7361],[-89.7652,14.8417,674.2228],[-89.764,14.8358,642.6493],[-89.7598,14.8323,729.3915],[-89.7305,14.8254,1059.3805],[-89.7215,14.8352,1098.2013],[-89.7172,14.8342,1117.717],[-89.7113,14.8238,1201.6971],[-89.7058,14.8231,1080.7396],[-89.7005,14.8432,887.7205],[-89.6888,14.8521,1317.4526]]]]}
,"properties": {"GID_2": "GTM.22.1_1","GID_0": "GTM","country": "Guatemala","GID_1": "GTM.22_1","province": "Zacapa","NL_NAME_1": "NA","county": "Cabañas","VARNAME_2": "NA","NL_NAME_2": "NA","TYPE_2": "Municipio","ENGTYPE_2": "Municipality","CC_2": "NA","HASC_2": "NA","name": "Cabañas.county","area_km2": 161.822,"hist_schema_id": "Elevation0-9000","hist_area_km2": {"200": 3.0523,"225": 6.7604,"250": 7.1498,"275": 4.6507,"300": 4.733,"325": 4.4258,"350": 5.471,"375": 5.9628,"400": 5.2252,"425": 5.6966,"450": 6.1679,"475": 6.5778,"500": 7.3975,"525": 6.8443,"550": 7.0698,"575": 7.3157,"600": 8.1764,"625": 6.7216,"650": 6.4961,"675": 5.1028,"700": 4.5495,"725": 3.6274,"750": 3.6889,"775": 3.2791,"800": 3.3201,"825": 2.9922,"850": 3.2381,"875": 2.4798,"900": 2.5618,"925": 2.3569,"950": 1.8855,"975": 1.6191,"1000": 1.0042,"1025": 0.8608,"1050": 0.6148,"1075": 0.5124,"1100": 0.4304,"1125": 0.3484,"1150": 0.3279,"1175": 0.3074,"1200": 0.2459,"1225": 0.1845,"1250": 0.1844,"1275": 0.1639,"1300": 0.0205,"1350": 0.0205}}}