{"type": "Feature","bbox": [-92.1351,15.051,-91.9907,15.1758],"geometry": {"type": "MultiPolygon","coordinates": [[[[-91.9907,15.162,2685.071],[-91.999,15.1691,3130.0562],[-92.012,15.1731,2952.3398],[-92.0411,15.1758,3147.2217],[-92.0465,15.1753,3177.8696],[-92.0632,15.1639,3259.0723],[-92.0678,15.1666,3379.4111],[-92.0936,15.1564,2796.5713],[-92.1001,15.1573,2756.8784],[-92.1063,15.154,2876.4897],[-92.1091,15.1538,2877.3662],[-92.1161,15.1597,2456.8364],[-92.1227,15.1629,2253.1445],[-92.1351,15.1658,1820.0814],[-92.0747,15.0893,1536.2593],[-92.0762,15.0793,1335.7969],[-92.0703,15.0647,1158.114],[-92.0732,15.0614,1066.1997],[-92.0703,15.0559,1080.8324],[-92.0722,15.051,1006.7252],[-92.0684,15.0528,1121.8585],[-92.0674,15.0622,1313.3342],[-92.0612,15.07,1178.7053],[-92.0441,15.076,1331.573],[-92.0357,15.0899,1427.3247],[-92.0203,15.0946,1667.1958],[-92.015,15.0992,1593.751],[-92.012,15.1037,1678.3022],[-92.0127,15.1174,1758.4609],[-92.0038,15.1324,2004.4082],[-92.0046,15.1375,2024.7986],[-91.9991,15.1428,2260.4673],[-91.9999,15.1493,2265.5918],[-91.9907,15.162,2685.071]]]]}
,"properties": {"GID_2": "GTM.17.25_1","GID_0": "GTM","country": "Guatemala","GID_1": "GTM.17_1","province": "SanMarcos","NL_NAME_1": "NA","county": "SanSibinal","VARNAME_2": "NA","NL_NAME_2": "NA","TYPE_2": "Municipio","ENGTYPE_2": "Municipality","CC_2": "NA","HASC_2": "NA","name": "San_Sibinal.county","area_km2": 98.36578,"hist_schema_id": "Elevation0-9000","hist_area_km2": {"1025": 0.06142,"1050": 0.02047,"1075": 0.04095,"1100": 0.10237,"1125": 0.06142,"1150": 0.22521,"1175": 0.10237,"1200": 0.10236,"1225": 0.14331,"1250": 0.49134,"1275": 0.47086,"1300": 0.55275,"1325": 0.67558,"1350": 0.5118,"1375": 0.77794,"1400": 1.10549,"1425": 0.83934,"1450": 1.0031,"1475": 0.65508,"1500": 0.73696,"1525": 0.57318,"1550": 0.61412,"1575": 0.69601,"1600": 0.59365,"1625": 0.67553,"1650": 0.67553,"1675": 0.79834,"1700": 0.65505,"1725": 0.75738,"1750": 1.00303,"1775": 0.88021,"1800": 0.65503,"1825": 0.92113,"1850": 0.75737,"1875": 0.67549,"1900": 0.65502,"1925": 0.9211,"1950": 0.79829,"1975": 0.85969,"2000": 0.98251,"2025": 0.88015,"2050": 0.98247,"2075": 0.94157,"2100": 0.79827,"2125": 0.81872,"2150": 1.12574,"2175": 1.24856,"2200": 1.04386,"2225": 1.22807,"2250": 1.10525,"2275": 1.08476,"2300": 1.22807,"2325": 1.2485,"2350": 1.26898,"2375": 1.6169,"2400": 1.80111,"2425": 2.14899,"2450": 2.27179,"2475": 2.31271,"2500": 1.8829,"2525": 2.14893,"2550": 2.35358,"2575": 1.82145,"2600": 2.12843,"2625": 1.98518,"2650": 1.90329,"2675": 1.98515,"2700": 2.29212,"2725": 1.88284,"2750": 1.53492,"2775": 1.4735,"2800": 1.76002,"2825": 1.5963,"2850": 1.73954,"2875": 1.55535,"2900": 1.30975,"2925": 1.3916,"2950": 1.20743,"2975": 1.2279,"3000": 0.98231,"3025": 1.08466,"3050": 0.98234,"3075": 0.96189,"3100": 0.71631,"3125": 0.9414,"3150": 0.96188,"3175": 0.61397,"3200": 0.63443,"3225": 0.42978,"3250": 0.34792,"3275": 0.32745,"3300": 0.3684,"3325": 0.45025,"3350": 0.2456,"3375": 0.40932,"3400": 0.32746,"3425": 0.2456,"3450": 0.307,"3475": 0.16374,"3500": 0.1842,"3525": 0.20467,"3550": 0.26607,"3575": 0.16373,"3600": 0.2456,"3625": 0.14327,"3650": 0.16373,"3675": 0.22514,"3700": 0.16373,"3725": 0.16373,"3750": 0.14327,"3775": 0.1228,"3800": 0.08187,"3825": 0.04093,"3850": 0.0614,"3875": 0.04093,"3900": 0.02047,"3925": 0.04093,"3950": 0.02047,"3975": 0.08187,"4000": 0.08187,"4050": 0.02047,"4075": 0.02047}}}