{"type": "Feature","bbox": [-89.2221,15.0703,-88.8623,15.52],"geometry": {"type": "MultiPolygon","coordinates": [[[[-89.2167,15.4147,2.9755],[-89.214,15.4079,4.5098],[-89.2149,15.3949,9.3444],[-89.2116,15.3883,18.608],[-89.2023,15.3872,18.6755],[-89.2011,15.3731,40.6415],[-89.2099,15.3408,104.3512],[-89.2083,15.3253,137.8514],[-89.205,15.3215,209.2034],[-89.2099,15.3089,174.185],[-89.2221,15.2921,281.9246],[-89.2185,15.287,421.1176],[-89.2173,15.2802,439.196],[-89.2135,15.2749,710.1196],[-89.1997,15.2778,700.6981],[-89.1871,15.2834,689.5095],[-89.1842,15.2818,601.5813],[-89.1833,15.272,672.5642],[-89.18,15.27,629.0696],[-89.1724,15.2696,631.7092],[-89.1701,15.2114,83.6237],[-89.1743,15.2059,104.2684],[-89.2041,15.1921,103.2369],[-89.2138,15.1842,110.0484],[-89.2084,15.1799,158.0025],[-89.1959,15.1797,207.7443],[-89.1965,15.1776,207.7406],[-89.1916,15.1755,225.7723],[-89.1936,15.1687,190.1884],[-89.1893,15.168,196.4881],[-89.1879,15.1594,183.0522],[-89.1858,15.1581,188.097],[-89.1859,15.1502,217.5205],[-89.1778,15.1455,297.3105],[-89.1749,15.1381,345.9618],[-89.1776,15.1353,354.4658],[-89.1746,15.1334,532.7686],[-89.1752,15.1297,445.0454],[-89.1733,15.1274,405.0121],[-89.1747,15.1159,289.4083],[-89.1813,15.1076,402.4319],[-89.1742,15.0997,523.9933],[-89.1699,15.0885,545.2271],[-89.1633,15.0834,508.4327],[-89.1628,15.0798,433.6278],[-89.1589,15.0803,476.6645],[-89.1564,15.0764,519.7113],[-89.1479,15.0703,621.4858],[-89.0484,15.1057,533.4534],[-88.9671,15.1371,229.8875],[-88.8623,15.2258,973.9398],[-88.8701,15.2207,1020.0445],[-88.8713,15.2295,939.02],[-88.8751,15.2354,864.8484],[-88.8792,15.2364,907.0309],[-88.8856,15.2347,798.476],[-88.8897,15.2353,899.7083],[-88.8917,15.2393,687.4132],[-88.8912,15.2448,522.3131],[-88.8875,15.2487,523.2965],[-88.8864,15.2564,462.6093],[-88.8842,15.2589,486.5984],[-88.8978,15.2732,453.3177],[-88.8988,15.2778,433.8272],[-88.9026,15.2806,386.7072],[-88.9218,15.2789,327.2211],[-88.9485,15.2859,71.9547],[-88.9522,15.2883,58.7137],[-88.9483,15.2984,61.5654],[-88.937,15.3103,58.1516],[-88.9268,15.3083,55.5608],[-88.9206,15.3119,53.5],[-88.9172,15.3196,57.5593],[-88.9235,15.3362,52.8575],[-88.9206,15.3389,51.5199],[-88.9161,15.3402,52.8076],[-88.9135,15.3455,53.2627],[-88.9148,15.3477,51.3818],[-88.9234,15.3505,50.0],[-88.9207,15.3569,50.5293],[-88.9159,15.3607,50.5538],[-88.9152,15.3663,49.4541],[-88.9195,15.3722,57.4685],[-88.9248,15.3653,54.3627],[-88.9292,15.3679,49.7588],[-88.9369,15.3923,59.0421],[-88.9416,15.3997,58.4137],[-88.9509,15.4027,55.4465],[-88.9659,15.4035,54.278],[-88.9797,15.4034,59.1117],[-88.9845,15.4004,61.3517],[-88.9886,15.4011,61.6999],[-88.9949,15.4039,65.3027],[-89.0015,15.4136,75.048],[-89.0039,15.4145,77.067],[-89.0115,15.4097,97.7221],[-89.017,15.4122,123.0537],[-89.0272,15.4056,145.9731],[-89.0269,15.4264,330.4083],[-89.0332,15.4342,191.4748],[-89.0307,15.4369,269.614],[-88.9967,15.453,401.6746],[-88.9849,15.4531,519.3899],[-88.9759,15.4571,386.3539],[-88.9714,15.4641,434.0925],[-88.9682,15.4832,134.3891],[-88.9732,15.4893,109.0349],[-88.9779,15.5011,36.6841],[-88.9743,15.5038,16.702],[-88.9754,15.516,4.1246],[-88.9817,15.52,3.2311],[-88.9836,15.5086,6.055],[-89.0014,15.4995,1.4188],[-89.0098,15.4899,1.3338],[-89.017,15.4884,0.0],[-89.0203,15.4838,5.0861],[-89.0189,15.4815,8.2561],[-89.0197,15.477,8.5556],[-89.0299,15.4709,4.8432],[-89.0292,15.4665,148.6727],[-89.0345,15.462,50.1984],[-89.0395,15.4606,9.5809],[-89.0481,15.4533,3.1893],[-89.0562,15.4496,0.5643],[-89.0577,15.4459,2.3798],[-89.0635,15.4406,1.4717],[-89.0694,15.4405,0.0],[-89.0771,15.4272,6.3914],[-89.0949,15.4173,0.0],[-89.1074,15.4186,0.0],[-89.121,15.4084,49.3577],[-89.1561,15.4052,0.0],[-89.1682,15.4078,0.0],[-89.1759,15.4054,1.0436],[-89.1823,15.4085,0.0],[-89.2017,15.4084,1.1766],[-89.2167,15.4147,2.9755]]]]}
,"properties": {"GID_2": "GTM.9.3_1","GID_0": "GTM","country": "Guatemala","GID_1": "GTM.9_1","province": "Izabal","NL_NAME_1": "NA","county": "LosAmates","VARNAME_2": "NA","NL_NAME_2": "NA","TYPE_2": "Municipio","ENGTYPE_2": "Municipality","CC_2": "NA","HASC_2": "NA","name": "Los_Amates.county","area_km2": 1050.1918,"hist_schema_id": "Elevation0-9000","hist_area_km2": {"0": 21.2761,"25": 18.3345,"50": 77.6331,"75": 183.4195,"100": 68.5772,"125": 43.9711,"150": 42.7473,"175": 39.6803,"200": 34.3409,"225": 32.929,"250": 31.4146,"275": 28.7364,"300": 27.6733,"325": 26.1807,"350": 24.6068,"375": 24.2187,"400": 22.4808,"425": 22.4402,"450": 19.9037,"475": 18.4318,"500": 19.5585,"525": 22.0565,"550": 20.0935,"575": 18.5789,"600": 16.1439,"625": 15.7549,"650": 14.425,"675": 14.9981,"700": 12.2971,"725": 12.2153,"750": 10.067,"775": 8.7572,"800": 7.7343,"825": 5.6676,"850": 5.688,"875": 4.3174,"900": 4.0517,"925": 3.6015,"950": 3.786,"975": 3.1106,"1000": 2.7218,"1025": 2.5581,"1050": 1.8007,"1075": 1.6575,"1100": 1.1458,"1125": 0.9002,"1150": 0.9002,"1175": 0.6956,"1200": 0.8798,"1225": 0.8593,"1250": 0.8184,"1275": 0.5115,"1300": 0.757,"1325": 0.5319,"1350": 0.4706,"1375": 0.4296,"1400": 0.1841,"1425": 0.2046,"1450": 0.1841,"1475": 0.0818}}}