{"type":"Feature","properties":{"GID_2":"GTM.16.6_1","GID_0":"GTM","country":"Guatemala","GID_1":"GTM.16_1","province":"Sacatepéquez","NL_NAME_1":"NA","county":"Pastores","VARNAME_2":"NA","NL_NAME_2":"NA","TYPE_2":"Municipio","ENGTYPE_2":"Municipality","CC_2":"NA","HASC_2":"NA","name":"Pastores.county"},
"geometry":{"type": "MultiPolygon","coordinates": [[[[-90.7907,14.6242,1680.5103],[-90.7889,14.6111,1757.1548],[-90.7923,14.6053,1722.1595],[-90.7933,14.5952,1774.2488],[-90.8,14.5884,1814.8801],[-90.8007,14.5814,1833.7053],[-90.8044,14.5794,1931.9426],[-90.8043,14.5727,1998.4681],[-90.794,14.5681,2098.7056],[-90.7887,14.571,2075.3203],[-90.7813,14.5683,1811.2607],[-90.7782,14.5712,1916.3076],[-90.7738,14.5713,1968.3096],[-90.7668,14.5647,1910.7764],[-90.7635,14.5681,1771.0951],[-90.7521,14.5615,1599.5793],[-90.7472,14.5677,1539.7101],[-90.7472,14.575,1539.67],[-90.7501,14.5781,1576.7904],[-90.7475,14.5865,1554.082],[-90.7424,14.5894,1654.5681],[-90.7304,14.6085,2047.3528],[-90.7258,14.6091,2070.7266],[-90.7289,14.6157,2102.8486],[-90.7454,14.6126,1867.7205],[-90.7482,14.6136,1770.1458],[-90.7548,14.6237,1715.1873],[-90.7645,14.6346,1774.4355],[-90.7757,14.6382,1776.1267],[-90.7782,14.6342,1747.0988],[-90.7775,14.6271,1754.7562],[-90.7828,14.632,1775.8973],[-90.7907,14.6242,1680.5103]]]]}}