{"type":"Feature","properties":{"GID_2":"GTM.18.1_1","GID_0":"GTM","country":"Guatemala","GID_1":"GTM.18_1","province":"SantaRosa","NL_NAME_1":"NA","county":"Barberena","VARNAME_2":"NA","NL_NAME_2":"NA","TYPE_2":"Municipio","ENGTYPE_2":"Municipality","CC_2":"NA","HASC_2":"NA","name":"Barberena.county"},
"geometry":{"type": "MultiPolygon","coordinates": [[[[-90.4296,14.3579,1052.1145],[-90.4285,14.3547,1052.0463],[-90.4304,14.3486,1028.442],[-90.4292,14.3447,1008.9634],[-90.4323,14.3425,981.8141],[-90.4334,14.3383,1027.8169],[-90.4388,14.338,965.8004],[-90.434,14.3341,972.8487],[-90.434,14.3268,982.6344],[-90.4409,14.3081,963.0012],[-90.4449,14.3022,986.4298],[-90.4448,14.2953,960.537],[-90.4419,14.2898,935.9199],[-90.4378,14.2895,995.2765],[-90.435,14.2854,1002.8066],[-90.4434,14.2562,993.2961],[-90.4404,14.2514,1074.4941],[-90.4442,14.2298,1055.3181],[-90.4422,14.2231,1035.9774],[-90.4439,14.2092,1153.9006],[-90.434,14.1973,1101.6318],[-90.4222,14.1961,1101.4607],[-90.4171,14.2055,1312.1788],[-90.4089,14.2069,1160.0394],[-90.3884,14.2051,806.9601],[-90.3914,14.2181,1216.1309],[-90.387,14.2308,1179.2091],[-90.3642,14.2346,814.6815],[-90.3568,14.244,755.0461],[-90.3558,14.252,886.6711],[-90.3545,14.2523,902.6953],[-90.3532,14.2479,771.6945],[-90.3511,14.248,755.4553],[-90.3307,14.2606,855.2729],[-90.3345,14.2742,956.7766],[-90.3331,14.2813,1031.9814],[-90.3437,14.2857,1220.2935],[-90.3429,14.3023,1232.0967],[-90.3403,14.3067,1185.0602],[-90.3422,14.3097,1214.6962],[-90.3224,14.3275,1302.7769],[-90.3249,14.332,1348.343],[-90.3285,14.3323,1295.3937],[-90.3321,14.3439,1395.6023],[-90.3398,14.3459,1339.0969],[-90.3423,14.3452,1328.6549],[-90.3506,14.3387,1330.7563],[-90.3492,14.3375,1354.2327],[-90.3657,14.3438,1417.0892],[-90.3694,14.3518,1423.0215],[-90.3797,14.3577,1295.755],[-90.3981,14.3749,1128.5337],[-90.4018,14.3755,1138.0272],[-90.4025,14.3743,1120.6892],[-90.404,14.3767,1142.8824],[-90.4131,14.3809,1118.687],[-90.4147,14.3793,1102.9102],[-90.4169,14.3826,1128.1448],[-90.4224,14.3849,1148.8857],[-90.4241,14.3841,1148.8857],[-90.4257,14.3796,1108.3291],[-90.4308,14.3788,1172.1353],[-90.4303,14.3871,1129.1401],[-90.4351,14.3931,1121.3912],[-90.4356,14.3826,1109.9841],[-90.4329,14.3668,1060.1541],[-90.4296,14.3579,1052.1145]]]]}}