{"type": "Feature","bbox": [-90.6153,14.7224,-90.5016,14.8892],"geometry": {"type": "MultiPolygon","coordinates": [[[[-90.5597,14.8766,703.9811],[-90.5633,14.8658,855.9808],[-90.5723,14.8602,823.6976],[-90.5804,14.8499,882.2446],[-90.5807,14.845,779.3602],[-90.5797,14.8435,831.4977],[-90.5785,14.8448,815.887],[-90.5779,14.8412,864.423],[-90.5765,14.84,910.7271],[-90.5732,14.8438,901.0715],[-90.565,14.8322,1037.7345],[-90.5656,14.8301,1007.592],[-90.5707,14.828,1019.453],[-90.5716,14.8261,1014.7581],[-90.5666,14.8135,1097.6637],[-90.5685,14.8077,1191.1689],[-90.5688,14.7964,1300.2162],[-90.5739,14.798,1339.767],[-90.5872,14.7966,1467.5187],[-90.5912,14.8005,1460.3569],[-90.6091,14.7801,1571.5468],[-90.6055,14.78,1590.468],[-90.5985,14.7723,1579.4666],[-90.6029,14.7692,1575.093],[-90.6124,14.7536,1579.3464],[-90.6153,14.7523,1579.4232],[-90.6106,14.7415,1686.0236],[-90.6059,14.7414,1628.7231],[-90.6002,14.746,1651.387],[-90.6011,14.7326,1711.9312],[-90.5953,14.7309,1756.254],[-90.5943,14.7264,1763.9933],[-90.5736,14.7232,1576.7092],[-90.568,14.7249,1544.1613],[-90.5632,14.7225,1499.4213],[-90.5588,14.7224,1470.2144],[-90.5459,14.7243,1443.165],[-90.5445,14.7452,1357.8315],[-90.5376,14.7519,1369.074],[-90.5321,14.7527,1372.5222],[-90.5345,14.766,1522.407],[-90.5271,14.776,1476.0295],[-90.5217,14.7715,1366.4358],[-90.5205,14.7687,1421.359],[-90.5027,14.7691,1164.6901],[-90.5096,14.7926,1092.708],[-90.5091,14.7953,1124.6353],[-90.5062,14.7956,939.0709],[-90.5016,14.8086,1017.2102],[-90.5073,14.8138,1171.8539],[-90.511,14.8129,1183.2639],[-90.5151,14.8144,1301.4138],[-90.5197,14.8117,1249.3373],[-90.528,14.8122,1331.3922],[-90.5309,14.8144,1411.3687],[-90.5327,14.8132,1438.2317],[-90.5344,14.8068,1325.3215],[-90.5363,14.8065,1377.3491],[-90.5436,14.8108,1297.3679],[-90.5375,14.8202,1414.4003],[-90.5339,14.8344,1127.8057],[-90.5336,14.8477,869.7805],[-90.5316,14.8488,810.2811],[-90.5241,14.8465,838.4434],[-90.5182,14.8512,884.7042],[-90.516,14.8714,725.968],[-90.5265,14.8831,624.3404],[-90.527,14.8855,583.1165],[-90.5367,14.8892,701.4164],[-90.5597,14.8766,703.9811]]]]}
,"properties": {"GID_2": "GTM.7.13_1","GID_0": "GTM","country": "Guatemala","GID_1": "GTM.7_1","province": "Guatemala","NL_NAME_1": "NA","county": "SanRaymundo","VARNAME_2": "NA","NL_NAME_2": "NA","TYPE_2": "Municipio","ENGTYPE_2": "Municipality","CC_2": "NA","HASC_2": "NA","name": "San_Raymundo.county","area_km2": 113.95494,"hist_schema_id": "Elevation0-9000","hist_area_km2": {"575": 0.38933,"600": 0.61474,"625": 0.4713,"650": 0.61474,"675": 0.69672,"700": 1.08607,"725": 1.27052,"750": 1.82386,"775": 1.94682,"800": 1.92635,"825": 2.09031,"850": 2.23377,"875": 2.15182,"900": 1.80345,"925": 1.76247,"950": 1.74203,"975": 1.53714,"1000": 1.63964,"1025": 1.51669,"1050": 1.66023,"1075": 1.57828,"1100": 1.63976,"1125": 1.55782,"1150": 1.51685,"1175": 1.72183,"1200": 1.74233,"1225": 1.72185,"1250": 2.3368,"1275": 2.7263,"1300": 2.45982,"1325": 2.56235,"1350": 2.82888,"1375": 3.60797,"1400": 4.44866,"1425": 3.89543,"1450": 4.1416,"1475": 3.95697,"1500": 4.53099,"1525": 6.37617,"1550": 6.47865,"1575": 9.30789,"1600": 4.83843,"1625": 2.91141,"1650": 1.92741,"1675": 2.35805,"1700": 1.2303,"1725": 0.24606,"1750": 0.20505,"1775": 0.12303}}}