{"type": "Feature","bbox": [-90.7086,14.5859,-90.6674,14.6197],"geometry": {"type": "MultiPolygon","coordinates": [[[[-90.6836,14.5872,2303.7195],[-90.6715,14.5859,2156.3818],[-90.6686,14.5873,2160.542],[-90.6674,14.5899,2131.5271],[-90.6697,14.596,2079.2959],[-90.6691,14.6053,2071.6843],[-90.6713,14.6111,2071.8911],[-90.6858,14.6197,2082.1079],[-90.6948,14.6157,2206.0862],[-90.7018,14.6182,2306.4331],[-90.7086,14.6136,2458.1267],[-90.6947,14.6066,2336.0884],[-90.6881,14.5973,2281.8208],[-90.6836,14.5872,2303.7195]]]]}
,"properties": {"GID_2": "GTM.16.8_1","GID_0": "GTM","country": "Guatemala","GID_1": "GTM.16_1","province": "Sacatepéquez","NL_NAME_1": "NA","county": "SanBartoloméMilpasAltas","VARNAME_2": "NA","NL_NAME_2": "NA","TYPE_2": "Municipio","ENGTYPE_2": "Municipality","CC_2": "NA","HASC_2": "NA","name": "San_Bartolomé_Milpas_Altas.county","area_km2": 8.453088,"hist_schema_id": "Elevation0-9000","hist_area_km2": {"2050": 0.123099,"2075": 0.923249,"2100": 0.984821,"2125": 0.779649,"2150": 0.779665,"2175": 0.595008,"2200": 0.615526,"2225": 0.902776,"2250": 0.512935,"2275": 0.512936,"2300": 0.492412,"2325": 0.348792,"2350": 0.307758,"2375": 0.18465,"2400": 0.143615,"2425": 0.102583,"2450": 0.123099,"2475": 0.020516}}}