{"type":"Feature","properties":{"GID_2":"GTM.6.4_1","GID_0":"GTM","country":"Guatemala","GID_1":"GTM.6_1","province":"Escuintla","NL_NAME_1":"NA","county":"LaDemocracia","VARNAME_2":"NA","NL_NAME_2":"NA","TYPE_2":"Municipio","ENGTYPE_2":"Municipality","CC_2":"NA","HASC_2":"NA","name":"La_Democracia.county"},
"geometry":{"type": "MultiPolygon","coordinates": [[[[-90.907,14.2786,158.7159],[-90.9132,14.2737,188.5127],[-90.9196,14.2615,184.2128],[-90.9208,14.2617,187.1004],[-90.9206,14.2667,194.5672],[-90.931,14.2646,206.8565],[-90.9325,14.2808,235.863],[-90.9345,14.2769,232.2398],[-90.9418,14.276,246.3305],[-90.9444,14.27,233.9168],[-90.9517,14.2703,242.5357],[-90.9508,14.2749,248.5335],[-90.9533,14.2744,253.1614],[-90.9541,14.2774,260.0504],[-90.9529,14.28,264.2466],[-90.9727,14.2804,276.1119],[-90.9825,14.283,287.9337],[-90.9812,14.2772,273.8934],[-90.9872,14.2767,274.1392],[-90.9895,14.2674,253.9552],[-90.9866,14.261,238.4934],[-90.9874,14.247,213.8885],[-90.9804,14.2347,192.8879],[-90.9842,14.2166,155.4682],[-90.9818,14.2117,147.7734],[-90.9843,14.2003,126.6523],[-90.9865,14.1979,123.9189],[-90.9853,14.1833,107.3628],[-90.9711,14.177,99.6355],[-90.9617,14.1702,94.3718],[-90.9594,14.166,89.9772],[-90.9601,14.1618,85.6224],[-90.9623,14.1606,85.2059],[-90.9614,14.1519,80.0744],[-90.9647,14.1512,76.197],[-90.9631,14.1467,71.8035],[-90.9677,14.1451,71.996],[-90.9699,14.1495,77.0508],[-90.9731,14.1466,73.0276],[-90.9753,14.1476,73.8466],[-90.975,14.1504,74.8663],[-90.9777,14.1481,73.4659],[-90.9821,14.1544,75.0692],[-90.9784,14.1613,80.6233],[-90.981,14.1636,82.6442],[-90.9899,14.1642,84.1618],[-90.9892,14.1684,86.9006],[-90.9976,14.167,81.3978],[-90.9981,14.1608,77.2516],[-91.0049,14.1523,66.2949],[-91.0051,14.1495,64.5728],[-91.0029,14.1465,65.2545],[-91.005,14.1387,53.2325],[-91.0096,14.136,55.806],[-91.0089,14.1314,47.9254],[-91.0121,14.1267,45.8058],[-91.0116,14.123,47.11],[-91.0168,14.119,48.4822],[-91.0146,14.1165,43.7083],[-91.0217,14.109,45.1868],[-90.9989,14.1067,46.0057],[-90.999,14.1,40.6041],[-91.0034,14.0947,38.5869],[-91.0034,14.0893,37.0672],[-91.0078,14.0893,38.0158],[-91.0077,14.0803,34.4756],[-90.9829,14.0807,36.2315],[-90.9538,14.0669,33.4025],[-90.9007,14.0458,35.1502],[-90.9008,14.0595,38.1838],[-90.9022,14.062,39.1832],[-90.901,14.0668,38.2165],[-90.9074,14.0854,42.8944],[-90.9068,14.0877,43.25],[-90.9041,14.0893,45.7073],[-90.9068,14.1081,49.0],[-90.9025,14.1469,61.375],[-90.8981,14.1535,67.8325],[-90.8962,14.1597,66.0],[-90.8958,14.1652,67.5],[-90.8983,14.1686,70.8184],[-90.899,14.1754,75.2816],[-90.8924,14.1801,72.25],[-90.8915,14.1849,74.375],[-90.8935,14.1904,78.2566],[-90.8881,14.1956,88.2975],[-90.8858,14.201,86.5668],[-90.8869,14.209,88.4265],[-90.8916,14.2151,97.31],[-90.89,14.226,100.73],[-90.8826,14.2364,108.0479],[-90.8825,14.2429,114.3873],[-90.8877,14.2459,115.0229],[-90.8875,14.2484,118.4825],[-90.8983,14.2656,137.3946],[-90.8975,14.2726,147.8157],[-90.907,14.2786,158.7159]]]]}}