{"type":"Feature","properties":{"GID_2":"GTM.8.11_1","GID_0":"GTM","country":"Guatemala","GID_1":"GTM.8_1","province":"Huehuetenango","NL_NAME_1":"NA","county":"Nentón","VARNAME_2":"NA","NL_NAME_2":"NA","TYPE_2":"Municipio","ENGTYPE_2":"Municipality","CC_2":"NA","HASC_2":"NA","name":"Nentón.county"},
"geometry":{"type": "MultiPolygon","coordinates": [[[[-91.6875,15.8202,1315.7903],[-91.6795,15.8355,1147.6307],[-91.6594,15.8473,1353.1953],[-91.6481,15.8463,1513.0256],[-91.6338,15.8636,2342.8765],[-91.6195,15.8701,2670.4272],[-91.6085,15.8643,2488.8562],[-91.5832,15.8717,2421.0146],[-91.575,15.8695,2214.0156],[-91.5675,15.871,2196.8135],[-91.5487,15.8676,2132.4524],[-91.5306,15.8741,2792.5974],[-91.5167,15.8697,2769.7009],[-91.5,15.8819,2779.6257],[-91.5119,15.892,2904.1221],[-91.5122,15.9123,2789.0076],[-91.5145,15.9248,2677.4531],[-91.514,15.9539,2119.2278],[-91.5113,15.9811,1953.8466],[-91.5059,15.9999,1665.3098],[-91.4856,16.0107,1600.9346],[-91.4722,16.012,1472.5702],[-91.4634,16.029,1580.5879],[-91.4599,16.047,1107.2354],[-91.4507,16.0743,804.6829],[-91.7314,16.074,1525.922],[-91.8813,15.821,646.156],[-91.8798,15.8202,652.1756],[-91.8502,15.869,668.2029],[-91.8163,15.8424,678.2695],[-91.778,15.8392,946.9617],[-91.7691,15.8306,923.2117],[-91.7601,15.831,947.9666],[-91.7526,15.8356,971.2365],[-91.7408,15.8248,934.3824],[-91.7264,15.816,907.897],[-91.7131,15.8113,1039.3649],[-91.6875,15.8202,1315.7903]]]]}}