{"type":"Feature","properties":{"GID_2":"GTM.6.7_1","GID_0":"GTM","country":"Guatemala","GID_1":"GTM.6_1","province":"Escuintla","NL_NAME_1":"NA","county":"NuevaConcepción","VARNAME_2":"NA","NL_NAME_2":"NA","TYPE_2":"Municipio","ENGTYPE_2":"Municipality","CC_2":"NA","HASC_2":"NA","name":"Nueva_Concepción.county"},
"geometry":{"type": "MultiPolygon","coordinates": [[[[-91.1738,14.1863,52.8451],[-91.1781,14.191,64.3035],[-91.1767,14.1941,60.2049],[-91.1779,14.2002,64.8159],[-91.1807,14.2001,62.0827],[-91.1809,14.2098,57.1275],[-91.1775,14.2112,57.6591],[-91.1741,14.2089,60.0196],[-91.1732,14.2114,63.8101],[-91.1698,14.2136,61.9817],[-91.1698,14.2209,62.4875],[-91.1797,14.2222,71.4472],[-91.1804,14.2242,72.6003],[-91.1901,14.223,59.9128],[-91.1924,14.2276,70.3595],[-91.1797,14.2713,91.6434],[-91.1739,14.2754,95.469],[-91.1719,14.2789,113.8869],[-91.174,14.2884,109.4651],[-91.2648,14.3039,97.2497],[-91.2693,14.2972,90.504],[-91.2759,14.2916,90.512],[-91.2761,14.2844,86.3556],[-91.2794,14.2818,85.153],[-91.2912,14.26,69.6186],[-91.2965,14.2546,67.3092],[-91.2957,14.2481,69.9431],[-91.298,14.2417,67.5681],[-91.3063,14.2359,58.9506],[-91.3058,14.2331,59.0182],[-91.3105,14.2248,60.3681],[-91.3129,14.2225,54.371],[-91.3161,14.2221,58.45],[-91.323,14.2095,54.8839],[-91.3196,14.2082,54.577],[-91.3208,14.2039,53.5605],[-91.3178,14.2017,53.3811],[-91.3188,14.1852,47.1747],[-91.3229,14.1813,45.9665],[-91.3245,14.1828,45.7985],[-91.335,14.1726,43.3595],[-91.3388,14.1606,38.9419],[-91.3398,14.1512,36.4712],[-91.3449,14.1471,35.4997],[-91.3548,14.1461,34.3035],[-91.3664,14.1381,35.7985],[-91.3674,14.134,32.0972],[-91.3711,14.1289,29.9244],[-91.3753,14.1268,29.0995],[-91.3767,14.1234,28.4961],[-91.3901,14.1213,25.8439],[-91.4217,14.077,16.1469],[-91.424,14.0474,11.3814],[-91.4291,14.0287,7.7897],[-91.4268,14.0153,3.6109],[-91.4297,14.012,4.9928],[-91.4329,14.012,3.205],[-91.4354,14.0051,1.7863],[-91.4335,14.0057,2.2007],[-91.4285,14.0013,3.6189],[-91.391,13.9868,4.3168],[-91.3724,13.9779,0.0],[-91.3679,13.979,4.2878],[-91.3637,13.976,0.4111],[-91.3604,13.9757,0.9196],[-91.3593,13.9732,5.4465],[-91.3615,13.9735,4.2398],[-91.361,13.9726,4.2398],[-91.3443,13.966,4.4627],[-91.3415,13.9663,7.4082],[-91.3346,13.9618,0.6813],[-91.3185,13.9554,0.0],[-91.314,13.9537,0.0],[-91.3121,13.9537,0.0],[-91.3118,13.9565,2.1219],[-91.3101,13.9549,1.5535],[-91.3076,13.955,1.7979],[-91.3078,13.9562,2.4374],[-91.3135,13.9572,2.0504],[-91.314,13.9657,4.3831],[-91.312,13.9717,7.1883],[-91.3026,13.9802,7.3821],[-91.2992,13.9966,9.2248],[-91.2938,14.001,10.4482],[-91.2892,14.0091,10.8432],[-91.2859,14.0099,11.9689],[-91.2826,14.0223,14.2566],[-91.2795,14.0264,15.0463],[-91.2753,14.0268,14.0803],[-91.274,14.0298,14.5436],[-91.2762,14.0332,16.7968],[-91.2756,14.038,17.7016],[-91.27,14.0401,16.9284],[-91.2675,14.0533,21.9162],[-91.2644,14.054,19.2363],[-91.2642,14.0615,20.7031],[-91.2582,14.0631,21.2957],[-91.2571,14.0659,21.8766],[-91.2588,14.0739,28.8915],[-91.2561,14.0752,25.2713],[-91.2525,14.0741,23.9159],[-91.2475,14.0808,27.1334],[-91.2448,14.0798,24.5],[-91.2428,14.0815,25.0],[-91.2369,14.0953,31.6387],[-91.2313,14.0989,31.1089],[-91.2296,14.1019,29.75],[-91.2281,14.1123,34.3425],[-91.2216,14.1133,34.4455],[-91.2232,14.1195,34.4599],[-91.2164,14.1245,35.375],[-91.215,14.1234,36.3134],[-91.2138,14.1256,37.6429],[-91.2145,14.131,37.3748],[-91.2099,14.1332,37.5302],[-91.2018,14.1304,40.5207],[-91.196,14.1388,41.0],[-91.1961,14.1409,42.4297],[-91.1924,14.1443,44.5659],[-91.1911,14.1508,43.9344],[-91.1764,14.1649,48.0676],[-91.1727,14.1745,54.4761],[-91.176,14.1832,59.191],[-91.1738,14.1863,52.8451]]]]}}