{"type": "Feature","bbox": [-90.2988,13.7867,-90.1615,14.0113],"geometry": {"type": "MultiPolygon","coordinates": [[[[-90.2718,13.8076,0.5],[-90.2726,13.8046,1.2282],[-90.2707,13.8032,0.0],[-90.2479,13.794,0.0],[-90.2426,13.794,0.0],[-90.2432,13.7963,0.0],[-90.2513,13.7996,6.8487],[-90.2529,13.8024,1.6513],[-90.2582,13.8018,7.2356],[-90.2626,13.8038,0.0],[-90.2679,13.8038,1.5118],[-90.2718,13.8076,0.5]]],
[[[-90.2649,13.8046,0.375],[-90.2666,13.8065,12.8684],[-90.2704,13.8081,0.5],[-90.269,13.8051,4.2773],[-90.2649,13.8046,0.375]]],
[[[-90.1643,13.9506,290.888],[-90.1615,13.9815,398.8217],[-90.1766,13.9799,257.4506],[-90.1885,13.9821,214.7221],[-90.2086,13.9896,143.6965],[-90.22,13.9958,244.7926],[-90.2294,14.0038,132.9499],[-90.2464,14.0043,348.7959],[-90.2988,14.0113,59.3019],[-90.2982,14.005,48.8518],[-90.2929,13.999,50.5284],[-90.2948,13.9955,48.0937],[-90.2893,13.985,49.455],[-90.2892,13.9822,47.4895],[-90.2932,13.9748,32.8588],[-90.2823,13.9534,25.0814],[-90.2759,13.947,25.1457],[-90.2698,13.9336,19.7402],[-90.2595,13.935,21.0855],[-90.2576,13.9293,20.9389],[-90.2507,13.9292,20.706],[-90.2527,13.9215,19.0223],[-90.2461,13.9147,17.784],[-90.2511,13.9061,20.4419],[-90.2509,13.9022,16.5678],[-90.2546,13.894,17.8505],[-90.2527,13.8904,15.8233],[-90.2491,13.89,15.9276],[-90.2474,13.8802,13.6759],[-90.2439,13.8783,13.9825],[-90.2424,13.8747,13.4882],[-90.2422,13.8717,13.7925],[-90.2448,13.8678,13.3943],[-90.2435,13.8569,11.3969],[-90.2462,13.8479,9.6618],[-90.257,13.8428,5.6153],[-90.2584,13.84,5.4313],[-90.2639,13.8361,5.4701],[-90.2607,13.8155,2.8661],[-90.2588,13.8127,1.6379],[-90.2591,13.811,1.7957],[-90.2625,13.8111,2.5649],[-90.2622,13.8082,15.5903],[-90.2539,13.8047,9.5111],[-90.2567,13.8033,4.7279],[-90.2613,13.8049,0.0],[-90.2593,13.8032,0.0],[-90.2518,13.8029,1.6513],[-90.2504,13.7999,6.8487],[-90.2474,13.7996,9.1975],[-90.2457,13.7974,1.4445],[-90.239,13.7951,4.8043],[-90.2376,13.7929,0.0],[-90.2191,13.7867,18.6778],[-90.2227,13.789,18.721],[-90.2213,13.805,2.1697],[-90.2262,13.8097,4.6863],[-90.214,13.8302,4.0332],[-90.2146,13.8515,12.2229],[-90.2194,13.8575,10.1205],[-90.2222,13.8588,8.1373],[-90.2288,13.8729,12.4025],[-90.2016,13.9062,7.2228],[-90.1921,13.9238,150.8553],[-90.1859,13.9257,150.6198],[-90.1784,13.9312,156.7341],[-90.1643,13.9506,290.888]]]]}
,"properties": {"GID_2": "GTM.11.12_1","GID_0": "GTM","country": "Guatemala","GID_1": "GTM.11_1","province": "Jutiapa","NL_NAME_1": "NA","county": "Pasaco","VARNAME_2": "NA","NL_NAME_2": "NA","TYPE_2": "Municipio","ENGTYPE_2": "Municipality","CC_2": "NA","HASC_2": "NA","name": "Pasaco.county","area_km2": 158.3349,"hist_schema_id": "Elevation0-9000","hist_area_km2": {"0": 35.7798,"25": 53.5877,"50": 13.9088,"75": 8.9914,"100": 7.8391,"125": 7.3452,"150": 6.4193,"175": 5.6168,"200": 4.9586,"225": 3.9504,"250": 2.6954,"275": 2.0369,"300": 1.5226,"325": 1.111,"350": 0.8642,"375": 0.7407,"400": 0.3498,"425": 0.4732,"450": 0.1029,"475": 0.0411}}}