{"type":"Feature","properties":{"GID_2":"GTM.8.30_1","GID_0":"GTM","country":"Guatemala","GID_1":"GTM.8_1","province":"Huehuetenango","NL_NAME_1":"NA","county":"Tectitán","VARNAME_2":"NA","NL_NAME_2":"NA","TYPE_2":"Municipio","ENGTYPE_2":"Municipality","CC_2":"NA","HASC_2":"NA","name":"Tectitán.county"},
"geometry":{"type": "MultiPolygon","coordinates": [[[[-92.0927,15.4623,1211.2493],[-92.1183,15.4188,1056.7264],[-92.1045,15.4016,1150.1534],[-92.0809,15.3934,1391.6815],[-92.077,15.2764,2633.085],[-92.0112,15.2621,2887.7319],[-91.9771,15.2967,2156.0479],[-91.9862,15.3106,2420.4165],[-91.9887,15.3255,2284.7981],[-91.9845,15.3425,2214.8132],[-91.9736,15.3652,1582.7334],[-91.9747,15.3768,1656.5205],[-91.9823,15.4027,1097.1697],[-92.0089,15.4284,1700.0804],[-92.0226,15.4455,2383.6968],[-92.0371,15.4482,2207.9102],[-92.051,15.4482,2276.9736],[-92.0927,15.4623,1211.2493]]]]}}