{"type":"Feature","properties":{"GID_2":"GTM.3.1_1","GID_0":"GTM","country":"Guatemala","GID_1":"GTM.3_1","province":"Chimaltenango","NL_NAME_1":"NA","county":"Acatenango","VARNAME_2":"NA","NL_NAME_2":"NA","TYPE_2":"Municipio","ENGTYPE_2":"Municipality","CC_2":"NA","HASC_2":"NA","name":"Acatenango.county"},
"geometry":{"type": "MultiPolygon","coordinates": [[[[-90.9499,14.5918,1607.6747],[-90.959,14.5975,1877.7765],[-90.968,14.5948,2113.0359],[-90.9965,14.5762,2268.5491],[-90.9962,14.5611,1839.6691],[-91.0325,14.5501,1565.2396],[-91.0418,14.5285,1197.3105],[-91.0304,14.5097,884.5034],[-91.031,14.5031,793.4859],[-91.0226,14.5042,833.0703],[-91.0137,14.4993,923.7966],[-90.9952,14.5083,1133.7056],[-90.9942,14.5125,1028.7346],[-90.9867,14.5155,1062.6189],[-90.9732,14.5139,1204.603],[-90.967,14.5153,1399.9208],[-90.9641,14.5182,1398.5554],[-90.9401,14.5126,1631.7708],[-90.9216,14.5125,1919.0122],[-90.9054,14.5165,2283.1587],[-90.9011,14.5159,2399.7681],[-90.8732,14.4979,3815.625],[-90.8742,14.5032,3856.3652],[-90.8684,14.5314,2641.7893],[-90.8616,14.5333,2443.9189],[-90.8588,14.5401,2354.2192],[-90.8733,14.5502,2434.6816],[-90.8758,14.5573,2491.0383],[-90.8838,14.5643,2408.8213],[-90.897,14.5829,2366.3359],[-90.9099,14.5783,2144.8616],[-90.9142,14.5784,2063.3826],[-90.9198,14.5738,1924.6992],[-90.9378,14.5756,1614.4136],[-90.942,14.5871,1731.0488],[-90.9499,14.5918,1607.6747]]]]}}