{"type":"Feature","properties":{"GID_2":"GTM.19.2_1","GID_0":"GTM","country":"Guatemala","GID_1":"GTM.19_1","province":"Sololá","NL_NAME_1":"NA","county":"?","VARNAME_2":"NA","NL_NAME_2":"NA","TYPE_2":"Waterbody","ENGTYPE_2":"Waterbody","CC_2":"NA","HASC_2":"NA","name":"_.county"},
"geometry":{"type": "MultiPolygon","coordinates": [[[[-91.1634,14.7446,1555.5],[-91.1634,14.748,1569.2389],[-91.1695,14.7499,1659.9255],[-91.1752,14.743,1569.8723],[-91.1797,14.7418,1565.3345],[-91.187,14.7445,1645.8186],[-91.1928,14.7434,1609.3634],[-91.1936,14.7402,1555.5],[-91.1982,14.743,1603.9663],[-91.2042,14.7413,1576.438],[-91.2084,14.7422,1647.6467],[-91.2127,14.7373,1658.3778],[-91.2202,14.7376,1579.1742],[-91.2252,14.7326,1673.5973],[-91.2305,14.7318,1588.2822],[-91.2325,14.7291,1615.0872],[-91.2354,14.732,1599.1255],[-91.2412,14.7319,1563.4492],[-91.2441,14.73,1592.2736],[-91.2427,14.7286,1564.9105],[-91.2432,14.7252,1557.9438],[-91.2457,14.7239,1629.203],[-91.2514,14.7236,1594.0071],[-91.2518,14.7225,1570.6136],[-91.2568,14.7251,1579.644],[-91.2606,14.7212,1560.6526],[-91.2637,14.7258,1658.3936],[-91.2683,14.7215,1616.552],[-91.2681,14.7187,1555.5],[-91.2735,14.7155,1583.2181],[-91.2779,14.716,1592.5653],[-91.2842,14.7126,1567.9143],[-91.2841,14.7089,1555.5],[-91.2868,14.7075,1665.3113],[-91.2882,14.7039,1597.2472],[-91.2863,14.6983,1566.9595],[-91.282,14.6949,1565.4747],[-91.2779,14.6971,1555.5],[-91.276,14.6939,1557.1578],[-91.2703,14.6983,1555.5],[-91.2709,14.6965,1563.3901],[-91.2684,14.6913,1575.8455],[-91.2647,14.6904,1558.4017],[-91.264,14.6881,1564.3867],[-91.2554,14.6812,1555.5],[-91.2451,14.6776,1555.5],[-91.2415,14.6732,1579.705],[-91.2421,14.6667,1655.6575],[-91.2375,14.663,1566.2332],[-91.2398,14.6571,1561.002],[-91.236,14.6549,1576.0549],[-91.2357,14.6531,1604.5173],[-91.2396,14.649,1580.7498],[-91.2417,14.6412,1592.7686],[-91.2453,14.6413,1619.3336],[-91.2445,14.6394,1559.5332],[-91.2579,14.6265,1601.188],[-91.2547,14.6185,1564.2883],[-91.2543,14.6114,1564.6567],[-91.2516,14.6103,1560.1047],[-91.2499,14.6114,1557.2092],[-91.2452,14.6179,1562.3104],[-91.2407,14.6209,1566.8734],[-91.238,14.6266,1562.4895],[-91.2333,14.629,1555.5],[-91.232,14.6355,1572.7205],[-91.2354,14.639,1555.5],[-91.2326,14.6425,1556.2933],[-91.2279,14.6432,1568.3555],[-91.2273,14.6472,1580.8177],[-91.231,14.6497,1572.5835],[-91.2258,14.6523,1557.7332],[-91.2258,14.657,1561.0859],[-91.2211,14.6572,1556.2012],[-91.2186,14.6629,1567.0032],[-91.2209,14.665,1558.0061],[-91.2057,14.6632,1590.1282],[-91.2058,14.6673,1555.5],[-91.1988,14.6638,1562.166],[-91.1973,14.6658,1572.644],[-91.1988,14.6711,1555.5],[-91.1969,14.673,1555.5],[-91.1936,14.6727,1561.9041],[-91.1926,14.6743,1555.5],[-91.1888,14.672,1565.7026],[-91.1849,14.6749,1556.9133],[-91.1826,14.6734,1563.9655],[-91.1823,14.6749,1555.5],[-91.1755,14.6729,1565.7971],[-91.1708,14.6764,1555.5],[-91.1698,14.6745,1555.5],[-91.1668,14.6751,1561.2712],[-91.1672,14.6771,1555.5],[-91.1654,14.677,1557.1726],[-91.1658,14.6721,1562.0369],[-91.1647,14.6725,1557.8717],[-91.165,14.6693,1559.2567],[-91.1637,14.6693,1559.2567],[-91.1631,14.6666,1560.7649],[-91.1601,14.668,1555.5],[-91.1609,14.6655,1557.1005],[-91.1587,14.6649,1555.5],[-91.1589,14.6623,1555.5],[-91.1543,14.6643,1560.8041],[-91.1543,14.6666,1556.6442],[-91.1521,14.6667,1555.5],[-91.1507,14.6641,1555.5],[-91.1551,14.663,1557.7203],[-91.1524,14.6619,1555.5],[-91.1537,14.662,1563.004],[-91.1535,14.6572,1567.7046],[-91.1466,14.6562,1555.5],[-91.1446,14.6531,1555.5],[-91.1423,14.6529,1555.5],[-91.1421,14.643,1559.8036],[-91.1457,14.6393,1597.488],[-91.14,14.638,1558.5419],[-91.1418,14.6339,1581.1647],[-91.1404,14.6332,1625.2522],[-91.1347,14.6365,1620.9062],[-91.1322,14.648,1699.6757],[-91.1329,14.653,1566.0427],[-91.1252,14.6573,1715.7849],[-91.126,14.6618,1598.0635],[-91.1236,14.6628,1555.5],[-91.119,14.6606,1555.5],[-91.1156,14.6614,1650.5513],[-91.1151,14.6686,1673.8496],[-91.1165,14.6719,1619.8113],[-91.1147,14.6746,1581.5071],[-91.1171,14.678,1648.9215],[-91.1184,14.6873,1555.5],[-91.1168,14.6974,1708.2268],[-91.1186,14.697,1555.5],[-91.1182,14.6988,1638.2963],[-91.1269,14.7022,1579.8896],[-91.1266,14.7041,1678.1094],[-91.1305,14.7045,1560.8005],[-91.1294,14.7099,1650.3817],[-91.1327,14.7212,1590.1074],[-91.1369,14.7249,1645.0264],[-91.1396,14.7237,1599.6561],[-91.1425,14.7317,1675.5856],[-91.1472,14.7344,1594.7461],[-91.1574,14.7358,1566.3687],[-91.1634,14.7446,1555.5]]]]}}