{"type":"Feature","properties":{"GID_2":"GTM.7.36_1","GID_0":"GTM","country":"Guatemala","GID_1":"GTM.7_1","province":"Guatemala","NL_NAME_1":"NA","county":"ZONA7","VARNAME_2":"NA","NL_NAME_2":"NA","TYPE_2":"Municipio","ENGTYPE_2":"Municipality","CC_2":"NA","HASC_2":"NA","name":"Z_O_N_A7.county"},
"geometry":{"type": "MultiPolygon","coordinates": [[[[-90.5709,14.6349,1602.3145],[-90.5379,14.6154,1525.8657],[-90.5344,14.6236,1516.894],[-90.5336,14.6388,1505.8386],[-90.5191,14.6662,1403.1057],[-90.5188,14.6807,1368.8186],[-90.5281,14.6751,1428.0717],[-90.5244,14.6714,1438.3274],[-90.526,14.6687,1443.6785],[-90.5291,14.6683,1467.9314],[-90.5313,14.666,1424.2294],[-90.5342,14.6557,1486.1523],[-90.5375,14.6531,1484.1498],[-90.5386,14.65,1449.8304],[-90.5536,14.648,1558.0681],[-90.5563,14.6502,1570.1058],[-90.5645,14.651,1580.4736],[-90.5683,14.6477,1574.9678],[-90.5661,14.6412,1600.3785],[-90.5709,14.6349,1602.3145]]]]}}