{"type": "Feature","bbox": [-91.4225,14.9363,-91.2325,15.1298],"geometry": {"type": "MultiPolygon","coordinates": [[[[-91.237,14.9851,2142.3054],[-91.2547,14.9798,2164.8149],[-91.2628,14.9953,2151.5054],[-91.2643,15.001,2182.0918],[-91.2637,15.0217,2106.178],[-91.2718,15.0354,1902.9803],[-91.2639,15.0496,1984.5685],[-91.259,15.1194,1835.8744],[-91.2675,15.1251,1759.0443],[-91.2724,15.1258,1804.2415],[-91.2787,15.1236,1809.9768],[-91.2794,15.1264,1807.6802],[-91.2874,15.1298,1785.6414],[-91.2959,15.1123,1885.6742],[-91.3001,15.1081,1872.1211],[-91.3119,15.1013,1837.9541],[-91.3155,15.0835,1931.2771],[-91.318,15.0807,1880.7057],[-91.3353,15.0722,1912.8585],[-91.3411,15.0715,1989.561],[-91.3446,15.0694,1948.5281],[-91.354,15.0567,2096.4785],[-91.3747,15.0419,2110.6199],[-91.378,15.037,2153.8752],[-91.376,15.0282,2241.657],[-91.3891,15.0107,2345.9531],[-91.3995,15.0019,2428.0435],[-91.4091,14.9812,2593.4773],[-91.4185,14.9778,2679.6624],[-91.4225,14.9717,2815.7788],[-91.4173,14.9585,2805.03],[-91.3997,14.9611,2991.6304],[-91.3614,14.9589,2954.2734],[-91.3444,14.9449,2893.2585],[-91.3275,14.9411,2898.3035],[-91.3146,14.9424,2657.4993],[-91.2998,14.9371,2764.0479],[-91.2784,14.9395,2755.6042],[-91.2615,14.9363,2700.6736],[-91.2442,14.9412,2392.8035],[-91.2387,14.9452,2374.0303],[-91.2412,14.9643,2152.675],[-91.2325,14.9768,2169.1978],[-91.237,14.9851,2142.3054]]]]}
,"properties": {"GID_2": "GTM.21.7_1","GID_0": "GTM","country": "Guatemala","GID_1": "GTM.21_1","province": "Totonicapán","NL_NAME_1": "NA","county": "SantaMaríaChiquimula","VARNAME_2": "NA","NL_NAME_2": "NA","TYPE_2": "Municipio","ENGTYPE_2": "Municipality","CC_2": "NA","HASC_2": "NA","name": "Santa_María_Chiquimula.county","area_km2": 228.4379,"hist_schema_id": "Elevation0-9000","hist_area_km2": {"1725": 0.2456,"1750": 0.6959,"1775": 1.3715,"1800": 2.5587,"1825": 3.5003,"1850": 5.0563,"1875": 7.5745,"1900": 9.2739,"1925": 8.783,"1950": 8.0053,"1975": 7.4119,"2000": 6.6546,"2025": 7.4125,"2050": 7.4537,"2075": 7.29,"2100": 8.7646,"2125": 9.42,"2150": 9.2565,"2175": 8.335,"2200": 9.8506,"2225": 8.8472,"2250": 7.332,"2275": 7.578,"2300": 7.189,"2325": 4.9361,"2350": 5.141,"2375": 4.4037,"2400": 3.6459,"2425": 3.0314,"2450": 3.2977,"2475": 2.9905,"2500": 2.4375,"2525": 2.5604,"2550": 2.5809,"2575": 2.458,"2600": 2.2122,"2625": 2.3556,"2650": 2.2942,"2675": 2.1508,"2700": 2.2941,"2725": 2.499,"2750": 2.6219,"2775": 2.0893,"2800": 2.2532,"2825": 2.1713,"2850": 1.4748,"2875": 1.5158,"2900": 1.5568,"2925": 1.3929,"2950": 0.7989,"2975": 0.6555,"3000": 0.4302,"3025": 0.2663,"3050": 0.0205,"3100": 0.041}}}