{"type": "Feature","bbox": [-89.4176,14.4628,-89.1267,14.7954],"geometry": {"type": "MultiPolygon","coordinates": [[[[-89.2224,14.785,645.2979],[-89.2085,14.7675,577.8583],[-89.2159,14.7638,564.0499],[-89.2173,14.7576,605.3874],[-89.2231,14.7522,602.9624],[-89.2253,14.7464,633.6366],[-89.2507,14.7278,804.4922],[-89.2367,14.7224,676.5859],[-89.2369,14.7202,727.1627],[-89.2456,14.7113,735.1383],[-89.2474,14.707,825.317],[-89.2727,14.6926,966.2532],[-89.2793,14.6872,1165.8271],[-89.2765,14.6814,1121.0817],[-89.2789,14.6772,1049.788],[-89.2789,14.6733,1017.2832],[-89.2709,14.6663,1057.9561],[-89.2873,14.6533,979.4454],[-89.2907,14.6529,962.0245],[-89.2921,14.6488,969.985],[-89.3013,14.6405,972.8908],[-89.3078,14.6486,1005.7933],[-89.3206,14.6483,1103.3757],[-89.3326,14.6545,1182.8655],[-89.3576,14.6489,1373.8746],[-89.3535,14.6444,1208.855],[-89.3637,14.6271,1127.5026],[-89.3601,14.6237,1057.4341],[-89.3584,14.6128,1040.6023],[-89.3596,14.6026,1073.5242],[-89.3661,14.5875,1095.7202],[-89.3681,14.5867,1078.5847],[-89.3711,14.5882,1193.3528],[-89.3957,14.5842,1683.9685],[-89.4002,14.5861,1632.5625],[-89.4071,14.5754,1736.5875],[-89.4107,14.5729,1620.2211],[-89.4139,14.5736,1559.7209],[-89.4176,14.5702,1251.7747],[-89.3869,14.5471,1248.7751],[-89.3894,14.5269,1646.7916],[-89.3827,14.5156,1857.3479],[-89.3881,14.4863,1847.5789],[-89.3872,14.4794,1768.198],[-89.3832,14.4715,1812.1792],[-89.3714,14.4721,1938.2552],[-89.3641,14.4649,1769.3149],[-89.3481,14.4628,1675.3737],[-89.3485,14.466,1680.3843],[-89.3466,14.468,1537.7931],[-89.3204,14.48,1322.8311],[-89.3155,14.4809,1613.6071],[-89.3087,14.487,1392.8452],[-89.3048,14.4882,1335.9652],[-89.3039,14.491,1220.4587],[-89.2964,14.4944,1224.3254],[-89.2981,14.5049,1497.4437],[-89.2805,14.5177,1170.9366],[-89.2778,14.5295,1060.772],[-89.2733,14.5368,1015.153],[-89.2554,14.5519,958.0651],[-89.252,14.5569,962.1865],[-89.2491,14.568,1024.6147],[-89.238,14.5778,1185.1752],[-89.2273,14.5828,1109.2957],[-89.2176,14.5837,1343.2705],[-89.1777,14.5709,1606.6886],[-89.1685,14.5696,1791.5503],[-89.1554,14.5722,1751.385],[-89.1463,14.6025,1529.4078],[-89.1477,14.6274,1424.1133],[-89.1519,14.6479,1142.5328],[-89.153,14.6629,870.847],[-89.147,14.6768,690.4388],[-89.134,14.6976,917.4289],[-89.1267,14.7151,801.0684],[-89.16,14.7328,780.5566],[-89.1604,14.7556,744.2441],[-89.1634,14.777,1019.8409],[-89.1818,14.7952,692.2111],[-89.2167,14.7954,614.3866],[-89.2219,14.7913,611.7255],[-89.2224,14.785,645.2979]]]]}
,"properties": {"GID_2": "GTM.4.4_1","GID_0": "GTM","country": "Guatemala","GID_1": "GTM.4_1","province": "Chiquimula","NL_NAME_1": "NA","county": "Esquipulas","VARNAME_2": "NA","NL_NAME_2": "NA","TYPE_2": "Municipio","ENGTYPE_2": "Municipality","CC_2": "NA","HASC_2": "NA","name": "Esquipulas.county","area_km2": 494.2617,"hist_schema_id": "Elevation0-9000","hist_area_km2": {"575": 4.6337,"600": 10.211,"625": 13.574,"650": 11.9543,"675": 13.4317,"700": 14.1919,"725": 13.7206,"750": 14.6025,"775": 14.6438,"800": 13.8034,"825": 12.0399,"850": 11.2194,"875": 11.1794,"900": 21.9113,"925": 32.3351,"950": 27.0416,"975": 22.6923,"1000": 19.5323,"1025": 19.4914,"1050": 17.1726,"1075": 15.2031,"1100": 14.3211,"1125": 14.0954,"1150": 11.6951,"1175": 9.9104,"1200": 8.9874,"1225": 7.7768,"1250": 6.156,"1275": 6.7104,"1300": 5.4177,"1325": 4.6996,"1350": 4.5152,"1375": 5.0488,"1400": 5.0693,"1425": 4.6384,"1450": 5.0898,"1475": 5.377,"1500": 4.7821,"1525": 4.0023,"1550": 3.9408,"1575": 3.6329,"1600": 3.2019,"1625": 2.7093,"1650": 2.2577,"1675": 1.9909,"1700": 1.991,"1725": 1.9704,"1750": 1.3547,"1775": 1.4573,"1800": 1.2315,"1825": 1.0674,"1850": 0.739,"1875": 0.5953,"1900": 0.7185,"1925": 0.5132,"1950": 0.4311,"1975": 0.39,"2000": 0.4106,"2025": 0.1642,"2050": 0.2053,"2075": 0.2053,"2100": 0.0821,"2125": 0.0205,"2150": 0.1026}}}