{"type": "Feature","id": "1962","bbox": [-90.29286,13.7289,-89.49615,14.57761],"geometry": {"type": "Polygon","coordinates": [[[-89.59453,14.52299,955.4714],[-89.59822,14.52408,926.6415],[-89.60173,14.52635,888.2032],[-89.6131,14.54273,922.4755],[-89.61788,14.55183,1156.2722],[-89.62354,14.55984,1147.7942],[-89.63052,14.56722,1219.0178],[-89.63264,14.56903,1182.5377],[-89.64519,14.57322,1152.8431],[-89.6855,14.57761,741.3486],[-89.67785,14.55524,869.3964],[-89.6777,14.54542,874.0227],[-89.6784,14.54221,873.0826],[-89.69997,14.52986,858.4642],[-89.76234,14.50046,885.4873],[-89.76436,14.50139,862.4447],[-89.77539,14.50986,985.418],[-89.78206,14.51643,953.2315],[-89.78529,14.5203,1028.8584],[-89.78909,14.5234,1104.4286],[-89.79624,14.5247,1206.168],[-89.81573,14.51948,1051.8489],[-89.83213,14.50873,1004.8879],[-89.85128,14.49643,973.5037],[-89.87164,14.48294,959.0309],[-89.88001,14.4709,967.0251],[-89.88526,14.43648,1166.7118],[-89.92983,14.47059,1383.1603],[-89.93288,14.47193,1277.4563],[-89.93562,14.47286,1218.2903],[-89.93856,14.47348,1215.7905],[-89.94259,14.47379,1183.9001],[-89.94709,14.47348,1295.2404],[-89.95399,14.47214,1418.0443],[-89.95779,14.4708,1455.2936],[-89.96065,14.4693,1478.7544],[-89.96476,14.46491,1450.6058],[-89.98856,14.43431,1605.1279],[-90.05189,14.43349,1579.0928],[-90.06995,14.37845,1609.788],[-90.08395,14.3769,1511.0142],[-90.08093,14.35794,1646.6959],[-90.08202,14.35483,1629.4402],[-90.08426,14.35385,1662.6104],[-90.0893,14.35556,1659.1096],[-90.09411,14.35788,1534.3739],[-90.10517,14.35845,1419.4226],[-90.13997,14.35179,1469.182],[-90.14217,14.35013,1459.3984],[-90.15547,14.33892,1671.1389],[-90.19105,14.25293,1177.4182],[-90.17663,14.24275,1259.7432],[-90.13026,14.22998,1215.8289],[-90.12452,14.22771,1237.0906],[-90.12064,14.22471,1196.9177],[-90.11377,14.21784,1100.7646],[-90.08271,14.19293,794.126],[-90.0583,14.16973,679.0804],[-90.05346,14.15976,606.4159],[-90.05494,14.13785,581.8397],[-90.05034,14.09816,773.2742],[-90.05047,14.09511,817.9113],[-90.05153,14.08927,909.723],[-90.05439,14.08074,1002.1973],[-90.05967,14.06958,1095.5837],[-90.07705,14.04545,1316.4851],[-90.08274,14.03935,1286.8342],[-90.08506,14.03847,1312.5038],[-90.09853,14.03599,1299.385],[-90.11002,14.03279,1102.444],[-90.11568,14.02953,1089.7421],[-90.11917,14.027,1044.2251],[-90.12545,14.01584,1077.9487],[-90.14106,13.98731,732.0211],[-90.15669,13.97677,409.5905],[-90.15994,13.9762,367.4362],[-90.16413,13.97594,374.2289],[-90.1741,13.97982,288.9114],[-90.2134,13.98907,141.2117],[-90.21852,13.99103,218.9707],[-90.23787,14.0069,299.9802],[-90.26596,14.02271,206.6664],[-90.28412,14.01775,113.989],[-90.29025,14.01325,58.4946],[-90.29169,14.00974,58.1852],[-90.29286,14.004,52.4593],[-90.29265,13.99878,49.3951],[-90.292,13.99517,43.843],[-90.28854,13.98793,65.834],[-90.28526,13.9839,51.9961],[-90.28025,13.97879,36.8469],[-90.27864,13.9747,29.8801],[-90.27141,13.93341,18.2523],[-90.27022,13.93104,20.2654],[-90.26857,13.92923,20.384],[-90.2665,13.92778,20.9556],[-90.26146,13.92546,19.8333],[-90.25852,13.9207,18.9895],[-90.25513,13.91269,17.3502],[-90.24544,13.87776,14.1221],[-90.23255,13.85502,9.6169],[-90.23082,13.84996,8.1938],[-90.23012,13.84515,7.6242],[-90.23051,13.82722,4.7854],[-90.23699,13.80231,3.4946],[-90.24056,13.78872,0.0],[-90.09833,13.73141,5.1938],[-90.09298,13.7289,1.3701],[-90.11431,13.79626,12.8466],[-90.11478,13.812,13.3139],[-90.1123,13.82825,13.2075],[-90.10698,13.84407,22.7827],[-90.09904,13.85851,29.3559],[-90.08708,13.87047,40.9351],[-90.05964,13.88471,131.6853],[-90.04737,13.8943,109.581],[-90.03809,13.90838,180.1537],[-90.03148,13.92292,276.9102],[-90.02298,13.93695,248.2249],[-90.00817,13.94969,228.8317],[-89.91208,14.01519,359.7386],[-89.89079,14.03589,323.7407],[-89.88012,14.04268,323.2669],[-89.83586,14.05909,391.3727],[-89.8211,14.06007,497.2516],[-89.80296,14.05547,548.9998],[-89.77694,14.03579,558.7001],[-89.76227,14.03,614.9248],[-89.74764,14.03765,628.9341],[-89.74726,14.0432,685.891],[-89.74801,14.04489,671.1644],[-89.75447,14.0594,772.235],[-89.75545,14.06708,868.7587],[-89.7526,14.07524,842.1339],[-89.70987,14.14872,853.9137],[-89.68984,14.17001,780.9453],[-89.66463,14.18885,639.9786],[-89.63832,14.20056,909.7595],[-89.53094,14.22557,433.3898],[-89.5245,14.23177,435.3969],[-89.52466,14.24737,429.5],[-89.52786,14.25146,429.5],[-89.54055,14.25761,429.5],[-89.54492,14.26182,429.5],[-89.54678,14.26833,429.5],[-89.54859,14.2836,429.5],[-89.54988,14.28828,429.5],[-89.55569,14.29902,436.1202],[-89.55859,14.30282,433.5429],[-89.56437,14.30815,434.0817],[-89.57127,14.31114,445.1931],[-89.59218,14.31383,482.8929],[-89.59835,14.32799,503.1585],[-89.59243,14.33639,601.1344],[-89.58241,14.34336,512.0474],[-89.57608,14.35313,490.6937],[-89.57897,14.36478,518.5606],[-89.58628,14.37468,557.0927],[-89.59057,14.38597,632.1616],[-89.58406,14.40181,702.9481],[-89.56988,14.41202,757.5079],[-89.55517,14.41083,560.7882],[-89.54425,14.40005,631.8271],[-89.54135,14.38153,469.0186],[-89.52776,14.39106,499.8055],[-89.50303,14.42005,713.0898],[-89.49615,14.4229,575.1089],[-89.49655,14.42336,648.4644],[-89.50954,14.43834,523.619],[-89.51073,14.44031,531.613],[-89.51151,14.44186,543.4379],[-89.51166,14.44548,573.0597],[-89.51117,14.45085,628.0779],[-89.50856,14.46232,660.7313],[-89.50531,14.47193,639.5001],[-89.50231,14.47834,581.5386],[-89.49755,14.49214,715.6021],[-89.49655,14.49731,667.725],[-89.49631,14.50185,721.479],[-89.49913,14.50873,645.6452],[-89.51314,14.52371,799.5424],[-89.51939,14.52594,836.5903],[-89.59453,14.52299,955.4714]]]}
,"properties": {"ISO3166-1-Alpha-3": "GTM","country": "Guatemala","fill": "#F00","name": "Jutiapa","area_km2": 3337.225,"hist_schema_id": "Elevation0-9000","hist_area_km2": {"0": 166.395,"25": 93.853,"50": 27.905,"75": 20.187,"100": 18.274,"125": 15.145,"150": 12.799,"175": 11.009,"200": 10.638,"225": 10.515,"250": 9.383,"275": 8.848,"300": 8.725,"325": 16.602,"350": 13.208,"375": 18.639,"400": 17.857,"425": 37.441,"450": 93.08,"475": 76.026,"500": 70.292,"525": 61.234,"550": 58.793,"575": 60.598,"600": 62.711,"625": 59.315,"650": 61.775,"675": 69.292,"700": 74.638,"725": 68.059,"750": 68.467,"775": 66.762,"800": 68.837,"825": 81.628,"850": 88.57,"875": 117.881,"900": 129.227,"925": 116.945,"950": 119.965,"975": 130.698,"1000": 93.934,"1025": 78.67,"1050": 72.218,"1075": 56.095,"1100": 54.944,"1125": 54.433,"1150": 53.219,"1175": 45.306,"1200": 41.791,"1225": 38.874,"1250": 34.911,"1275": 32.899,"1300": 30.207,"1325": 28.829,"1350": 26.504,"1375": 23.996,"1400": 19.373,"1425": 14.852,"1450": 13.289,"1475": 13.021,"1500": 12.795,"1525": 13.185,"1550": 14.109,"1575": 13.514,"1600": 13.246,"1625": 13.657,"1650": 13.308,"1675": 12.754,"1700": 15.772,"1725": 14.088,"1750": 12.979,"1775": 10.474,"1800": 9.036,"1825": 6.305,"1850": 4.539,"1875": 2.095,"1900": 1.746,"1925": 1.15,"1950": 0.821,"1975": 0.575,"2000": 0.472,"2025": 0.39,"2050": 0.431,"2075": 0.205}}}