{"type": "Feature","bbox": [-90.2988,13.7383,-89.4938,14.5633],"geometry": {"type": "MultiPolygon","coordinates": [[[[-90.271,13.8063,6.3642],[-90.2726,13.8082,4.0141],[-90.2721,13.804,3.1418],[-90.2643,13.8004,0.0],[-90.2479,13.794,0.0],[-90.2426,13.794,0.0],[-90.2432,13.7963,0.0],[-90.2513,13.7996,6.8487],[-90.2529,13.8024,1.6513],[-90.2604,13.8021,2.8341],[-90.2626,13.8038,0.0],[-90.2679,13.8038,1.5118],[-90.271,13.8063,6.3642]]],
[[[-90.2654,13.8043,0.375],[-90.2646,13.8051,0.375],[-90.2704,13.8081,0.5],[-90.269,13.8051,4.2773],[-90.2654,13.8043,0.375]]],
[[[-90.2318,13.7907,15.5942],[-90.2293,13.7879,0.0],[-90.2321,13.7887,2.4339],[-90.2326,13.7907,15.5942],[-90.2387,13.7921,0.0],[-90.2335,13.7879,0.0],[-90.2126,13.7793,0.0],[-90.2099,13.779,1.2847],[-90.2087,13.781,0.0],[-90.1954,13.7749,1.7703],[-90.1896,13.7743,4.8198],[-90.1907,13.7726,3.4564],[-90.1932,13.7726,2.7626],[-90.2015,13.7757,0.0],[-90.1376,13.7474,2.4517],[-90.1321,13.7479,2.4715],[-90.1293,13.7432,0.0],[-90.1249,13.7416,1.7512],[-90.1187,13.7435,8.5459],[-90.108,13.7383,5.9152],[-90.1041,13.7392,5.5525],[-90.0979,13.7474,4.4515],[-90.0962,13.7529,4.6969],[-90.0918,13.7534,7.5857],[-90.09,13.7571,5.0553],[-90.091,13.7596,5.7985],[-90.0966,13.7607,5.5678],[-90.1062,13.7773,7.5265],[-90.1137,13.7752,10.8184],[-90.1158,13.778,10.639],[-90.1143,13.797,12.8466],[-90.1062,13.8077,11.322],[-90.1068,13.8116,11.7199],[-90.1044,13.8134,12.4172],[-90.1096,13.835,16.4238],[-90.0953,13.8478,25.024],[-90.0887,13.8613,35.2416],[-90.0863,13.8619,37.9392],[-90.0825,13.867,53.0653],[-90.0794,13.876,51.0967],[-90.0666,13.8796,70.1686],[-90.0655,13.8825,77.2051],[-90.0631,13.8834,88.166],[-90.0641,13.886,106.3589],[-90.0624,13.8882,83.0641],[-90.0425,13.8913,154.3869],[-90.0351,13.8963,161.4697],[-90.0313,13.9034,222.2354],[-90.0345,13.9161,135.8789],[-90.0341,13.918,107.0478],[-90.0278,13.9205,115.1464],[-90.0264,13.9246,260.6897],[-90.0267,13.9367,177.6046],[-90.0216,13.9363,248.2249],[-90.0197,13.9391,151.6724],[-90.0108,13.9423,199.2236],[-90.0098,13.9441,153.9743],[-90.0051,13.9447,260.5829],[-90.0041,13.9483,232.5945],[-89.998,13.9534,224.7761],[-89.9884,13.9569,198.8668],[-89.9865,13.9592,224.3598],[-89.9849,13.9581,252.6956],[-89.9757,13.9611,264.6086],[-89.9713,13.9663,329.9942],[-89.9599,13.9709,319.6578],[-89.9555,13.9759,374.5096],[-89.9578,13.9809,393.5616],[-89.9571,13.9821,424.8832],[-89.9551,13.9809,353.4201],[-89.9478,13.9822,263.2177],[-89.9381,13.9879,256.3217],[-89.934,13.9957,334.2941],[-89.9292,13.9966,344.8073],[-89.9255,14.0059,291.4202],[-89.9204,14.0079,294.6471],[-89.9179,14.0071,375.2581],[-89.9172,14.0093,342.7798],[-89.909,14.0129,299.7681],[-89.9002,14.0321,310.9873],[-89.9007,14.0357,316.5622],[-89.8964,14.0375,320.3448],[-89.8956,14.0405,318.0581],[-89.892,14.0437,320.0482],[-89.8713,14.0453,441.4637],[-89.8661,14.0431,433.4204],[-89.8616,14.0431,334.6284],[-89.8483,14.0569,373.2325],[-89.8405,14.0582,375.9151],[-89.8307,14.0624,418.3102],[-89.8174,14.0644,462.8644],[-89.8106,14.0626,526.5588],[-89.8076,14.0597,502.7133],[-89.8029,14.059,612.5877],[-89.8012,14.0559,548.9998],[-89.7952,14.0554,548.7133],[-89.7899,14.05,538.8422],[-89.7857,14.0482,577.6338],[-89.7829,14.0399,569.0373],[-89.7791,14.0401,571.5705],[-89.7756,14.0354,527.8704],[-89.7584,14.0354,533.7075],[-89.7511,14.0333,602.2657],[-89.7377,14.0338,616.5134],[-89.7384,14.0373,589.5557],[-89.7326,14.0361,628.589],[-89.7314,14.0421,620.3523],[-89.7377,14.0456,666.0079],[-89.7399,14.0537,676.4595],[-89.7372,14.0601,709.7225],[-89.7417,14.0658,664.5601],[-89.731,14.0876,699.1661],[-89.7287,14.0983,832.4723],[-89.718,14.1253,1336.9249],[-89.7094,14.1406,1094.0736],[-89.6614,14.1824,689.0225],[-89.6616,14.1845,682.02],[-89.6324,14.2001,854.6108],[-89.6255,14.2017,764.9371],[-89.6172,14.2022,802.5417],[-89.5943,14.199,478.9969],[-89.5679,14.202,535.2603],[-89.5466,14.2129,523.9786],[-89.5314,14.2172,433.9781],[-89.5206,14.2232,461.3871],[-89.517,14.2344,429.5],[-89.5131,14.2375,429.5],[-89.5129,14.2408,429.5],[-89.5167,14.2425,429.5],[-89.5182,14.2387,429.5],[-89.5291,14.2659,429.5],[-89.5419,14.283,429.5],[-89.5454,14.2935,429.5],[-89.5408,14.2903,429.5],[-89.5391,14.2916,429.5],[-89.5372,14.2964,429.5],[-89.5391,14.3029,433.1448],[-89.5447,14.3081,434.4714],[-89.5496,14.3094,434.9062],[-89.5494,14.3125,436.3347],[-89.5514,14.3133,435.543],[-89.554,14.3181,438.2788],[-89.5571,14.3195,436.657],[-89.5705,14.3197,451.7809],[-89.5753,14.3214,486.1645],[-89.5817,14.3159,451.9976],[-89.5848,14.3156,475.4543],[-89.5854,14.3172,484.8555],[-89.5846,14.3327,538.3094],[-89.5805,14.3445,504.3564],[-89.5758,14.3466,497.8997],[-89.5684,14.346,472.649],[-89.5657,14.3483,474.8077],[-89.5653,14.3552,453.0592],[-89.5578,14.3567,463.0919],[-89.5593,14.3625,460.673],[-89.5704,14.372,512.295],[-89.5691,14.3765,506.3552],[-89.5735,14.396,677.0476],[-89.5722,14.4115,744.4742],[-89.5677,14.4202,652.2073],[-89.535,14.4212,639.3741],[-89.5365,14.4171,610.6377],[-89.5263,14.4006,604.5764],[-89.5306,14.3888,496.7667],[-89.5227,14.3864,494.8503],[-89.5209,14.3886,477.401],[-89.5152,14.3883,500.2315],[-89.509,14.3968,565.8676],[-89.4976,14.4062,539.6552],[-89.5039,14.4124,573.9727],[-89.5151,14.4353,529.79],[-89.5014,14.4436,558.4025],[-89.4964,14.4484,602.412],[-89.4948,14.4576,609.1358],[-89.4964,14.461,571.1056],[-89.4938,14.4699,594.8177],[-89.497,14.476,601.0816],[-89.4953,14.4777,653.6097],[-89.4951,14.4825,630.1589],[-89.5089,14.4917,611.1494],[-89.5035,14.4971,638.0262],[-89.516,14.5016,678.2175],[-89.5137,14.5087,705.4799],[-89.5188,14.5142,693.3385],[-89.6198,14.5114,889.0947],[-89.6149,14.5514,1081.2092],[-89.6396,14.5633,1589.5098],[-89.6771,14.5364,870.8611],[-89.6711,14.5259,875.0772],[-89.6693,14.5186,879.7045],[-89.6926,14.5075,852.0551],[-89.751,14.4842,792.8691],[-89.7514,14.487,821.2552],[-89.7547,14.4894,794.8697],[-89.7569,14.4874,773.194],[-89.7731,14.4898,856.021],[-89.7863,14.4863,876.0344],[-89.7902,14.487,865.183],[-89.792,14.4889,807.5983],[-89.7887,14.4936,901.7173],[-89.7919,14.495,922.5848],[-89.7966,14.4941,867.1956],[-89.8029,14.4968,1008.8981],[-89.812,14.5116,1006.4805],[-89.8185,14.5152,1009.3467],[-89.8178,14.5164,1034.851],[-89.8195,14.5182,1019.8378],[-89.8309,14.5137,931.2526],[-89.8371,14.5006,968.652],[-89.8463,14.4923,971.1301],[-89.8486,14.4886,963.6313],[-89.8497,14.4747,967.9962],[-89.8596,14.4698,970.4156],[-89.8652,14.4688,969.7435],[-89.8743,14.4709,965.6359],[-89.8834,14.464,999.9572],[-89.8888,14.4387,1286.8479],[-89.8942,14.441,1286.0118],[-89.926,14.4631,1314.854],[-89.9751,14.4542,1434.6389],[-89.9809,14.4513,1404.1545],[-89.9825,14.4349,1516.7853],[-89.9849,14.4318,1500.3877],[-90.0469,14.4299,1571.7887],[-90.0579,14.3892,1726.5286],[-90.0911,14.3542,1530.6443],[-90.1229,14.3568,1453.8348],[-90.1155,14.3425,1621.6173],[-90.1167,14.3342,1624.2166],[-90.1207,14.3335,1726.0959],[-90.1305,14.3356,1702.3906],[-90.1408,14.3425,1544.142],[-90.1943,14.3255,1790.4353],[-90.1988,14.3225,1747.3397],[-90.2002,14.32,1601.6455],[-90.1986,14.3096,1408.8948],[-90.2059,14.2961,1176.9845],[-90.2021,14.2727,911.0747],[-90.2067,14.2642,899.6824],[-90.2022,14.2575,1042.569],[-90.1983,14.2556,1073.9459],[-90.1876,14.2564,1273.707],[-90.1571,14.2526,1376.9337],[-90.0754,14.2025,893.1074],[-90.0621,14.1825,861.7264],[-90.067,14.1816,724.2607],[-90.0726,14.1774,728.7886],[-90.0685,14.1715,635.3824],[-90.069,14.1671,596.5151],[-90.0759,14.1628,583.4876],[-90.0796,14.1642,636.5211],[-90.0813,14.1614,579.1304],[-90.0573,14.1273,640.0488],[-90.0551,14.1303,596.5323],[-90.0529,14.1259,604.8006],[-90.079,14.0601,1009.5403],[-90.0993,14.0676,692.3206],[-90.1189,14.0607,730.229],[-90.1155,14.0487,891.6969],[-90.1161,14.0383,978.4312],[-90.1206,14.0122,1182.1682],[-90.1229,14.011,1186.0979],[-90.1166,14.0033,1081.7319],[-90.1166,14.0,1176.4825],[-90.1214,13.9959,1280.5183],[-90.1467,13.9616,528.6218],[-90.1493,13.963,532.6523],[-90.1465,13.9674,494.808],[-90.1459,13.9745,510.2511],[-90.1523,13.9806,501.8959],[-90.1615,13.9815,398.8217],[-90.1766,13.9799,257.4506],[-90.1885,13.9821,214.7221],[-90.2086,13.9896,143.6965],[-90.22,13.9958,244.7926],[-90.2294,14.0038,132.9499],[-90.2464,14.0043,348.7959],[-90.2988,14.0113,59.3019],[-90.2982,14.005,48.8518],[-90.2929,13.999,50.5284],[-90.2948,13.9955,48.0937],[-90.2893,13.985,49.455],[-90.2892,13.9822,47.4895],[-90.2932,13.9748,32.8588],[-90.2823,13.9534,25.0814],[-90.2759,13.947,25.1457],[-90.2698,13.9336,19.7402],[-90.2595,13.935,21.0855],[-90.2576,13.9293,20.9389],[-90.2507,13.9292,20.706],[-90.2527,13.9215,19.0223],[-90.2461,13.9147,17.784],[-90.2511,13.9061,20.4419],[-90.2509,13.9022,16.5678],[-90.2546,13.894,17.8505],[-90.2527,13.8904,15.8233],[-90.2491,13.89,15.9276],[-90.2474,13.8802,13.6759],[-90.2439,13.8783,13.9825],[-90.2424,13.8747,13.4882],[-90.2422,13.8717,13.7925],[-90.2448,13.8678,13.3943],[-90.2435,13.8569,11.3969],[-90.2462,13.8479,9.6618],[-90.257,13.8428,5.6153],[-90.2584,13.84,5.4313],[-90.2639,13.8361,5.4701],[-90.2607,13.8155,2.8661],[-90.2588,13.8127,1.6379],[-90.2591,13.811,1.7957],[-90.2625,13.8111,2.5649],[-90.2622,13.8082,15.5903],[-90.2539,13.8047,9.5111],[-90.2567,13.8033,4.7279],[-90.2613,13.8046,0.0],[-90.2582,13.8026,0.0],[-90.2518,13.8029,1.6513],[-90.2504,13.7999,6.8487],[-90.2474,13.7996,9.1975],[-90.2457,13.7974,1.4445],[-90.2396,13.7954,0.0],[-90.2376,13.7929,0.0],[-90.2318,13.7907,15.5942]]]]}
,"properties": {"GID_1": "GTM.11_1","GID_0": "GTM","country": "Guatemala","province": "Jutiapa","VARNAME_1": "NA","NL_NAME_1": "NA","TYPE_1": "Departamento","ENGTYPE_1": "Department","CC_1": "NA","HASC_1": "GT.JU","ISO_1": "GT-22","name": "Jutiapa.province","area_km2": 3356.753,"hist_schema_id": "Elevation0-9000","hist_area_km2": {"0": 181.773,"25": 100.275,"50": 29.654,"75": 19.591,"100": 18.13,"125": 14.981,"150": 13.437,"175": 11.544,"200": 10.844,"225": 10.906,"250": 9.795,"275": 9.322,"300": 9.733,"325": 16.026,"350": 14.114,"375": 19.05,"400": 17.959,"425": 51.969,"450": 99.656,"475": 81.696,"500": 75.612,"525": 62.794,"550": 61.154,"575": 62.816,"600": 68.076,"625": 61.455,"650": 64.923,"675": 70.53,"700": 75.197,"725": 67.981,"750": 67.895,"775": 64.67,"800": 66.315,"825": 72.004,"850": 81.697,"875": 111.542,"900": 122.97,"925": 115.984,"950": 115.863,"975": 123.146,"1000": 93.751,"1025": 78.96,"1050": 72.508,"1075": 57.165,"1100": 55.911,"1125": 55.317,"1150": 53.96,"1175": 45.965,"1200": 41.977,"1225": 38.977,"1250": 34.315,"1275": 32.078,"1300": 29.818,"1325": 28.111,"1350": 25.518,"1375": 23.421,"1400": 18.675,"1425": 14.585,"1450": 12.489,"1475": 12.036,"1500": 11.809,"1525": 12.303,"1550": 12.795,"1575": 12.117,"1600": 12.158,"1625": 12.959,"1650": 12.898,"1675": 12.528,"1700": 15.239,"1725": 13.534,"1750": 12.527,"1775": 9.94,"1800": 8.79,"1825": 6.182,"1850": 4.477,"1875": 2.095,"1900": 1.746,"1925": 1.15,"1950": 0.821,"1975": 0.575,"2000": 0.472,"2025": 0.39,"2050": 0.431,"2075": 0.205}}}